"Code","Branch Name","Phone Number","Address","Lat","Long","District","Thana","Google Map"
"0001","Mirpur 10 Dhaka","001847099001","বাড়ির মালিকঃকাজি আফুরউদ্দিন আহমদ, ১৯/৩,বড়বাগ মিরপুর, ঢাকা | থানা:-মিরপুর জেলা:-ঢাকা |","23.801501","90.361314","Dhaka","Pallabi","Map"
"0002","Nawbgonj-Section Dhaka","001847099002","মোঃ সফিকুর রহমান, ৪৯-৫১ নবাবগঞ্জ রোড,জনতা বাংকের উপরে (৩য় তলা) নবাবগঞ্জ-সেকশন, লালবাগ, ঢাকা","23.7240015","90.3761593","Dhaka","Lalbag","Map"
"0003","Jatrabari Dhaka","001847099003","মোঃ আলহাজ্ব নুরুদ্দিন সরদার, ৮নং সহিদ ফারুক রোড, যাত্রাবাড়ী, ঢাকা ।","23.70933","90.428389","Dhaka","Jatrabari","Map"
"0004","Mirpur-Stadium Dhaka","001847099004","মোঃ হারুনার রশিদ, পিতাঃ মরহুম হাসান আলী ,বাড়ী নং-১৮, রোড নং-০১, ব্লক- বি ,সেকশন -৬,মিরপুর- ঢাকা,১২১৬।","23.809203","90.3634943","Dhaka","Pallabi","Map"
"0005","Vatara  Dhaka","001847099005","মো: মাহবুবুল আলম পিতা : আব্দুস সাত্তার মজুমদার, (২য় তলা), বাড়ী নং-০২, ডা: শাফি স্বরনী রোড, ভাটারা নতুন বাজার,  ঢাকা-১২১২","23.798630","90.428727","Dhaka","Khilkhet","Map"
"0006","Matborbazar-Kamrangirchar  Dhaka","001847099006","হাজী মোঃ সাহাবুদ্দিন পিতা-মৃতঃ আদুল সোবহান তাজ, হারিকেন রোড, পূর্ব ইসলাম নগর, কামরাঙ্গীরচর, ঢাকা ।","23.7114231","90.377146","Dhaka","Keraniganj","Map"
"0007","Golambazar-Keraniganj  Dhaka","001847099007","মোঃ মোশারফ হোসেন বাবুল, গোলাম বাজার, চড়াইল ক্লাব রোড, কেরানীগঞ্জ, ঢাকা","23.6980554","90.3919155","Dhaka","Keraniganj","Map"
"0008","Pallabi-1 Dhaka","001847099008","উম্মে সালমা চৌধুরী, বাড়ি নং-০৫, রোড নং-০৪, ব্লক-এ, পল্লবী, মিরপুর-১১, ঢাকা","23.8167822","90.366754","Dhaka","Pallabi","Map"
"0009","Khilgaon Dhaka","001847099009","বাড়ির মালিক-রোকেয়া বেগম,  হোল্ডিং: ১১০২/এ খিলগাও, , ২০ নং রোড তিলপাপাড়া, খিলগাঁও, ঢাকা ।(তিলপাপাড়া, খিলগাঁও রেল ক্রসিং পার হয়ে ঢাকা হোটেল থেকে সামনে ( Best Buyশোরুম) এর পাশের গলিতে ২০ নং রোডের শেষ মাথায় দারোগা বিল্ডিং এর নিচ তলায়)","23.748834","90.429974","Dhaka","Khilkhet","Map"
"0010","Mirhajirbag-Jatrabari Dhaka","001847099010","খালেদা সুলতানা, ৯৯/ই, শহিদ ফারুক রোড, যাত্রাবাড়ি,","23.7090641","90.4312903","Dhaka","Jatrabari","Map"
"0011","Sutrapur Dhaka","001847099011","মোঃ ওহাব মিয়া। ৬৪ নং এস কে দাস রোড (ভাট্টিখানা), ডাকঘর-ফরিদাবাদ, থানা-গেন্ডারিয়া, জেলা-ঢাকা। 01719588688","23.7040636","90.4201642","Dhaka","Sutrapur","Map"
"0012","Khilkhet Dhaka","001847099012","বিলকিছ আক্তার, পিতা: মৃত-সাদেক আলী, মাতা:-আতর বানু।স্বামী:- সৈয়দ ইকবাল হোসেন (স্বপন)ক-৬/১ , আমতলা কাঁচা বাজার মোড়, খিলক্ষেত, ঢাকা। বাড়ির মালিকের মোবাঃ-০১৯৩৯-৪২৯৫৫০,","23.83134","90.42725","Dhaka","Khilkhet","Map"
"0013","Gandaria Dhaka","001847099013","জনাব প্রফেসর মোঃ আবুল আজাদ, ৪ নং অক্ষয় দাস লেন, গেন্ডারিয়া, সুত্রাপুর, ঢাকা","23.7108157","90.420391","Dhaka","Sutrapur","Map"
"0014","Mogbazar Dhaka","001847099014","মোঃ মতিউল আলম চৌধুরী, পিতাঃ আব্দুল মতিন চৌধুরী, ৬৮/এ সোনালী বাগ, পোঃশান্তিনগর, থানাঃ-রমনা, জেলাঃ ঢাকা, (মগবাজার ফ্লাইওভার এর ঢালে নেমে, হাতের বাম পাশে (ডাচ বাংলা  বুথের) পাশ দিয়ে  সোনালীবাগ চান বেকারি গলি, জনতা ব্যাংকের সামনের বিল্ডিংয়ের  নিচ  তলায়। ) মোবাইল নং ০১৭১৫৭৩২৫৩৩।।","23.751539","90.410365","Dhaka","Vatara","Map"
"0015","Pallabi-2 Dhaka","001847099015","উম্মে সালমা চৌধুরী, বাড়ি নং-০৫, রোড নং-০৪, ব্লক-এ, পল্লবী, মিরপুর-১১, ঢাকা","23.8167174","90.3667701","Dhaka","Pallabi","Map"
"0016","Khulshi Chattogram","001847099016","জনাবা সানোয়ারা করিম, ৫৩/এ, রোড়-০১, দক্ষিন খুলশী আবাসিক এলাকা,  পো.-খুলশী, থানা-খুলশী, জেলা- চট্রগ্রাম ।","22.3584064","91.8122648","Chattogram","Khulshi","Map"
"0017","Bakolia Chattogram","001847099017","মৃগাঙ্গ দত্ত, পিতা: মৃত অরুন বিকাশ দত্ত, এ/৭২ দত্ত কুঠির, কল্পলোক আ/এ, বাকলিয়া চট্রগ্রাম","22.3407102","91.8547628","Chattogram","Bakolia","Map"
"0018","Foillatolibazar-Halishahar Chattogram","001847099018","জনাব মোঃ জাহাঙ্গীর, কলেজ  রোড, পোঃ কাস্টম থানাঃ পাহাড়তলী, জেলা –চট্রগ্রাম (ফইল্যাতলী বাজার ফজলুল হাজেরা ডিগ্রী কলেজ পাশে)","22.346673","91.774959","Chattogram","Halishahar","Map"
"0019","Pagla  Narayanganj","001847099019","সাইফুদ্দিন শাহিন মিয়ার বাড়ি, পাগলা নয়ামাটি রেললাইন সংলগ্ন (নন্দলাল পুর রোড) কুতুব পুর, ফতুল্লা, নারায়ণগঞ্জ ।","23.6632584","90.4635424","Narayanganj","Fatulla","Map"
"0020","Gazibari-Tongi Gazipur","001847099020","মোঃআমির হামজা,তিতাস গ্যাস রোড, বাড়ী- ২৪, ওয়ার্ড- ৫৫, মাছিমপুর, পোস্ট: মন্নুনগর-১৭১০, টঙ্গী, গাজীপুর","23.892725","90.405637","Gazipur","Tongi","Map"
"0021","Oxygen  Chattogram","001847099021","জাহাঙ্গীর  আলম ,অক্সিজেন ,জালালাবাদ, চট্রগ্রাম","22.3953","91.82045","Chattogram","Bayezid Bostami","Map"
"0022","Nitaiganj  Narayanganj","001847099022","তাসলিমা আলী ৯৬/৪ শাহসুজা রোড,আমহাত্তা জল্লার পাড়ের সাথের গলিতে , নারায়ণগঞ্জ","23.608709","90.500484","Narayanganj","Narayanganj Sadar","Map"
"0023","Signboard Narayanganj","001847099023","মোঃজাকের হোসাইন, জাকের মহল,  হোল্ডিং ং -১১, সেক্টর -১, প্রধান সড়ক , তুষারধারা আবাসিক এলাকা ওয়া্র্ড নং-৬৫, থানা- কদমতলী , পোষ্ট কোড- ১৩৬২, সাদ্দাম মার্কেট, সাইনবোর্ড, নারায়ণগঞ্জ ।","23.690978","90.4730684","Narayanganj","Shiddhirganj","Map"
"0024","Cheragali  Gazipur","001847099024","চেরাগ আলী ট্রাক ইস্টান এর পশ্চিম পাশে,  হাউজ # ৬৫,    বেপারী বাড়ি রোড, বেপারী বাড়ি (লতিফ বেপারীর  বাসা ), আউসপাড়া, টংগী, গাজীপুর।","23.9046491","90.39608270","Gazipur","West Tongi","Map"
"0026","Ponchoboti Narayanganj","001847099026","মো:মাসুম, হরিহর পাড়া শান্তিনগর, ডাকঘর-এনায়েতনগর,থানা-ফতুল্লা, নারায়নগঞ্জ।মোবাইল ০১৯৮৭৮৩৩৭১৮","23.6311","90.4714","Narayanganj","Shiddhirganj","Map"
"0027","Chittagong-Road Narayanganj","001847099027","হাজী মোঃ আয়াত আলী ভূইয়া ,দক্ষিন নিমাই কাশারী (ক্যানেল রোড)হোল্ডিং নং -১১/১,ব্লক নং -এ ,৩ নং ওয়াড সিদ্ধিরগঞ্জ","23.697055","90.498934","Narayanganj","Rupganj","Map"
"0028","Zinzira  Dhaka","001847099028","রুনা আক্তার, বন্দ মান্দাইল, মনু ব্যাপারীর ঢাল, জিঞ্জিরা-নবাবগঞ্জ রোড, জিঞ্জিরা, কেরানীগঞ্জ, ঢাকা-১৩১০","23.7007804","90.3848137","Dhaka","Keraniganj","Map"
"0029","Bandar Narayanganj","001847099029","মোঃ মোশারফ হোসেন, ২/১ এইচ এম সেন রোড, সৈয়দ ভিলা, বন্দর, নারায়ণগঞ্জ","23.6138289","90.5125574","Narayanganj","Rupganj","Map"
"0030","Khalishpur Khulna","001847099030","নুরজাহান পলি, ওয়েস্ট জোন নর্থ-বি-১৯, গোয়ালখালি, কবরস্থানের পাশে, খালিশপুর, খুলনা","22.85529","89.53580","Khulna","Khulna Sadar","Map"
"0031","Daulatpur Khulna","001847099031","মোঃ আক্তার হোসেন, দেয়ানা বাউন্ডারী রোড, আমতলা, দৌলতপুর-খুলনা, মোবাইলঃ০১৯৭৬-৬৪৬৬৪৬ ।","22.86904","89.51980","Khulna","Khulna Sadar","Map"
"0032","Chatipotti Cumilla","001847099032","গোলাম রাব্বানী, চকবাজার,গর্জনখোলা পোঃ-কুমিল্লা সদর থানাঃ-কুমিল্লা সদর জেলাঃ-কুমিল্লা।","23.463186","91.192355","Cumilla","Cumilla Sadar South","Map"
"0033","Sadar Cumilla","001847099033","ইসলাম সিদ্দিক, পিতা-মোহাম্মদ ইসমাঈল, বাড়ি নং-৪৪, জজ কোর্ট, কুমিল্লা সদর, কুমিল্লা .।","23.4700226","91.1805024","Cumilla","Cumilla Sadar","Map"
"0034","Muhuripara-Halishahar Chattogram","001847099034","আলহাজ আনোয়ার, ২৪নং ওয়ার্ড মহুরীপাড়া উত্তরা আবাসিক, পো: বন্দর, থানা-হালিশহর, জেলা- চট্রগ্রাম","22.331255","91.800706","Chattogram","Halishahar","Map"
"0035","Sadar Munshiganj","001847099035","মুক্তার পুর,পঞ্চসার ইউনিয়ন, সান শাইন স্কুল এর গলি, মুন্সিগঞ্জ সদর, মুন্সিগঞ্জ।","23.5656365","90.5136342","Munshiganj","Munshiganj Sadar","Map"
"0036","Mirkadim  Munshiganj","001847099036","খাদিজা বেগম ,স্বামীর নামঃ মোঃজাকির হোসেন,  তেলির বিল(পুকুরপাড়), মিরকাদিম, মুন্সিগঞ্জ।","23.556277","90.5005303","Munshiganj","Munshiganj Sadar","Map"
"0038","Thanaroad-Savar Dhaka","001847099038","মোছা: রাহেলা বেগম, স্বামী: মৃত্য আ: মালেক, সাং: বি/৭, উত্তর তালবাগ, সাভার ঢাকা ।","23.8391211","90.2542917","Dhaka","Savar","Map"
"0039","Savar  Dhaka","01847372342","জনাব ফাতেমা আক্তার, স্বামী:- মো: মাহবুব কবির ( সুমন ) , ঠিকানা:-৩৭ ওয়াবদা রোড, সাভার , ঢাকা ।","23.8488608","90.2563009","Dhaka","Savar","Map"
"0040","Sadar Coxs bazar","001847099040","মোঃ জয়নাল, জয়নাল ম্যানসন, উত্তর রুমালিয়ার ছড়া, কক্সবাজার ।","21.441339","91.989769","Coxsbazar","Coxs Bazar Sadar","Map"
"0041","Biman Bandor Coxsbazar","001847099041","মোঃ মঈনুল হোসেন, মিন্টু ম্যানসন,বিমান বন্দর সড়ক, ৩নং ওয়ার্ড, নতুন বাহার ছাড়া,কক্সবাজার","21.445270","91.969922","Coxsbazar","Coxs Bazar Sadar","Map"
"0042","Basabo Dhaka","001847099042","মোকলেসুর রহমান রানা,মোবাইল নং-০১৬৭০৭২৬১১৪,পেশা- ব্যবসা, এলাকায় স্থানীয়,পিতা মৃত-রমিজ উদ্দীন হাওলাদার করম আলী, হোল্ডিং নং ৮৭/২/এ,পশ্চিম মাদারটেক, প্রিমিয়ার ব্যাংকের ২য় তলায়  ঢাকা","23.7422897","90.4378192","Dhaka","Khilgaon","Map"
"0043","Dholaipar Dhaka","001847099043","মোঃ পারভেজ, সরাইল মসজিদ রোড,  ,ডাকঘরঃদনিয়া ,থানাঃকদমতলী জেলাঃঢাকা ।(নতুন ব্রাইট স্কুলের সামনে)। - 018470990043.","23.7016506","90.4409515","Dhaka","Kadamtali","Map"
"0044","Dhakamatch-Factory Narayanganj","001847099044","হনুফা আক্তার পলি, স্বামী নামঃ এডঃ বি এম  হোসন, ০৬ নং ঢাকা ম্যাচ রোড, শ্যামপুর, কদমতলী, ঢাকা","23.67934131","90.440813","Dhaka","Kadamtoli","Map"
"0045","Chashara Narayanganj","001847099045","মোঃ আরিফ পাঠান, ৪৪/৩ মহল্লা-উত্তর চাষাড়া, ওয়ার্ড নং-১২,ভাষা সৈ্নিক এ কে এম সামসুজ্জোহা রোড,রামবাবু পুকুর পাড়। হোল্ডিং নং-পুরাতন-৩৯,নতুন-৪২,  নারায়নগঞ্জ","23.626353","90.499541","Narayanganj","Narayanganj Sadar","Map"
"0046","Sonakanda Narayanganj","001847099046","মোঃ মামুন রানা  পিতা মোঃ  মনির উদ জামান গ্রামঃ সোনাবিবি রোড সোনাকান্দা ডাকঘরঃ বন্দর, উপজেলাঃ বন্দর, জেলাঃ নারায়ণগঞ্জ","23.603971","90.5153","Narayanganj","Rupganj","Map"
"0047","Joydebpur Gazipur","001847099047","মোঃ আব্দুল কুদ্দুস, বাড়ী নং-কে-৩১৭, পশ্চিম জয়দেবপুর, গাজীপুর","24.000551","90.4145069","Gazipur","Joydebpur","Map"
"0048","Ershadnagar Gazipur","001847099048","দত্ত পাড়া,লেদু মোল্লা রোড,হোসেন মার্কেট,টঙ্গি,গাজীপুর।","23.9136876","90.39836335","Gazipur","West Tongi","Map"
"0049","Halishahar Chattogram","001847099049","আহছানুল হক, বাড়ী নং-৬, রোড-০৬, ব্লক-জি, হালিশহর, চট্টগ্রাম","22.3286997","91.7885906","Chattogram","Halishahar","Map"
"0050","Moylapota Khulna","001847099050","শেখ আজাদ আল মামুন, বাসা/ হোল্ডিং: গোবরচাকা মেইন রোড ,  মোল্লার মোড় ,খুলনা-৯১০০, সোনাডাঙ্গা, খুলনা,","22.81950","89.54988","Khulna","Khulna Sadar","Map"
"0051","Rupshaghat Khulna","001847099051","মো: আনোয়ার হোসেন, বাসা/ হোল্ডিং:  ৩/০১ সস্পল, রুপসা ট্রাফিক মোড় খুলনা সদর, খুলনা","22.80067","89.57915","Khulna","Khulna Sadar","Map"
"0052","Shibbati  Bogura","001847099052","মনোয়ারা বেগম, বগুড়া পৌরসভার মেয়র মোঃ রিজাউল করিম বাদশার  বাসার দ্বিতীয় তলায়। শিববাটি বগুড়া সদর, বগুড়া ।","24.857714971327734","89.37479492745706","Bogura","Bogra Sadar","Map"
"0053","Khandar Bogura","001847099053","মোঃ হাবিবুর রহমান, খালেদা ভিলা হাউজ, ডি/২/৬৪, ব্লক-জি, গোহাইল রোড, গোহাইল রোড, খান্দার গ্রামীন ব্যাংক অফিসের পাশে, খান্দার, বগুড়া।","24.8339508","89.3687342","Bogura","Bogra Sadar","Map"
"0054","Sadar Bogura","001847099054","মো: সাহিদুল ইসলাম, পিতা: মো: আমির আলী সরকার, নিশিনদারা মন্ডল পাড়া, ফুলবাড়ি প্লাজা, সান্তাহার রোড,(এল, জি,ই,ডি অফিসের পূর্ব পাশে) , বগুড়া ।","24.85641440305167","89.35367611692016","Bogura","Bogra Sadar","Map"
"0055","Sadar Manikganj","001847277230","মোঃ আফছার আলী  পিতা :মৃত মোঃ দবির উদ্দিন নতুন পাসপোর্ট আফিস, বান্দুটিয়া, মানিকগঞ্জ সদর, মানিকগঞ্জ","23.8503437","89.9991721","Manikganj","Manikganj Sadar","Map"
"0056","Kotwali Chattogram","001847099056","মো-রফিক আহাম্মদ চৌধুরী, পিতা-মরহুম-আব্দুল মান্নান, মাতা-মরহুমা নুরজাহান বেগম, কোতয়ালী  সংলগ্ন (সাব এরিয়া )চট্টগ্রাম","22.3416711","91.8347437","Chattogram","Kotwali","Map"
"0057","Agrabad  Chattogram","001847099057","মোঃ সরোয়ার খান বালি, পিতার নামঃ সুলতান আহমদ খান,  খানবাডী চৌমুহনী, আগাবাদ, চট্টগ্রাম।","22.3339","91.81324","Chattogram","Double Mooring","Map"
"0058","Boalia Rajshahi","001847099058","বাসা/হোল্ডিং নং ১৪৯/৩ নূর মোহাম্মদ মন্জিল,গ্রাম/মহল্লাঃ বালিয়া পুকুর,  ডাকঘরঃ ঘোড়ামারা -৬১০০, থানাঃ বোয়ালিয়া, জেলাঃ রাজশাহী।","24.3695823","88.6193007","Rajshahi","Boalia","Map"
"0059","Rasulpur-Kamrangirchar  Dhaka","001847099059","শরীফ মোফাজ্জেল হোসেন, রাতুল ভিলা, ৪৯৩ নং  বিদ্যুৎ অফিস রোড, চান মসজিদ রোড, কামরাঙ্গিরচর, ঢাকা । 01847099059","23.719530","90.370528","Dhaka","Kamrangirchor","Map"
"0060","Bissobiddaloy Rajshahi","001847099060","মোঃ খলিলুর রহমান , বাসা#৬৯, গ্রামঃচৌদ্দপাই, ডাকঘরঃ বিনোদপুর বাজার-৬২০৬, থানাঃ মতিহার, রাজশাহী সিটি কর্পোরেশন, রাজশাহী","24.3667803","88.6569756","Rajshahi","Motihar","Map"
"0061","Sadar  Natore","001847099061","মোঃরেজাউল করিম, বাসা#০১১৩/১, গ্রামঃবনবেলঘরিয়া, ডাকঘরঃ-নাটোর, থানাঃ-নাটোর, সদর, নাটোর","24.4074959","88.9611725","Natore","Natore Sadar","Map"
"0062","Bolaripara Natore","001847099062","মো: আবুল কালাম আজাদ । বলারীপাড়া (বলারীপাড়া মসজিদ সংলগ্ন).,যুব উন্নয়ন মোড়, বলারী পাড়া, নাটোর","24.4144556","89.002743","Natore","Natore Sadar","Map"
"0063","Palbari, Jashore (0063)","001847099063","অধ্যাপক ডাঃ মো: হারুন অর রশীদ  ,পিতার নাম: মৃত্যু দৌলত আলী ব্যাপারী ,ঠিকানা –গ্রাম/মহল্লাঃ কাঠাল তলা,কাজীপাড়া,পুরাতন কসবা ঢাকা রোড,  ডাকঘর: যশোর -৭৪০০,যশোর সদর, যশোর।","23.1781885","89.199065","Jashore","Jashore Sadar","Map"
"0064","Mikepatti Jessore","001847099064","অধ্যাপক ডাঃ মো: হারুন অর রশীদ  ,পিতার নাম: মৃত্যু দৌলত আলী ব্যাপারী ,ঠিকানা –গ্রাম/মহল্লাঃ কাঠাল তলা,কাজীপাড়া,পুরাতন কসবা ঢাকা রোড,  ডাকঘর: যশোর -৭৪০০,যশোর সদর, যশোর।","23.1781885","89.199065","Jessore","Jessore Sadar","Map"
"0066","Rajshahi","001847099066","মো: খায়রুল আলম , পিতার নামঃ মৃত শামছুল হক  ,ঠিকানা –গ্রাম/মহল্লাঃ  শাহমুখদুম থানার মোড়,ডাকঘর:- সপুরা ৬২০০ ,রাজশাহী","24.3939121","88.6071228","Rajshahi","Shahmokdum","Map"
"0067","Rajpara Rajshahi","001847099067","মোসাঃ মাহমুদা খাতুন, স্বামীঃ মোঃ আব্দুল মমিন, পিতার নামঃ আলহাজ গোলাম কিবরিয়া, ,ঠিকানা –গ্রাম/মহল্লাঃ ২৪৪, হড়্গ্রাম বাজার, ডাকঘর: রাজশাহী কোর্ট -৬২০১, রাজপাড়া, রাজশাহী ।","24.383705167201125","88.56572321189144","Rajshahi","Rajpara","Map"
"0068","Pallibidyut-Savar Dhaka","001847099068","মোঃ হাজী আবু তালেব মিয়া, পূর্ব ডেন্ডার,কবরস্থান রোড়,পল্লীবিদ্যুত,আশুলিয়া,সাভার,ঢাকা","23.922552","90.265030","Dhaka","Savar","Map"
"0069","Palashbari-Ashulia Dhaka","001847099069","নুরুল আমিন চৌধুরী পিতার নাম;-মৃত রজ্জব আলী চৌধুরী, ঠিকানা:- পলাশ বাড়ী  আশুলিয়া ঢাকা।পলাশী দরবার শরীফের পাশে ২তলা ফ্ল্যাট এর নীজ তলায়","23.9294469","90.2632658","Dhaka","Savar","Map"
"0070","Sadar Barisal","001847099070","বাহউদ্দিন আহমেদ, কাকলির মোড় সার্কিট হাউসের বিপরীতে আশরাফ মঞ্জিল, পতাং, সাকির্ট হাউজের দক্ষিণ পাশে, বরিশাল সদর, বরিশাল","22.699469","90.369152","Barishal","Barisal Sadar","Map"
"0071","Law-College Barisal","001847099071","মোঃ ইউনুছ মিয়া, স্ব-রোড ,০৪ নং ওয়াড, বরিশাল সদর, বরিশাল","22.7106875","90.3753124","Barishal","Barisal Sadar","Map"
"0072","Goalchamot Faridpur","001847099072","মোঃ ইউছুব মিয়া( মালিক ),পিতার নাম, আঃওহাব মাতুব্বর  ,ঠিকানা –গ্রাম/মহল্লাঃ পশ্চিম খাবাস্পুর ( গোয়ালচামোট) ডাকঘরঃ ফরিদপুর-৭৮০০,ফরিদপুর সদর,ফরিদপুর","23.5896569","89.82699799","Faridpur","Faridpur Sadar","Map"
"0073","Sadar Faridpur","001847099073","আব্দুর রাজ্জাক মিয়া, বাদামতলী সড়ক ,পুর্ব আলীপুর, ফরিদপুর-৭৮০০, ফরিদপুর সদর, ফরিদপুর পৌরসভা, ফরিদপুর, মোবাইলঃ ০১৮৩৯৮৬১৬৮৪","23.6063703","89.83687359","Faridpur","Faridpur Sadar","Map"
"0074","Sadar Pabna","001847099074","পাবনা  কমিউনিটি হাস্পাতাল সংলগ্ন, নুরপুর বাইপাস, পাবনা সদর,পাবনা।","24.0273227","89.239248","Pabna","Pabna Sadar","Map"
"0075","Librarybazar Pabna","001847099075","মো-রাসেল  আহম্মেদ বারী মহল্লাঃ  চক-ছাতিয়ানী বিসিক রোড (পাসপোর্ট অফিস সংলগ্ন )পাবনা সদর, পাবনা ।","24.006505","89.2195479","Pabna","Pabna Sadar","Map"
"0076","Citycentre-Syedpur Nilphamari","001847099076","জনাব মোঃশামীম আক্তর, পিতা : মৃত্যু নাঈম, বাসা/হোল্ডিং ৬৭ পৌরসভা রোড-০১ নতুনবাবুপাড়া. থানা: সৈয়দপুর. জেলা:নীললফামারী,","25.77932512767548","88.88951276499927","Nilphamari","Nilphamari Sadar","Map"
"0077","Syedpur  Nilphamari","001847099077","মোঃ সাইফুল ইসলাম, পিতা :মৃত্যু নিজাম উদ্দীন আহম্মেদ, বাসা/হোল্ডিং ৩২ শহীদ বি-জামান রোড-নতুন বাবুপাড়া, সৈয়দপুর, ৫৩১০ সৈয়দপুর,নীললফামারী,","25.782298","88.891795","Nilphamari","Saidpur","Map"
"0078","Santahar Naogaon","001847099078","নামঃ তোকন আরা রুনা, পিতার নামঃ মৃতঃ আনিসুর রহমান, মাতাঃ দিল আফরোজা খতুন , ঠিকানা– গ্রাম/মহল্লাঃ সাহাপুর,  ডাকঘরঃ সান্তাহার -৫৮৯১,থানাঃ নওগাঁ সদর ,জেলাঃ নওগাঁ","24.8042614","88.9707425","Naogaon","Naogaon Sadar","Map"
"0079","Sadar Naogaon","001847099079","মোঃ ওসমান গনী,  পিতার নামঃমৃত হাজী ফায়েজ উদ্দীন ,ঠিকানা –গ্রাম/মহল্ আরজি নওগাঁ, (ইদুর বটতলী), ডাকঘর: নওগাঁ থানা + জেলা : নওগাঁ","24.804914","88.934682","Naogaon","Naogaon Sadar","Map"
"0080","Trunk-Raod Feni","001847099080","মো:মমিনুলহক (দিদার) ,বাড়ীঃ হক প্লাজা-২মৌলভী মাজহারুল হক , বাইলেইন ১৯৪/২ ,শহীদ শহীদুল্লাহ কায়সার সড়ক , ফেনী","23.008664","91.396531","Feni","Feni Sadar","Map"
"0081","Sadar Feni","001847099081","মোঃমিজানুর রহমান , বাসা/হোল্ডিংঃ৬১, গ্রাম/রাস্তাঃ৬১-গুদাম কোয়ার্টার, ডাকঘরঃফেনী-৩৯০০, ফেনী সদর, ফেনীপৌরসভা, ফেনী,","23.017420","91.401039","Feni","Feni Sadar","Map"
"0083","Sadar Jamalpur","001847099083","মির  মোহাম্মদ ফরিদুর রহমান, উত্তর কাচারি পাড়া, চামড়া গুদাম মোড়,জামালপুর","24.92643","89.94388","Jamalpur","Jamalpur Sadar","Map"
"0084","Mirpur 1 Dhaka","001847099084","ব্লক- সি , রোড-১, বাসা-১৫, মিরপুর-১, ঢাকা। ঢাকা-১২১৬","23.8038961","90.3486861","Dhaka","Pallabi","Map"
"0085","Lalkuthi, Mirpur Dhaka","001847099085","মোঃ কামাল হোসেন খান , পিতাঃ মৃত পির মোহাম্মদ খান ,বাড়ী নং-২২৮/এ লালকুঠিবাজার, মিরপুর-১ ঢাকা-১২১৬","23.78885","90.34717","Dhaka","Pallabi","Map"
"0087","Mohammadpur Dhaka","001847099087","মোঃ শুকুর কোম্পানির বাড়ি, (৪১/ সি -শেরে বাংলা রোড, কাটাশুর , মো:পুর ,ঢাকা-১২০৭, মোবাঃ01847099087/01844504087","23.7544843","90.3617979","Dhaka","Lalbag","Map"
"0089","Lalbagkella Dhaka","001847099089","মো: মনির হোসেন, পিতা মৃত:আব্দুল মালেক, বাড়ী নং-৪৩/বি-৫ (২য় তলা), আর এন ডি রোড,(কেল্লার মোড়)শহিদনগর,লালবাগ,ঢাকা-১২১১","23.7156776","90.3834545","Dhaka","Lalbag","Map"
"0090","Ronymarket-Kamrangirchar  Dhaka","001847099090","জনাব শরীফ মোঃ মোশারফ হোসেন, ৭৯৬,পশ্চিম রসুলপুর, কামরাঙ্গীরচর, ঢাকা","23.719078","90.372726","Dhaka","Kamrangirchor","Map"
"0092","Jawlahati -Kamrangirchar  Dhaka","00184709909","ঝাউলাহাটী চৌরাস্তার পশ্চিম পাশে ২য় তলায় (মেম্বারবাড়ী ,ভোলা মেডিকেল ফার্মেসির পিছনের তিন তলা বিল্ডিং ) , কামরাঙ্গীচর, ঢাকা। 01847099092","23.7245498","90.3619752","Dhaka","Kamrangirchor","Map"
"0093","Kadamtali-Keraniganj Dhaka","001847099093","হাজী মো: ইকবাল হোসেন চেয়ারম্যান , পিতা: মৃত আলহ্বজ হেলাল উদ্দিন, কেরানীগঞ্জ মডেল থানা সংলগ্ন, কেরানীগঞ্জ, ঢাকা","23.706020","90.396563","Dhaka","Keraniganj","Map"
"0094","Kotwali  Dhaka","001847099094","জনাব হাজী মোঃ তোহা মিয়া , ঠিকানা : নাজিরাবাজার, বংশাল রোড, (বাংলা দুয়ার স্কুল সংলগ্ন) , ৫৪/১ (হাজী মোঃ তোহা মিয়ার বাড়ি), ৩য় তলার সামনের দিক (১১০০ স্কয়ার ফিট), কোতয়ালী, ঢাকা। -","23.7192655","90.4080493","Dhaka","Kotwali","Map"
"0096","Maniknagar Dhaka","001847099096","নুর মোহাম্মদ ,পিতাঃ  আবু তাহের , পেশা-  ব্যবসা , গ্রামঃ গোপীবাগ, পোঃ ওয়ারী,  থানা ঃ মতিঝিল, জেলা -ঢাকা","23.7220316","90.4280032","Dhaka","Khilgaon","Map"
"0097","Mugda Dhaka","001847099097","মনিষা হোসেন, পিতা:মো:মনিরহোসেন, মাতাঃ আফসানাহোসেনরুনা,বাড়ীনং-১১১/বি (নিচতলা)উত্তরমুগদা,বড়মসজিদরোড,ঢাকা-১২১১","23.7292450","90.4322120","Dhaka","Khilgaon","Map"
"0098","Alambag-Jurain Dhaka","001847099098","আবু সাঈদ ৯৫ ওয়াসা রোড, শওকত ভিলা, বউ বাজার, জুরাইন, ঢাকা-১২০৪","23.68988","90.43823","Dhaka","Kadamtoli","Map"
"0099","Kaligonj-Keraniganj  Dhaka","001847099099","পাকাপুল ১নং বাড়ি, মোঃ হাবিবুর রহমান, পিতাঃ আঃ সাত্তার নয়াবাড়ি, কালিগঞ্জ, কেরানিগঞ্জ, ঢাকা, মোবাইল নং ০১৯১৪৮৫৯৮","23.697846","90.405064","Dhaka","Keraniganj","Map"
"0100","Chunkutiya-Keraniganj Dhaka","001847099100","চৌধুরী পাড়া ব্রীজ, চুনকুটিয়া মোঃ সালাউদ্দিন শেখ, পিতা- মোঃ ফুলচান শেখ ।  খেজুরবাগ, শুভাঢ্যা, উপজেলাঃ কেরানীগঞ্জ, জেলাঃ- ঢাকা","23.6959603","90.4052757","Dhaka","Keraniganj","Map"
"0101","Ziasarani-Sanirakra Dhaka","001847099101","ওবায়েদুল্লাহ আল মাসুদ। জিয়াস্বরণী, শনির আখড়া RH Tower এর সামনে কাচাঁ বাজারের পিছনে । ০১৮৪৭০৯৯১০১","23.701612","90.450517","Dhaka","Demra","Map"
"0102","Purbajurain Dhaka","001847099102","মো: আব্দুল হক, ৭৮৪/১২,কে আলি সর্দার রোড, মিষ্টির দোকান ,কদমতলি, ঢাকা","23.69195","90.43989","Dhaka","Kadamtoli","Map"
"0103","Merajnagar-Sanirakhra Dhaka","001847099103","আবুল কালাম আজাদ , আজাদ টাওয়ার ৩১১ সৃতিধারা,মেরাজনগর মাদ্রাসা রোড কদমতলী, ঢাকা-১২৩৬ - ০১৮৪৭০৯৯১০৩","23.690947","90.453396","Dhaka","Demra","Map"
"0104","Badda Dhaka","001847099104","বাড়ীঃ ১৮৭/খ,  মধ্য বাড্ডা পোস্ট অফিস, ইউলুফের পশ্চিম পাশে","23.776829","90.425597","Dhaka","Gulshan","Map"
"0105","Azampur-Uttara  Dhaka","001847099105","শিরিন আক্তার, পিতা: সামসুল হক, গ্রাম/রাস্তাঃ কাচা বাজার দেওয়ান বাড়ি রোড,EPS স্কুলের পিছনে, পুরাকৈ্র, ডাকঘরঃ আজমপুর -১২৩০,দক্ষিনখান,ঢাকা।","23.8691926","90.4103837","Dhaka","Khilkhet","Map"
"0106","Delpara-Fatullah Narayanganj","001847099106","মোঃ আলী ,ইসলাম কমপ্লেক্স দেলপাড়া(হাজী মিছির আলী বিশ্ববিদ্যালয় কলেজ রোড),০৪ নং ওয়াড ,কুতুবপুর,ফতুল্লা,নারায়নগঞ্জ ।","23.667101","90.474398","Narayanganj","Shiddhirganj","Map"
"0107","Sibumarke-Fatullah  Narayanganj","001847099107","মাহমুদা আকতার,স্বামী-কামরুল শিকদার, মাতা-হামিদা বেগম ,গ্রাম-দাপা ইদ্রাকপুর, ফতুল্লা সরদারবাগী রোড,ফতুল্লা, নারায়নগঞ্জ","23.6433","90.4745","Narayanganj","Shiddhirganj","Map"
"0108","College-Road  Narayanganj","001847099108","আদর্শ স্কুল, নিঝুম ভিলা-২০,  শহীদ সাব্বির আলম খন্দকার সড়ক, নারায়নগঞ্জ","23.623984","90.492144","Narayanganj","Narayanganj Sadar","Map"
"0109","Nobigonj-Bandar Narayanganj","001847099109","জনাব,আলহাজ্ব মো: মিজানুর রহমান নবীগঞ্জ, লাল মিয়া প্রথমিক উচ্চ বিদ্যালয় এর উত্তর পাশে, বন্দর নারায়নগঞ্জ","23.63016","90.52231","Narayanganj","Rupganj","Map"
"0110","Stationroad-Tongi  Gazipur","001847099110","মিজান টাওয়ার, স্টেশন রোড (শহীদ আহসান উল্লাহ মাস্টার ফ্লাইওভার এর পূর্ব পাশ), পূবাইল রোড, টংগী, গাজীপুর।","23.898173399","90.4093728","Gazipur","Joydebpur","Map"
"0111","Chawkbazar Cumilla","001847099111","মো: বেলায়েত হোসেন, বেলায়েত ভিলা, হাউজিং ষ্টেট, ২ নং সেকশন, কুমিল্লা মেডিকেল কলেজ ও হাসপাতাল রোড, পো: কুমিল্লা সদর, থানা- সদর, দক্ষিন, জেলা- কুমিল্লা","23.450882","91.19871","Cumilla","Cumilla Sadar South","Map"
"0112","Jhautola Cumilla","001847099112","মোঃ এ আর আবদুস সালাম, পিতাঃআবদুর রেজ্জাক, মাতাঃ ছালেহা বেগম, গ্রামঃ শংকরপুর, দূর্গাপুর, আদর্শ সদর জেলা-কুমিল্লা","23.4716448","91.1408216","Cumilla","Cumilla Sadar","Map"
"0113","Bayazid  Chattogram","001847099113","মোছঃশারমিন সুলতানা, অক্সিজেন মোড় ডাক:বায়জিদ, উপজেলা;বায়জিদ, জেলা: চট্টগ্রাম।","22.39529","91.82129","Chattogram","Bayezid Bostami","Map"
"0114","Bahaddarhat  Chattogram","001847099114","ছালেহ কুজ্ঞ ভবন, ২য় তলা,পু লিশ বক্সের পিছনে, মডার্ন ডায়াগনষ্টিক সেন্টার গলি,৬৮১/১১২৭ আরকান রোড, বহদ্দারহাট, পাঁচলাইশ, চট্টগ্রাম।","22.36744","91.84251","Chattogram","Panchlaish","Map"
"0115","Muradpur  Chattogram","001847099115","মোঃ দিদার , ফরেস্ট অফিস,মুরাদপুর, সি ডি এ,এভিনিউ, চট্রগ্রাম ।","22.36935","91.8304","Chattogram","Muradpur","Map"
"0116","Pahartali Chattogram","001847099116","রহিমা খাতুন, ৩৮২/৩৪২, দক্ষিন পাহাড়তলী, ডি টি রোড, আই ডাব্লিউ কলোনী, ডাবল মুড়ং , চট্রগ্রাম","22.349029","91.797439","Chattogram","Pahartoli","Map"
"0117","Colonelhat Chattogram","001847099117","মোঃ এ.এইচ. এম.আবুল খায়ের, পিতা- ছায়েদুল মিয়া, খায়ের ভিলা, সিটি গেইট সংলগ্ন, সিডিএ ১ নম্বর, সিডিএ রোড, ব্লক-এ, কর্নেলহাট, আকবর শাহ থানা, চট্রগ্রাম।","22.3736352","91.7778475","Chattogram","Akborsha","Map"
"0118","Sadar Chandpur","001847099118","মোঃ সেলিম , দক্ষিন জিটি রোড, দর্জিঘাট ,চাঁদপুর সদর, চাঁদপুর।","23.2319937","90.6708926","Chandpur","Chandpur Sadar","Map"
"0119","Vasantek-Mirpur  Dhaka","001847099119","বাসা নং ২১৫, পকেট গেট মোড়, ভাষানটেক, মিরপুর,ঢাকা।","23.8123176","90.3954091","Dhaka","Pallabi","Map"
"0120","Sadar Dinajpur","001847099120","মো: জামাল হোসেন (প্রানথ), পিতা– হাফিজ আহাম্মদ, হোল্ডিং নং-২২৩৬/১০৮৫  বটতলী মোড়, লালুপাড়া ,দিনাজপুর সদর, দিনাজপুর । দিনাজপুর মহারাজা বটতলী মোড় থেকে  0.২৫ কিলোমিটার পুর্ব দিকে লালুপাড়া ।","25.6334041","88.6506164","Dinajpur","Dinajpur Sadar","Map"
"0121","Maharaja Dinajpur","001847099121","তরিকুল আলম প্রধান,উত্তর বালুবাড়ি,মহারাজার মোড়, থানা-দিনাজপুর সদর, উপজেলা-দিনাজপুর, জেলা-দিনাজপুর","25.6328165","88.6466276","Dinajpur","Dinajpur Sadar","Map"
"0122","Masumpur  Sirajganj","001847099122","খন্দকার নাজমুস সাকিব,চান্দলী মোড়,মালসা পাড়া সরকারি প্রাইমারি স্কুল রোড,মালসাপাড়া,সিরাজগঞ্জ","24.4491449","89.710697","Sirajganj","Sirajganj Sadar","Map"
"0123","Sadar Sirajganj","001847099123","মোঃ আঃ হান্নান, পিতা: মৃত্-কোরবান আলী, রহমতগঞ্জ (কাঠেরপুল), সদর সিরাজগঞ্জ, সিরাজগঞ্জ। মোবাইল নাম্বারঃ ০১৭১১১৯১২৪৩ ।","24.4654544","89.6896401","Sirajganj","Sirajganj Sadar","Map"
"0124","Sadar Rajbari","001847099124","রঞ্জিত সরকার, ভবানিপুর,কাহারপাড়া মোড় ,বাবুর দোকানের পিছনে, ভবানীপুর,কাহারপাড়া, রাজবাড়ী। - 018470990124.","23.749258","89.643576","Rajbari","Sadar","Map"
"0125","Ghior Manikganj","001847277231","চম্পা আক্তার, পিতার নাম : মো: আ: খালেক মিয়া, ঘিওর পূর্ব পাড়া মহিলা কলেজের পাশে, ঘিওর মানিকগঞ্জ।","23.89026","89.88029","Manikganj","Ghior","Map"
"0126","Sadar Magura","001847099126","নামঃ মোঃ আবু জাফর আহম্মেদ, সার্কিট হাউস, আদর্শ-পারা, মাগুরা, মোবাইলঃ০১৭২১৪৭৫৬২৫","23.48576169","89.41017","Magura","Magura Sadar","Map"
"0127","Saturia Manikganj","001847277246","রূপবান মঞ্জিল, মহল্লা: চর  সাটুরিয়া, ওয়ার্ড #০৪,  সাটুরিয়া, মানিকগঞ্জ, সরকারী হাসপাতালের পিছনে।","23.9691928","90.034547","Manikganj","Saturia","Map"
"0128","Sadar Kushtia","001847099128","মো: মোস্তফা কামাল  সুমন, ২৫/৫ সাদ্দাম বাজার সড়ক পুর্বমজমপুর,কুষ্টিয়া","23.9048799","89.1175076","Kushtia","Kusthia Sadar","Map"
"0129","Mojompur  Kushtia","001847099129","জনাব মোছাঃ রেশমা সুলতানা, রেশমা মহল, পূর্ব মজমপুর, জেলা স্কুলের বিপরীতে, মফিজউদ্দীন লেন, বাহাউদ্দিন সরকারি প্রাথমিক বিদ্যালয়ের পিছনে, কুষ্টিয়া-৭০০০","23.9051037","89.1188973","Kushtia","Kusthia Sadar","Map"
"0130","Sadar Shariatpur","001847099130","মো: রুহুল আমিন, শান্তি নগর,শরীয়তপুর সদর,শরীয়তপুর।","23.2169509","90.3508544","Shariatpur","Shariatpur Sadar","Map"
"0131","Tepra Manikganj","001847277232","ডাঃ মোঃ আঃ হালিম মোল্লা পিতা- মৃত আব্দুর রেজ্জাক মোল্লা, শিবরাম পুর, পশু হাসপাতালের পাশে, আরিচা রোড, টেপড়া, মানিকগঞ্জ । মোবাইল নাম্বারঃ ০১৭১২-৫৪৪৯১১।","23.8455642","89.8261003","Manikganj","Shivalaya","Map"
"0132","Sadar  Madaripur","001847099132","মোঃ ছানোয়ার হোসেন, স্টেডিয়াম রোড,মাদারীপুর সদর থানার বিপরীত পার্শ্বে, মাদারীপুর সদর, মাদারীপুর।","23.16726079","90.20025729","Madaripur","Madaripur Sadar","Map"
"0133","Pakdi Madaripur","001847099133","মো: নুরুল হক মোল্লা(মুক্তি যোদ্ধা), নুরুল হক মোল্লা,পিতা-মৃত্যু আব্দুল লতিব মোল্লা,গ্রাম-পঞ্চীম খাগদী, পোঃচরমুগুরিয়া , থানা-মাদারীপুর, জেলা-মাদারীপুর","23.16266509","90.1686043","Madaripur","Madaripur Sadar","Map"
"0134","Sadar  Mymensingh","001847099134","মোঃ শফিক উদ্দিন আহম্মেদ / চাকুরী, হোল্ডিং নং-৯৬/এ , ভ্রাম্ম পল্লী রোড(বর্নালী ক্লাব এর উওর পাশে), ময়মনসিংহ সদর, ময়মনসিংহ","24.75058","90.40968","Mymensingh","Mymensingh Sadar","Map"
"0135","Kathgolabazar Mymensingh","001847099135","মোছাঃশিল্পি আক্তার / চাকুরী, গ্রাম-মীরকান্দা পাড়া,পোষ্টঃঅম্বিকাগজ্ঞ বাজার-২২০৪,ময়মনসিংহ সদর, ময়মনসিংহ ।","24.83455","90.3359","Mymensingh","Mymensingh Sadar","Map"
"0136","Sadar Sherpur","001847099136","আলহাজ্ব আনসার আলী, -খরমপুর বউবাজার,শেরপুর সদর, শেরপুর,মোবাঃ ০১৬১৫-৪৩০৭০৬","25.0159422","90.0130373","Sherpur","Sherpur Sadar","Map"
"0137","Jhitka  Manikganj","001847277233","জনাব রহিমা খানম স্বামী : মোঃ আব্দুর রাজ্জাক বাসা নং ০০১ ঝিটকা বাসুদেবপুর হরিরামপুর মানিকগঞ্জ","23.7730343","89.9177258","Manikganj","Harirampur","Map"
"0138","Sadar  Kishoreganj","001847099138","মোঃরফিকুল ইসলাম, পিতা, মাহতাব উদ্দিন, বারিধারা রোড, বগাদিয়া, তালতাল, সদর কিশোরগঞ্জ","24.42546","90.76826","Kishoreganj","Kishoreganj Sadar","Map"
"0139","Sholakia Kishoreganj","001847099139","মোঃ ফখর উদ্দিন(ফিরোজ),পিতাঃ সিরাজুল ইসলাম,১০০০/২ উকিলপাড়া,নীলগঞ্জ রোড, কাস্টম হাউসের বিপরীত বিল্ডিং।, শোলাকিয়া, কিশোরগঞ্জ।","24.4384999","90.7847637","Kishoreganj","Kishoreganj Sadar","Map"
"0140","Begumganj Noakhali","001847099140","মোঃ বাবুল মিয়ার বাড়ী/৫৭২, গ্রামঃ-আলীপুর, রোডঃ-ডাক্তারপাড়া, ডাকঘরঃ-বেগমগঞ্জ-৩৮২০, উপজেলাঃ-বেগমগঞ্জ, জেলাঃ-নোয়াখালী","22.940165","91.105123","Noakhali","Begumganj","Map"
"0142","Sadar Narsingdi","001847099142","মোঃ চুমকি আক্তার ব্রাম্মন পাড়া ( কালি কুমার স্কুল সংলগ্ন) ,ইউ,এম,সি রোড, নরসিংদী সদর, নরসিংদী","23.9146454","90.7126509","Narsingdi","Narsingdi Sadar","Map"
"0143","Noapara Jessore","001847099143","মো: অহিদুজ্জামান, ঠিকাদার ব্যবসায়ী, পিতাঃ আ: মজিদ বিশ্বাস, গ্রামঃগুয়াখোলা, (প্রফেসরপাড়া), পোস্টঃনওয়াপাড়া, থানাঃঅভয়নগর, জেলাঃ যশোর","23.02535","89.39807","Jessore","Noyapara","Map"
"0144","Gouripur  Cumilla","001847099144","বিচারপতি মোঃ তাফাজ্জল ইসলাম, জারা প্লাজা, গৌরিপুর দক্ষিণ বাজার, হোমনা রোড, গৌরিপুর দাউদকান্দি কুমিল্লা,","23.53875","90.78338","Cumilla","Daudkandi","Map"
"0145","Kumarkhali Kushtia","001847099145","নজরুল ইসলাম, পিতা মোঃ সোনা উল্লাহ গ্রাম ও পোঃ সেরকান্দি, থানা-কুমারখালী, জেলা-কুষ্টিয়া","23.8547333","89.2438335","Kushtia","Kumarkhali","Map"
"0146","Boalkhali Chattogram","001847099146","জনাব হাজী মোঃ ইদ্রিস (সওঃ), ইদ্রিস ভবন, বেঙ্গুরা রোড, শাকপুরা চৌমুহনি, চট্টগ্রাম","22.354595","91.914481","Chattogram","Boalkhali","Map"
"0147","Patiya Chattogram","001847099147","হেদায়েত বিল্ডিং ২য় তলা রামকৃষ্ণ মিশন রোড সুচক্রদন্ডি, মুন্সেফ বাজার পটিয়া চট্রগ্রাম  গ্রাম : সুচক্রদন্ডি , ডাক ; পটিয়া, উপজেলা : পটিয়া , চট্রগ্রাম","22.298830","91.975455","Chattogram","Patiya","Map"
"0148","Lohagara Chattogram","001847099148","শাহিনা আকতার,  হানিফ বিল্ডিং ২য় তলা, দরবেশহাট রোড, লোহাগাড়া, চট্টগ্রাম ।","22.014528","92.099795","Chattogram","Lohagara","Map"
"0149","Chokoria Coxsbazar","001847099149","মো: সরওয়ার,  পেশাঃব্যবসা রেনেটা রোড, কুদারকুম, চকরিয়া, কক্সবাজার,","21.76073","92.07411","Coxsbazar","chokoria","Map"
"0150","Anwara Chattogram","001847099150","মোঃ শাহজাহান, সিইউএফ রোড,চাতরী চৌমূহনী বাজার,আনোয়ারা চট্রগ্রাম,","22.233253","91.870940","Chattogram","Anowara","Map"
"0151","Raipur Laxmipur","001847099151","মো: বোরহান উদ্দিন, বোরহান মঞ্জিল, টিসি রোড, ওয়াড নং-৩, পশ্চিম দেনায়েতপুর, রায়পুর, লক্ষিপুর","23.0377762","90.7603623","Lakshmipur","Lakshmipur Sadar","Map"
"0152","Shahjadpur Sirajgonj","001847099152","মো: আবু সাইদ সরকার, পিতা: মৃত আফসার আলী সরকার, সাং কান্দাপাড়া, থানা: শাহজাদপুর, জেলা : সিরাজগঞ্জ","24.1717749","89.5897179","Sirajganj","Shahjadpur","Map"
"0153","Belkuchi  Sirajgonj","001847099153","বাচ্চু মিয়া, কবি রজনিকান্ত সেন রোড, জিধুরী, বেলকুচি, সিরাজগঞ্জ","24.302643","89.6822721","Sirajganj","Belkuchi","Map"
"0154","Nakla Sherpur","001847099154","মোঃ খলিলুর রহমান, পিতা-মৃতঃ মোঃ আবুল কালাম আজাদ, গ্রামঃ জালালপুর, ওয়ার্ড-০৪, ডাকঘর: নকলা, থানা: নকলা, জেলা: জামালপুর","24.97297","90.16571","Sherpur","Nakla","Map"
"0155","Kaligonj Gazipur","001847099155","মোঃ মোসলেহ উদ্দীন, পিতা- মৃত- আব্দুল আউয়াল, বড় নগর রোড, (আরমান ডাক্তার এর হাসপাতালের নিকটে) বালিগাঁও পশ্চিম পাড়া, ডাকঘর-কালীগঞ্জ-১৭২০, উপজেলা-কালীগঞ্জ, জেলা- গাজীপুর","23.9256697","90.5684783","Gazipur","Joydebpur","Map"
"0156","Dohar Dhaka","001847099156","মোঃ শেখ জয়নাল আবেদীন, পিতাঃমৃত শেখ ভিসাই, গ্রাম চরকুশাই, ডাকঘরঃহরিচন্ডি, থানা,দোহার, জেলাঃঢাকা-১৩৩০(ইউসুফপুর বাজার), বাজার সংলগ্ন পৌরসভা রোড, দোহার, ঢাকা।","23.6179517","90.1313452","Dhaka","Dohar","Map"
"0157","Kaliakair Gazipur","001847099157","মোঃ আব্দুর রহিম, ওয়ার্ড-১, পৌরসভা ,হোল্ডিং-নং জে-৪৪  , কালিয়াকৈর, গাজীপুর-১৩৪৬।","24.0771738","90.2136089","Gazipur","Kaliakair","Map"
"0158","Nawabgonj  Dhaka","001847099158","মো: জসিম, পিতাঃ মৃত মো: আশ্রাব,  গ্রাম: কলাকোপা পানালিয়া (আইজি পার্কের বিপরীতে) ডাকঘরঃ নবাবগঞ্জ, থানা: নবাবগঞ্জ, জেলাঃ ঢাকা, আমতলা বাজার সংলগ্ন, জয়পাড়া রোড।","23.659571","90.151388","Dhaka","Nawabganj","Map"
"0159","Sonargaon Cumilla","001847099159","মোঃ রেজাউল করিম,  গোহাট্টা, মোগড়াপাড়া, সোনারগাঁ, নারায়ানগঞ্জ ।","23.637009","90.591854","Narayanganj","Sonargaon","Map"
"0160","Sadar Sunamganj","001847099160","মোঃ জহিরুল ইসলাম পিতা :মোঃ আবু জাফর উসমানী। বাসা নং ৫৭/৭ মরাটিলা, হাসন নগর,থানা ও জেলা-সুনামগঞ্জ","25.06578","91.4035","Sunamganj","Sunamganj Sadar","Map"
"0161","Sadar Bagerhat","001847099161","মুর্শিদা আক্তার(বাসার মালিক), তত্ত্বাবধায়নে স্বামী মোঃমতিউর রহমান, মোবাইল নংঃ০১৯১১-১৮৬৮৪৯,হোল্ডিং নংঃ৪০/১, গ্রামঃদশানী ২নং ক্রস রোড,ওয়ার্ড নংঃ০৩, থানাঃসদর বাগেরহাট, জেলাঃবাগেরহাট।  ","22.655259","89.779615","Bagerhat","Thanchi","Map"
"0162","Modina-Market  Sylhet","001847099162","মিঃ ইব্রাহীম আলী খন্দকার,মদিনা , একতা-৩৭৩ (উত্তরবাগবাড়ী) থানা-সিলেট জেলা-সিলেট","24.9096381","91.8492394","Sylhet","Sylhet Sadar","Map"
"0163","Ramganj Laxmipur","001847099163","আলহাজ মোঃ খোরশেদ আলম ,পিতাঃ মৃতঃ হাজী আঃ ছোবাহান, ( খোরশেদ হাজির বিল্ডিং ওয়াব্দা রোড, ডাক্তার বাড়ীর পুলের পুর্ব পাশে) ড়াকঘর -রামগঞ্জ, থানা- রামগঞ্জ,জেলাঃ লক্ষিপুর।","23.106665","90.8569849","Lakshmipur","Ramganj","Map"
"0164","Sreenagar Munshiganj","001847099164","জনাব মোঃ আজাহার হোসেন, পিতার: মো ইদ্রীস মোল্লা, শ্রীনগর উপজেলা ফেমাস হাসপাতালের সামনে, গ্রাম+পোস্ট -দেউলভোগ,  উপজেলাঃ শ্রীনগর, জেলাঃ মুন্সিগঞ্জ।","23.544271","90.286631","Munshiganj","Sreenagar","Map"
"0165","Sirajdikhan Munshiganj","001847099165","আনোয়ারা বেগম, রাজদিয়া, বালুচর রোড, সিরাজদিখান, মুন্সীগঞ্জ। সিরাজদিখান, মুন্সীগঞ্জ","23.5718","90.3865","Munshiganj","Sirajdikhan","Map"
"0166","Haluaghat Mymensingh","001847099166","মোঃ জাহাঙ্গীর আলম, পোষ্ট অফিস রোড, ব্যাপারী পাড়া, হালুয়াঘাট সদর, ময়মনসিংহ.","25.12566","90.34333","Mymensingh","Haluaghat","Map"
"0167","Afilgate Khulna","001847099167","মোঃ আমিরুল ইসলাম, পিতাঃ মোঃ গোলাম রহমান,গ্রামঃ আফিলগেট পেট্রোল পাম্প সংলগ্ন ,পোঃ জাহানাবাদ ক্যান্ট, থানাঃ ফুলতলা,খুলনা ।","22.933351","89.489680","Khulna","Fultola","Map"
"0168","Sadar Shatkhira","001847099168","মোঃইসরাফিল হোসেন, সাতক্ষীরা কাস্টম গোডাউনের উত্তর পাশে, কাটিয়া, সাতক্ষীরা সদর, সাতক্ষীরা","22.7280982","89.0801176","Shatkhira","Satkhira Sadar","Map"
"0169","Bhaluka Mymensingh","01847099169","মোঃ বিপ্লব, পাবলিক হল রোড ,উপজেলা পুকুর পাড়, বাসা-২৯১/৩৩৯ ২নং ওয়ার্ড ,ভালুকা ময়মনসিংহ ।","24.4080804","90.388751","Mymensingh","Bhaluka","Map"
"0170","Sitakunda Chattogram","001847099170","মোঃ আবুল বশর, পিতা:মৃত আব্দুল কুদ্দুস ভুইয়া , হোল্ডিং নং -২৪৪ , বশর মঞ্জিল , ডাক বাংলা রোড, সীতাকুন্ড , চট্টগ্রাম","22.6227897","91.657594","Chattogram","Sitakunda","Map"
"0171","Muktagacha Mymensingh","001847099171","মোঃ,আব্দুল সাত্তার: , বাসা হোল্ডিং নং-, পুরাতন সাহেব বাজার(সুপারি বাগান রোড), মেইন রোড  মুক্তাগাছা, ময়মনসিংহ","24.7639956","90.2506356","Mymensingh","Muktagacha","Map"
"0172","Sadar Laxmipur","001847099172","জনাব আমির হোসেন, পিতাঃ মোঃশাহ আলম,নিচ তলা ও ৩য় তলা, গ্রাম-দক্ষিন মজুপুর, থানা-লক্ষিপুর সদর,জেলা-লক্ষিপুর","22.9388382","90.8443909","Lakshmipur","Lakshmipur Sadar","Map"
"0173","Laksam Cumilla","001847099173","হাউসনং:৩১৯, (ইসমাইলের বাড়ী) দক্ষিন বাইপাস, পূর্ব লাকসাম, পোষ্টঃ লাকসাম, থানাঃ লাকসাম সদর, জেলাঃ কুমিল্লা।","23.2326181","91.1264075","Cumilla","Laksam","Map"
"0174","Haziganj Chandpur","001847099174","মোঃসিরাজুল ইসলাম, এ এস কে টাওয়ার,চাঁদপুর-কুমিল্লা রোড,হাজীগঞ্জ,চাঁদপুর","23.251787","90.862682","Chandpur","Haziganj","Map"
"0175","Hasnabad Dhaka","001847099175","মোহম্মদ ঊল্লাহ রাসেল,রোড নং-০১,ওয়ার্ড নং-০৯, ব্লকনং-এ, হাসনাবাদ হাউজিং, কেরানীগঞ্জ, ঢাকা","23.6816653","90.4231376","Dhaka","Sampur","Map"
"0176","Madhabdi Narsingdi","001847099176","মিঠুন , গ্রাম বিরামপুর ডাকঘর -মাধবদী, থানা-মাধবদী জেলা-নরসিংদী","23.851743","90.671107","Narsingdi","Madhobdi","Map"
"0177","Adamdighi Bogura","001847099177","হাবিলদার মো: হারুনুর রশিদ , আদমদীঘী রহিম উদ্দীন ডিগ্রি কলেজ রোড , আদমদীঘী , ডহরপুর , আদমদীঘী , বগুড়া","24.821496334523154","89.0363111854544","Bogura","Adamdighi","Map"
"0178","Bera Pabna","001847099178","মোঃ মিজানুর রহমান মজনু পিতাঃ মৃত বরকত আলী প্রা্মানিক, গ্রামঃ সান্যাল পাড়া থানাঃ বেড়া জেলাঃ পাবনা","24.0751633","89.6201040","Pabna","Bera","Map"
"0179","Tongibari Munshiganj","001847099179","পারভীন সিরাজ মৃধা কমপ্লেক্স- ২য় তলা, মুক্তিযোদ্ধা কমপ্লেক্সের পশ্চিম পাশে, গ্রামঃআমতলি, পোস্টঃটুংগীবাড়ী, উপজেলাঃটুংগীবাড়ী, জেলাঃমুন্সীগঞ্জ।","23.5115529","90.463994","Munshiganj","Tongibari","Map"
"0180","Kapasia Gazipur","001847099180","মোঃ শামীম হোসেন, পিতা- মৃত- কাজী নজরুল  ইসলাম, গ্রামঃ খোদাদিয়া, পোঃ কাপাসিয়া, উপজেলাঃ কাপাসিয়া, জেলাঃ গাজীপুর।","24.10745129","90.5735905","Gazipur","Kapasia","Map"
"0181","Chandina Cumilla","001847099181","মো:এনামুল হক ,পিতা মো: সুজাত আলী সাং-মহারং,ওয়াবদা রোড,হক হাউজ, চান্দিনা-কুমিল্লা.","23.48723","91.00031","Cumilla","Chandina","Map"
"0182","Sheikhghat Sylhet","001847099182","মোঃআলী আহমদ মলিক, মা ভিলা, বাসা নং-১৫২,পিডিবি অফিসের বিপরীতে, নবাব রোড পয়েন্ট, পশ্চিম কাজলশাহ সিলেট সদর, সিলেট","24.89912515","91.85086031","Sylhet","Sylhet Sadar","Map"
"0183","Sadar Netrakona","001847099183","বাসার মালিক,  মো: মজিদ মিয়া  পিতা মৃত.হানিফ মিয়া, শিবগঞ্জ রোড, ইসলামপুর মোড়, নেত্রকোনা ডায়াবেটিক হাসপাতালের বিপরীত পাশে ২য় তলা,  নেত্রকোনা  সদর","24.880893","90.741734","Netrakona","Netrokona Sadar","Map"
"0184","Debidwar Cumilla","001847099184","মোঃআলমগীর মোল্লা, চান্দিনা রোড, দেবিদ্বার, কুমিল্লা।","23.60189","90.98864","Cumilla","Debidwar","Map"
"0185","Ambarkhana Sylhet","001847099185","প্রভাষক মো:তাহের আলী পীর সাহেবের বাড়ির নীচ তলা,বাড়ি নং-৪,বড় বাজার রোড,বড় বাজার, আম্বখানা,সিলেট","24.906040","91.871910","Sylhet","Sylhet Sadar","Map"
"0186","Borpa-Rupgonj Narayanganj","001847099186","মোঃ আশরাফুল ইসলাম, হোল্ডিং নং-৫৬, মৌজা ও গ্রাম-আরিয়াবো, পোঃ রুপসী, পৌরুসভা-তারাব, থানা-রুপগঞ্জ, জেলা-নারায়নগঞ্জ .","23.747185","90.542683","Narayanganj","Rupganj","Map"
"0187","Mawna Gazipur","001847099187","আবুল কাশেম, কেওয়া বাজার, শ্রীপুর, গাজিপুর","24.2178869","90.4211066","Gazipur","Sreepur","Map"
"0188","Mirsarai Chattogram","001847099188","জনাব আবুল কাসেম নিজামী মৃতঃ রফিউজ্জামান ওয়ার্ডঃ ০৩নং ইউনিয়নঃ মীরসরাই পৌরসভা থানা/উপজেলাঃ মীরসরাই জেলাঃ চট্রগ্রাম বিভাগঃ চট্রগ্রাম","22.77668","91.57666","Chattogram","Mirsharai","Map"
"0189","Daganbhuiyan Feni","001847099189","সাইফুল ইসলাম কমিশনারের বাসা। পিতা: রেজাউল হক, উত্তর করিমপুর, বসুরহাট রোড, দাগনভুইয়া,  ফেনী ।","22.9335354","91.2977391","Feni","Daganbhuiyan","Map"
"0190","Sadar Chapainawabganj","001847099190","মোঃ নওসাদ আলী,  পিতা- দাউদ আলী,গ্রাম:আরামবাগ, ডাকঘর:চাঁপাইনবাবগন্জ থানা:চাঁপাইনবাবগঞ্জ, জেলা: চাঁপাইনবাবগঞ্জ","24.5925105","88.2681823","Chapainawabganj","Chapinawabganj Sadar","Map"
"0191","Sarishabari Jamalpur","001847099191","মো: আলী আকবর খাদ্য গুদাম রোড বিল শিমলা সড়িষাবাড়ি জামালপুর","24.757040","89.836207","Jamalpur","Sarishabari","Map"
"0192","Sadar Jhalokati","001847099192","মোসাঃ মমতাজ বেগম,  পিতার নাম – জিন্নাত আলী মিয়া, বাইপাস সড়ক, জেলা পরিষদের সামনে, ঝালকাঠি |","22.648862","90.201420","Jhalokati","Jhalokati Sadar","Map"
"0193","Mithapukur Rangpur","001847099193","মোঃ আলমগীর হোসেন পিতা:মৃত মোঃ সোলায়মান মন্ডল, ডিসির মোড়, দক্ষিনপাড়া, মিঠাপুকুর, রংপুর","25.570472","89.276898","Rangpur","Mithapukur","Map"
"0194","Kalkini Madaripur","001847099194","মোঃ আনোয়ার হোসাইন্।, উত্তর রাজদী, পোষ্ট+থানাঃ কালকিনি, জেলাঃ মাদারীপুর । মোবাইল নং- ০১৭১৫-৬২০৭৪৬","23.0760494","90.2290975","Madaripur","Kalkini Madaripur","Map"
"0195","Sherpur Bogura","001847099195","মো: আব্দুল গণি, পিতা: মৃত: রোস্তম আলী, উলিপুর, শেরপুর, বগুড়া","24.679210","89.410175","Bogura","Sherpur","Map"
"0196","Chhagalnaiya Feni","001847099196","মোঃ কামরুল ইসলাম, পিতাঃ মৃত তাজুল ইসলাম, তাজ মার্ক ল্যান্ড, ছাগলনাইয়া সরকারী বালক পাইলট উচ্চ বিদ্যালয়ে সামনে, থানা পাড়া, ছাগলনাইয়া, ফেনী।","23.03665","91.51616","Feni","Chhagalnaiya","Map"
"0197","Sadar Jhenaidah","001847099197","জনাব মোঃ আফজাল হোসেন , সিদ্দিকীয়া সড়ক,শাপলা চত্তর,রোড নং-গ-০৪১,বাসা নং-১০,হোল্ডিং নং-০৯,ঝিনাইদহ","23.5392275","89.1699794","Jhenaidah","Jhenaidah","Map"
"0198","Sadar Pirojpur","001847099198","মো: কবির ইসলাম, মাছিম পুর , পানির ট্যাংক সংলগ্ন ( নতুন বাস স্ট্যণ্ডের পশ্চিম পাশে)","22.5709177","89.9764842","Pirojpur","Pirojpur Sadar","Map"
"0199","Baraiyarhat Chattogram","001847099199","মোঃ নজরুল ইসলামের বাড়ী , আমিন টাওয়ার (২য় তলা) চিঙ্কির আস্তানা, জামালপুর, বারৈয়ার হাট, চট্রগ্রাম, আমিন টাওয়ার, চিঙ্কির আস্তানা,জামালপুর,বারৈয়ার হাট,মিরশরাই, চট্রগ্রাম।","22.88904","91.53182","Chattogram","Baraiyarhat","Map"
"0200","Sadar Rangpur","001847099200","তাজহাট, আনছারী মোড়,কানুনগো টোলা,বাসা নং-০১, রোড নং -০২ মো: আব্দুল জব্বার, রংপুর,","25.72657","89.27413","Rangpur","Rangpur Sadar","Map"
"0201","Bhanga Faridpur","001847099201","মোঃ আনোয়ার হোসেন ( মালিক ), পিতার নাম, মোঃ ধলামিয়া, ঠিকানা –গ্রাম/ পশ্চিম হাসামদিয়া, পোষ্টঃ ভাংগা পৌরসভা, থানা,ভাংগা, জেলাঃ ফরিদপুর","23.3904337","89.9772168","Faridpur","Bhanga","Map"
"0202","Sadar Gopalgonj","001847099202","মারুফ আহমেদ  বাড়ি নাম ও নংঃ চাঁদের কনা- ৭৭/১, সামসুল হক রোড, ওয়ার্ড নংঃ ১২, গোপালগঞ্জ সদর-৮১০০, গোপালগঞ্জ।","23.0007471","89.8196558","Gopalgonj","Gopalgonj Sadar","Map"
"0203","Gobindaganj Gaibandha","001847099203","মোছাঃ জিনিয়া আফরোজ, স্বামীঃ আব্দুস সালাম তালুকদার, পিতাঃ মৃত মোতাহার হোসেন মৃধা, গ্রামঃ প্রগতী পাড়া, পোষ্টঃ গোবিন্দগঞ্জ, থানাঃ গোবিন্দগঞ্জ, জেলাঃ গাইবান্ধা","25.130016","89.386736","Gaibandha","Gobindaganj","Map"
"0204","Chhatak Sunamganj","001847099204","মোঃ আবুল ফয়েজ  পিতা :মৃত-মোঃ তৈয়ব আলী, মন্ডলীভোগ,থানা-ছাতক, জেলা ঃসুনামগঞ্জ","25.02938","91.6638757","Sunamganj","Chhatak","Map"
"0205","Pirganj Rangpur","001847099205","উপজেলা পরিষদের পাশে, থানা রোড(গ্রামীন ব্যাংক সংলঘ্ন) থানাঃ পীরগঞ্জ ।জেলাঃ রংপুর।মোবাইল-০১৯২৪৪৭৯৪৭৯ ।","25.42023781094994","89.30855243923727","Rangpur","Pirganj","Map"
"0206","Ishwardi Pabna","001847099206","রফিকুল আলম দিপু উকিলের নতুন বাড়ি,উপজেলা রোড ঈশ্বরদী পাবনা।","24.1231321","89.0583026","Pabna","Ishwardi","Map"
"0207","Takerhat Madaripur","001847099207","মোছা : দুলালী বেগম , স্বামী মো : লিয়াকত আলী মিয়া, মন্দির রোর্ড আবাসিক এলাকা, টেকেরহাট, রাজের, মাদারীপুর।","23.2278918","90.0220604","Madaripur","Madaripur Sadar","Map"
"0208","Sutiakathi  Pirojpur","001847099208","মোঃ মানিক মিয়া, সুটিয়াকাঠি, পোষ্ট: কৌড়িখাড়া, থানা: নেছারাবাদ (স্বরুপকাঠী) জেলা: পিরোজপুর","22.7575870","90.0890550","Pirojpur","Nesarabad","Map"
"0209","Phulpur Mymensingh","01847099209","মোঃ আজাহার আলী, পিতার নাম :-মোঃ জামির উদ্দিন, গোদারিয়া, মহিলা কলেজ রোড ফুলপুর ময়মনসিংহ।","24.955259076197397","90.35515409609758","Mymensingh","Phulpur","Map"
"0211","Madhukhali Faridpur","001847099211","মোহাম্মদ বশীর উদ্দীন ,  পিতাঃনাম: মৃত মোহাম্মদ ইসলাম উদ্দীন , গ্রাম- কাটাখালী খোদাবাসপুর , পোঃ কোড়কদী থানাঃ মধুখালী জেলাঃ ফরিদপুর","23.548969","89.6252436","Faridpur","Modhukhali","Map"
"0212","Shibchar Madaripur","001847099212","মোঃইলিয়াস গোমস্তা, কেরানিবাট ,সেখ হাসিনা সড়ক, শিবচর, মাদারিপুর","23.3499092","90.1678237","Madaripur","Shibchar","Map"
"0213","Atibazar Dhaka","001847099213","মোঃ আব্দুল হাই,পিতা :মৃত মোঃ করমালী, গ্রাম-নয়াবাজার আটিবাজার, থানা- কেরানীগঞ্জ-ঢাকা-১২১৩","23.7264455","90.3413636","Dhaka","Keraniganj","Map"
"0214","Bhandaria Pirojpur","001847099214","নাজমা আক্তার, পিতাঃ আনছার উদ্দিন হাওলাদার, ভান্ডারিয়া মেইন রোড, উপজেলা- ভান্ডারিয়া, জেলা-পিরোজপুর","22.487214","90.066973","Barishal","Bhandaria","Map"
"0215","Chowgacha Jessore","001847099215","মোঃ শরিফুল ইসলাম গ্রামঃ বাগপাড়া,পোঃ ও থানা-চৌগাছা, জেলা-যশোর","23.26039","89.02376","Jessore","Chaugachha","Map"
"0216","Nandina Jamalpur","001847099216","মো:মোসাহামিদী  /পেশা-ব্যবস্যা, খড়খড়িয়া কলেজ রোড, নান্দিনা,  জামালপুর।","24.8683","90.03785","Jamalpur","Sarishabari","Map"
"0217","Jhikargacha  Jessore","001847099217","মোঃ রফিকুল ইসলাম পিতা:মৃত কেনায়েত আলী,হাজের আলী পেট্রোল পাম্প সংলগ্ন,২য় তলায় ঝিকরগাছা,যশোর-৭৪০০","23.09668","89.09036","Jessore","Jhikargachha","Map"
"0218","Chauddagram Cumilla","001847099218","মোহাম্মদ আরিফুল হক, পিতা-মৃত আতর আলী ভুইয়া,  গ্রাম- লক্ষীপুর জামে মসজিদ (ঈদগাঁ রোড), ডাক+থানা-চৌদ্দগ্রাম, জেলা-কুমিল্লা","23.2247607","91.3160015","Cumilla","Chauddagram","Map"
"0219","Palashbari Gaibandha","001847099219","এ্যাডঃ মমতাজ উদ্দীন,পিতা – মরহুম হাজী মাহাতাব উদ্দীন,  উদয়সাগ, রোড তিন মাথা, পলাশবাড়ী, গাইবান্ধা,","25.284886","89.357127","Gaibandha","Palashbari","Map"
"0220","Narshinghapur-Ashulia Dhaka","001847099220","মোহাম্মদ আলী সিদ্দিকী, পিতা- মৃত- করম আলী,  নিশ্চিন্তপুর, জিরাবো, আশুলিয়া, সাভার, ঢাকা","23.9265517","90.3123517","Dhaka","Savar","Map"
"0221","Muradnagar Cumilla","001847099221","আব্দুল জলিল মাষ্টার,মুরাদনগর ফায়ার সার্ভিসের পুর্ব পাশে ,মুরাদনগর, কুমিল্লা","23.638644","90.939677","Cumilla","Muradnagar","Map"
"0222","Sadar Brahmanbaria","001847099222","মোছা: জাহানারা বেগম, স্বামী জাহাঙ্গির আলম, পিতা মৃত আজিজুল হক, মধ্য মেড্ডা (সবুজবাগ), ব্রাহ্মাণ বাড়ীয়া সদর","23.9836935","91.1088188","Brahmanbaria","Brahmanbaria Sadar","Map"
"0223","Hathazari  Chattogram","001847099223","জনাব রোকেয়া বেগম স্বামী : মোঃ আবদুর  রশিদ ১১ মাইল হাটাজারী,  চট্রগ্রাম","22.49267","91.80714","Chattogram","Hathazari","Map"
"0224","Banaripara Barisal","001847099224","মোঃ মাসুদ বিল্লাহা, ৮নং ওয়ার্ড, কুন্দিহার, বানারীপাড়া, বরিশাল, মোবাইল নাম্বারঃ ০১৭১১৩৩৮৬৫৭,।","22.77741","90.16407","Barishal","Banaripara","Map"
"0226","Tukerbazar Sylhet","001847099226","মাওলানা আছাদ আহমদ,  পিতাঃনূরুল হক সুফি, কুমার গাও আবাসিক এলাকা, টুকের বাজার, জালালাবাদ, সিলেট।","24.914351","91.823986","Sylhet","Sylhet Sadar","Map"
"0227","Fulbaria Mymensingh","001847099227","লাহেড়ীপাড়া তেলের পাম্প সংলগ্ল।মেইন রোড, ফুলবাড়িয়া, ময়মনসিংহ ।","24.641189","90.274105","Mymensingh","Mymensingh Sadar","Map"
"0228","Durgapur Rajshahi","001847099228","মোহম্মদ তাবুল ইসলাম বাবু । দুর্গাপুর(পোস্ট অফিস সংলগ্ন) ,তাহেরপুর রোড, দুর্গাপুর,রাজশাহী, মোবাইল-০১৭৬৮-৯৩৬১৯৩","24.4485254","88.7606566","Rajshahi","Durgapur","Map"
"0229","Sadar Nilphamari","001847099229","জনাব মোঃ শামসুজ্জামান(জামান), পিতাঃমৃত অধ্যক্ষ মোঃ মুছা,বাবু পাড়া,শহীদ তিতুমীর সড়ক,নীলফামারী,","25.934770","88.846952","Nilphamari","Nilphamari Sadar","Map"
"0230","Mohanpur Rajshahi","001847099230","মোঃরনি, গ্রামঃ মোহনপুর, ডাকঘরঃ মোহনপুর, থানাঃ মোহনপুর, রাজশাহী।","24.5497137","88.648356","Rajshahi","Mohanpur","Map"
"0231","Kachua Chandpur","001847099231","মোঃ অলি উল্যাহ ,পিতাঃ মৃতঃআলী মিয়া(গুলবাহার রোড, কান্দারপাড়, ৫ম তলা বিল্ডিং এর২য় তলা, কচুয়া ,চাদঁপুর, ড়াকঘর -কচুয়া, থানা- কচুয়া, জেলা-চাদঁপুর","23.342904","90.886453","Chandpur","Kachua","Map"
"0232","Dhanbari Tangail","001847099232","মোঃ সাইফুল পিতাঃ আঃ কাদের খাসপাড়া,ধনবাড়ী থানার পাশে (01729956070)","24.6700636","89.9562391","Tangail","Delduar","Map"
"0233","Kotalipara Gopalgonj","001847099233","মিজানুর রহমান মিজান (বর্তমান কোটালীপাড়া ১ নং ওয়ার্ড কমিশনার) ,পিতার নাম,মো:আক্কাস আলী ,ঠিকানা –ঘাঘর ব্রিজ এর পশ্চিম পাশে , বঙ্গবন্ধু দারিদ্র বিমোচন ও পল্লী উন্নয়ন একাডেমি (বাপার্ড) এর হেড অফিসের বিপরীতে  কোটালীপাড়া থানা ,গোপালগঞ্জ।","22.9930069","89.9886686","Gopalgonj","Kotalipara","Map"
"0235","Madhupur Tangail","001847099235","মোঃ সাইফুল ইসলাম, মধুপুর বাস স্ট্যান্ড থেকে 0.৫ কিলোমিটার উওর দিকে বাসাবাড়ি মার্কেটের পাশে নাগবাড়ি উওরা আবাসিক এলাকা মধুপুর, টাঙ্গাইল ।","24.6120355","90.0293989","Tangail","Madhupur","Map"
"0236","Nalitabari Sherpur","001847099236","মোঃমকবুল হোসেন, বাড়ি নং ২৩৭/৮, উত্তর চকপাড়া, নালিতাবাড়ী, শেরপুর","25.09151","90.19914","Sherpur","Nalitabari","Map"
"0237","Hatemali-Choumatha  Barisal","001847099237","মোঃতানভীর হোসেন, লাল মিয়া কটেজ,নবগ্রাম রোড,মানুমিয়া লেন,পরিবেশ অধিদপ্তর এর পিছনে,হোল্ডিনং-১০৭২, ওয়ার্ড নং -২১","22.70113473610503","90.35627393532322","Barishal","Barisal Sadar","Map"
"0238","Baneshwar Rajshahi","001847099238","মো: আ: রব ,পিতার নামঃ মো: আ: রহমান  ,ঠিকানা –গ্রামঃ বালিয়াঘাটি, শিবপুর, ডাকঘরঃ বানেশ্বর-৬২৬০, পুঠিয়া, রাজশাহী।","24.3687304","88.7576574","Rajshahi","Puthia","Map"
"0239","Gouripur Mymensingh","001847099239","ওশান ম্যানসন(মোঃ শাহাবুদ্দিন), রামপুর-গৌরীপুর সড়ক(প্রধান সড়ক), হোল্ডিং নং : ৯০৩-০৪, উপজেলা: গৌরীপুর,জেলা: ময়মনসিংহ","24.7501172","90.5708166","Mymensingh","Gauripur","Map"
"0240","Agla  Dhaka","001847099240","আগলা পোস্ট  অফিস সংলগ্ন, মারুফা সুলতানা রুপা, স্বামী - মো : মাসুদ রানা, গ্রাম: আগলা কালুয়াহাটি দক্ষিন, পো: আগলা, থানা: নবাবগঞ্জ, জেলা: ঢাকা","23.6475265","90.2041546","Dhaka","Nawabganj","Map"
"0241","Sonagazi Feni","001847099241","মো: আব্দুল কাশেম, কাশেম ম্যানশন,(২য়) তলা, হ্যাদী স্ট্যান, চরগণেশ, সোনাগাজী,সোনাগাজী পৌরসভা, সোনাগাজী, ফেনী।","22.850089","91.400533","Feni","Sonagazi","Map"
"0242","Sadar Noakhali","001847099242","স্পন্দন ভবন। মোহাম্মদ জিয়া উদ্দিন। পিতাঃ মনির উদ্দিন।  পশ্চিম আলীপুর, মাইজদী, নোয়াখালী।","22.851810","91.095030","Noakhali","Noakhali Sadar","Map"
"0243","Chatmohar Pabna","001847099243","কাজী ফজলুল হক (মুকুল), ওয়ার্ড নং-০৪, কাজীপাড়া, চাটমোহর পৌরসভা, চাটমোহর, পাবনা","24.226155","89.290045","Pabna","Chatmohar","Map"
"0244","Manirampur  Jessore","001847099244","বি এম আঃ হালিম, মনিরামপুর বাজার দক্ষিন মাথা বাস স্ট্যান্ডের পূর্বপাশে ,বিশ্বাস বাড়ী, ওয়ার্ড নং-০৯, বাড়ীর দাগ নং-২৭৬, হোল্ডিং নং-৩৪, দ্বিতীয় তলার নীচতলার","23.02216","89.23347","Jessore","Monirampur","Map"
"0245","Dumuria Khulna","001847099245","মোঃ রবিউল ইসলাম(রবি) ।অবসর প্রাপ্ত সরকারী চাকুরী । পিতাঃমৃত এম এ মান্নাফ শেখ, ঐশ্বর্য প্রাচুর্য ভবন, গ্রামঃ আরাজি সাজিয়াড়া (মন্ত্রিপাড়া) পোঃ সাজিয়াড়া, থানাঃ ডুমুরিয়া, খুলনা","22.8111236","89.418126","Khulna","Dumuria","Map"
"0246","Moksudpur Gopalgonj","001847099246","মোঃ জাকারিয়া শেখ, পিতা: মৃত. মহিউদ্দীন শেখ, মাতা: মোসাঃ হালিমা বেগম, দক্ষিণ চন্ডীবর্দী, মুকসুদপুর পৌরসভা, মুকসুদপুর, গোপালগঞ্জ।","23.3201879","89.865658","Gopalgonj","Muksudpur","Map"
"0247","Shahrasti Chandpur","001847099247","মোঃ জাহাঙ্গীর আলম ,  উপলতা শাহরাস্তি গেট,ওয়ার্ড নংঃ ০৩ হোন্ডিং নং ৪০১ শাহরাস্তি ,চাঁদপুর","23.24667","90.94946","Chandpur","Shahrasti","Map"
"0248","Bakerganj Barisal","001847099248","জনাব সাজেদা নাছরিন, হোল্ডিং নং-৩৬৩, ওয়ার্ড নং-০৪,সি অ্যান্ড বি রোড,পৌরসভা, বাকেরগঞ্জ, বরিশাল","22.53935","90.33437","Barishal","Bakerganj","Map"
"0249","Fulgazi Feni","001847099249","মোঃ বেলাল হোসাইন , কিসমত ঘনিয়া মোড়া, ফুলগাজী, ফেনী,","23.158952","91.433526","Feni","Fulgazi","Map"
"0250","Sadar Moulvibazar","001847099250","মোঃ এনায়েত হোসেন খান, পক্ষে ইঞ্জিনিয়ার আবুল হোসেন খান। এবং ঠিকানা হবে ১৪/২ দক্ষিণ কলিমাবাদ, ওয়ার্ড নং-৩, চুবড়া রোড, মৌলভীবাজার পৌরসভা, মৌলভীবাজার ।","24.47708","91.77341","Moulvibazar","Maulvibazar","Map"
"0251","Araihazar Narayanganj","001847099251","ডা: আব্দুল মান্নান মিয়ার বাড়ি, কৃষ্ণপুরা, দিঘীরপাড়, আলীয়া মাদ্রাসা সংলগ্ন, আড়াই হাজার, নারায়নগঞ্জ।","23.7920055","90.6554769","Narayanganj","Arraihazar","Map"
"0252","Baliakandi Faridpur","001847099252","মোঃনজরুল ইসলাম, বালিয়াকান্দি তাল পট্টি নুরু চেয়রাম্যান মোড় টাওয়ার এয় কাছে , বালিয়াকান্দি, রাজবাড়ী ।","23.6409018","89.5488481","Rajbari","Baliakandi","Map"
"0253","Parjatan-More Rangpur","001847099253","মোঃ মোস্তাফিজুর রহমান, আয়শা ভিলা বাড়ি নং- ৩৬ রোড নং- ০২পর্যটন মোড় পূর্বপাড়া, থানা রংপুর কতোয়ালী, রংপুর, । রংপুর বাস স্ট্যান্ড থেকে 0.৫ কিলোমিটার উত্তর দিকে পর্যটন মোটেল এর সামনে  এবং আগের আফিস থেকে ১০০ গজ পূর্ব দিকে । আর, কে রোডে ।","25.7484796","89.231845","Rangpur","Rangpur Sadar","Map"
"0254","Rajoir Madaripur","001847099254","মোঃ শহিদুল  ইসলাম , রাজৈর বাজার, পোষ্ট+থানাঃ রাজৈর, জেলাঃ মাদারীপুর।মোবাইল নং- ০১৭০১-৩১৯০২৮","23.20422959","90.0470297","Madaripur","Rajoir","Map"
"0255","Ishwarganj  Mymensingh","001847099191","ইউসুফ আলী  পিতা :মৃত আ: জাব্বার, চরহোসেনপুর,ঈশ্বরগঞ্জ-ময়মনসিংহ","24.67453","90.60259","Mymensingh","Ishwarganj","Map"
"0256","Pangsha Faridpur","001847099256","তোফাজ্জেল হোসেন, পিতা হাজী নূর ইসলাম, রাজবাড়ী পাংশা জর্জ উচ্চ বিদ্যালয়ের দক্ষিনে, শিল্পকলা মোড়,পাংশা","23.786791","89.422053","Rajbari","Pangsha","Map"
"0257","Parbatipur Dinajpur","001847099257","মো: সোহেল রানা,   পেশা: চাকুরী, হোল্ডিং নং-৫/৪২০  জ্ঞানাষ্কুর মাঠ  পার্বতীপুর , দিনাজপুর । শহিদ মিনার হতে উত্তর দিকে ০.৫০ কিলোমিটার ।","25.65903040961487","88.91762774389302","Dinajpur","Parbatipur","Map"
"0258","Rupsha Khulna","001847099258","এস এম নাসিম হোসাইন ।মাছ ব্যবসায়ী (রপ্তানীকারক)। পিতাঃ মৃত আলমগীর হোসেন, গ্রামঃজয়পুর (রুপসা কলেজ সংলগ্ন) পোস্টঃপুর্ব রুপসা, থানাঃরুপসা,জেলাঃ খুলনা ।","22.799390","89.592947","Khulna","Khulna Sadar","Map"
"0259","Meghulabazar  Dhaka","001847099259","হাজী মোঃ ইসরাফিল মৃধা, পিতাঃ আব্দুল লতিফ মৃধা, উত্তর শিমুলিয়া, মেঘুলা বাজার , দোহার, ঢাকা","23.5779985","90.1503581","Dhaka","Dohar","Map"
"0260","Velanagar Narsingdi","001847099260","মোঃ ইকবাল হোসেন (ফকির), পিতা: মৃত হাজী লালমিয়া ফকির,গ্রাম: পশ্চিম, চিনিশপুর, জেলখানা গেইটের পশ্চিম পাশে, নরসিংদী সদর , নরসিংদী.","23.9343476","90.7059958","Narsingdi","Narsingdi Sadar","Map"
"0261","Churamankathi Jashore(0261)","001847099261","তবিবুর রহমান পিতা মৃত ইশারত বিশ্বাস, ঘোনা রোড,চুড়ামনকাটি,যশোর সদর,যশোর","23.21959","89.16642","Jashore","Jashore Sador","Map"
"0262","Kashinathpur Pabna","001847099262","কাজী সানোয়ার হোসেন, পিতাঃ মৃতঃ জয়নাল আবেদীন,গ্রামঃ সাটিয়াকোলা, ডাকঘরঃ কাশিনাথপুর-৬৬৮২, থানাঃ সাথিয়া, জেলা-পাবনা","23.969952357906987","89.5988437490574","Pabna","Santhia","Map"
"0263","Dupchanchia Bogura","001847099263","মোঃ আহসান হাবিব, হাবিব কমপ্লেক্স, মেইন বাসষ্ট্যান্ড, দুপচাচিয়া।","24.878353063827404","89.17636275135294","Bogura","Dupchanchia","Map"
"0264","Burichang Cumilla","001847099264","মোঃসৈয়দ আহম্মেদ , বাবারনামঃমৃত,ইয়াজতআলী ,বুড়িচংথানা সংলগ্ন, ওয়ার্ডনং-০৩, বুড়িচং , কুমিল্লা","23.5519176","91.1315577","Cumilla","Burichang","Map"
"0265","Raozan  Chattogram","001847099265","মোঃ শাহীদুল আলম, দিদার মঞ্জীল রাউজান পৌরসভা চট্রগ্রাম","22.53581","91.91185","Chattogram","Raozan","Map"
"0266","Rangunia Chattogram","001847099266","মোঃদিদার আলম  চৌধুরী বাড়ী, ইছাখালী রঙ্গুনিয়া পৌরসভা,  চট্রগ্রাম","22.4653705","92.0526209","Chattogram","Rangunia","Map"
"0267","Ramu  Coxs bazar","001847099267","আব্দুল রহমান , মেরুল্লা ,রামু  সূর্যের হাসি ক্লিনিকের পাশে, নূর মসজিদ এর গলি","21.4325108","92.103351","Coxsbazar","Ramu","Map"
"0268","Ranirhat Chattogram","001847099268","আজিজুল হক মেম্বার বাড়ী, ওয়ান ব্যাংকের পাশের গলি টাওয়ার রোড রাণীরহাট, চট্টগ্রাম। ইউনিয়ন-রানীরহাট, উপজেলা-রাঙ্গুনীয়া, জেলা-চট্টগ্রাম","22.5732194","92.0446182","Chattogram","Rangunia","Map"
"0269","Banshkhali  Chattogram","001847099269","জনাব আবু তাহের সিকদার, মিয়াবাজার, জলদী,  বাশখালী, চট্টগ্রাম","22.010285","91.95064","Chattogram","Banshkhali","Map"
"0270","Keranihat Chattogram","001847099270","মোহাম্মদ ইব্রাহিম, পিতা:শামসুল ইসলাম, ইব্রাহিম ম্যানশন,উওর চরপাড়া, সাতকানিয়া মহিলা ডিগ্রী কলেজের পাশে, কেরানীহাট, সাতকানিয়া, চট্টগ্রাম।","22.0872785","92.0534916","Chattogram","Satkania","Map"
"0271","Chandanaish  Chattogram","001847099271","জনাব জাহেদ উদ্দীন দুলাল, জোয়ারা, বদুর পাড়া রাস্তার মাথা, চন্দনাইশ পৌরসভার উত্তর পূর্ব পাশ্বে, চট্রগ্রাম ।","22.2225808","92.0277212","Chattogram","Chandanaish","Map"
"0272","Pekua Coxs bazar","001847099272","মোঃ কাইছার, কালিগঞ্জ নয়াবাড়ি, শেকেরকিল্লা ঘোনা, পেকুয়া, কক্সবাজার,","21.83297","91.960645","Coxsbazar","Pekua","Map"
"0273","Raozan-Pahartali Chattogram","001847099273","আর,বি,সেন্টার রাউজান পাহাড়তলী চট্টগ্রাম।  কৃষি ব্যাংক এর (তৃতীয় তলা), হোল্ডিং নং--৫৪১,  ওর্য়াড নং- ৩, দাশ পড়া , থানা - রাউজান পাহাড়তলী জেলা -  চট্রগ্রাম।","22.459692","91.967392","Chattogram","Raozan","Map"
"0274","Bhairab   Khisoregonj","001847099274","মোঃ আওলাদ হোসেন, নিউ টাউন,কমলপুর-ভৈরব-কিশোরগঞ্জ","24.05259","90.98133","Khisoregonj  Bhairab","Bhairab","Map"
"0275","Puranbazar Chandpur","001847099275","মো:সুমন ব্যাপারি পিতা:মৃত শামছুল হক,মক্কা মিল,পুরান বাজার,চাঁদপুর","23.2186941","90.6448941","Chandpur","Chandpur Sadar","Map"
"0276","Matlab  Chandpur","001847099276","মোঃসেলিম বকাউল,পিতা: আঃ মতিন বকাউল,মতল্ব পানির ট্যাংকির মোড়,দশপাড়া মতলব ,  জেলা-চাঁদপুর","23.3428107","90.7145155","Chandpur","Matlab Uttor","Map"
"0278","Dhamrai Dhaka","001847099278","মো নুর আলম পিত:মৃত মোঃ আবুল হোসেন, লাকুরিয়া পাড়া, ধামরাই, ঢাকা","23.9125442","90.2126111","Dhaka","Dhamrai","Map"
"0279","Konapara-Demra Dhaka","001847099279","মোঃ আকতার হোসেন ভূইয়া,  আমানুল্লাহ ভূইয়া,  দরবার শরীফ রোড, কোনাপাড়া, ডেমরা, ঢাকা।","23.7136372","90.4680891","Dhaka","Demra","Map"
"0280","Bhaberchar Munshiganj","001847099280","হালিমা বেগম, পিতা-সুলতান সিকদার,ভবেরচর বাজার, থানা-গজারিয়া, জেলা-মুন্সিগঞ্জ","23.5519058","90.6491082","Munshiganj","Gazaria","Map"
"0281","Horinakunda Jhenaidah","001847277250","মোছাঃ সামছুন্নাহার, হোল্ডিং/৩৮ গ্রামঃ হরিনাকন্ডু আদর্শ পাড়া   ডাকঘরঃ হরিনাকন্ডু ,হরিনাকন্ডু পৌরসভা,থানাঃ হরিনাকন্ডু ,ঝিনাইদহ  .","23.65726579","89.0492345","Jhenaidah","Horinakunda","Map"
"0282","Mahespur Jhenaidah","001847277249","মোঃ নবী নেওয়াজ , পিতাঃ মৃত  মোহাম্মদ আলী, গ্রাম/রাস্তাঃ হামিদপুর, গোডাউন রোড, পোস্টঃ  মহেশপুর -৭৩৪০, থানাঃ মহেশপুর, জেলাঃ ঝিনাইদহ ।","23.3584","88.9204","Jhenaidah","Maheshpur","Map"
"0283","Jibannagar Chuadanga","001847277251","মোঃ পাংখী শেখ, হোল্ডিং নং-১৫৪ ব্লকঃ বি রোড নং থানা রোড-০১,থানাঃ জীবন নগর,চুয়াডাঙ্গা","23.42628","88.81290","Chuadanga","Chuadanga Sadar","Map"
"0284","Kaliganj Jhenaidah","001847277248","মো: মনিরুজ্জামান, পিতার নাম, সিরাজুল ইসলাম, ঠিকানা –চেয়ারম্যান বাড়ি, 0461-01, আড়পাড়া কোটচাঁদপুর, রোড কালিগঞ্জ, ঝিনাইদহ।","23.4061920","89.1296902","Jhenaidah","Maheshpur","Map"
"0285","Baliadanga Chapainawabganj","001847277275","মোঃ আবুল কালাম, গ্রাম/মহল্লাঃ নয়াগোলা(পলিশ লাইন),নয়াগোলা, ডাকঘর: নয়াগোলা -৬৩০০,চাঁপাইনবাবগঞ্জ সদর, চাঁপাইনবাবগঞ্জ।","24.6224573","88.2958026","Chapainawabganj","Chapinawabganj Sadar","Map"
"0286","Shibganj Chapainawabganj","001847277276","মো: আসরাফুল আলম রশিদ, ওয়ার্ড নং-০২, হোল্ডিং নং-১০৪, গ্রাম-সেলিমাবাদ, ফকিরপাড়া, বকুল তলা মোড়, থানা- শিবগঞ্জ, জেলা- চাঁপাইনবাবগঞ্জ","24.6910144","88.1569669","Chapainawabganj","Shibganj","Map"
"0288","Moheshkhali Coxs bazar","001847099288","মো: আজিজুল হক , পেশাঃব্যবসা ,পিতাঃ মৃত.মোজাহের মিয়া, গ্রাম-পুটিবিলা, ০২নং ওয়ার্ড, থানাঃ মহেশখালী,জেলাঃ কক্সবাজার।","21.5222222","91.9615171","Coxsbazar","Maheshkhali","Map"
"0289","Eidgaon Coxs bazar","001847099289","আয়েশা ছিদ্দিকা রুমা, ফরিদ ভবন,জাগির পাড়া,ঈদগাঁও কক্সবাজার।মোবাইল-০১৬০৯৪৫৯৭৫৬","21.5530998","92.0667762","Coxsbazar","Eidgah","Map"
"0290","Sadar Bandarban","001847099290","বিপ্লব চক্রবর্তী ,পিতা-দিলীপ চক্রবর্তী, এল জি ই ডি অফিস সংলগ্ন( জজকোর্টের পাশে)। কিয়াং ভিটা,৪নং ওয়ার্ড, পৌরসভা ,বান্দরবান সদর, বান্দরবান","22.19431","92.2199","Bandarban","Bandarban","Map"
"0291","Lama Bandarban","001847099291","আমান উল্লাহ পিতা মৃতঃ নুরুল হক গ্রাম-বড় নুনারবিল ৭নং ওয়ার্ড,২৯৩ মৌজা ডাকঘরঃ লামা পৌরসভা, জেলা-বান্দরবান","21.771309","92.196808","Bandarban","Lama","Map"
"0292","Sadar Rangamati","001847099292","ভিবা চাকমা উত্তর কালিন্দীপুর, হোল্ডিং নং-১৬৯/ঙ, দাগ নং ২৬৫৩ (অং) ১০২ নং রাঙ্গাপানি মৌজা, (রানী দয়াময়ী উচ্চ বিদ্যালয়ের বিপরীত পাশে) রাঙ্গামাটি পার্বত্য জেলা","22.65865","92.17096","Rangamati","Rangamati","Map"
"0293","Lichubagan Chattogram","001847099293","মোঃআব্দুল আজিজ, হাজী মোহাম্মদ আলী কমপ্লেক্স ,লিচুবাগান আবাসিক, চন্দ্রঘোনা, রাংগুনিয়া ,চট্রগ্রাম।","22.46669","92.12310","Chattogram","Rangunia","Map"
"0294","Gunagori Chattogram","001847099294","মোজ্জামেল হক, পিতাঃ ইব্রাহিম, মাতাঃ সালমা খাতুন, বাসা/হোল্ডিংঃ হাফেজ চেয়ারম্যান পাড়া, গ্রামঃ ছনখোলা, চুড়ামনি,  ডাকঘরঃ জোট পুকুরিয়া,বাজার (৪৩৮৬), সাতকানিয়া, চট্টগ্রাম।","22.082318","91.934762","Chattogram","Banshkhali","Map"
"0295","Sreemangal Moulvibazar","001847099295","সৈয়দ আজিজুল হোসেন,হোল্ডিং নং-১৪১৪, ২ নং পুল,ওয়ার্ড নং-০৩,মৌলভীবাজার রোড, পোষ্ট/ থানা-শ্রীমঙ্গল, মৌলভীবাজার ।","24.31754","91.73548","Moulvibazar","Sreemangal","Map"
"0296","Kulaura Moulvibazar","001847099296","ফাতেমা বেগম লিপি,,পিতাঃ হাজী আব্দুল খালিক, বাসা নং-৭৯,ওয়ার্ড নং-৮,চাতল গাও,জালাবাদ গ্যাস অফিসের পিছনে-কুলাউড়া,মৌলভীবাজার","24.511476","92.02411","Moulvibazar","Kulaura","Map"
"0297","Kalampur Dhaka","001847099297","মোঃ জিয়াউর রহমান, বরইতলা, ছোট কালামপুর ,ধামরাই ঢাকা। মোবাইল নং-০১৭৫৯২৬৩১৩২","23.9259647","90.1522278","Dhaka","Dhamrai","Map"
"0298","Singair Manikganj","001847099298","তালহা ভিলা। ,পিতা- মোঃ আব্দুল মান্নান দেওয়ান, আঙ্গারিয়া, সিংগাইর, মানিকগঞ্জ।","23.8152951","90.1426488","Manikganj","Singair","Map"
"0299","Patkelghata Satkhira","001847099299","মো: শহিদুল ইসলাম, পিতা আতিয়ার রহমান, পোঃ ও থানা- পাটকেলঘাটা, জেলা-সাতক্ষীরা (সাতক্ষীরা পাটকেলঘাটা বাজার, হারুন অর রশিদ কলেজের সামনে)","22.768","89.1558","Shatkhira","Kalaroa","Map"
"0300","Rupdia Jessore","001847099300","মো: মাসুদুর রহমান, রুপদিয়া বাজার যশোর (মেইন রোড়), তরমুজ হাট , যশোর.","23.1274865","89.2867299","Jessore","Jessore Sadar","Map"
"0301","Pagar-Tongi   Gazipur","001847099301","বেগম মেহেরুন নেছা  ,স্বামীঃ হাজী মোঃ-লাবিব উদ্দীন ভূইঁয়া, পেশা-গৃহিনী, গ্রামঃ-গোপালপুর  পোঃ-মুন্ন নগর, ওয়াড নং-৪৪ গাজীপুর সিটি  কর্পোরেশন, থানা পুর্ব  টুংগী  জেলা -গাজ়ীপুর  । মোবাইল নং ০১৭২৭-৩৬৫৬৫২ ।","23.89563669","90.4157376","Gazipur","East Tongi","Map"
"0302","Gaurnadi Barisal","001847099302","মোঃ জাহাঙ্গির শরিফ (অবসর প্রাপ্ত পুলিশ কর্মকর্তা) ,পিতার নাম-মো:লুতফর রহমান শরিফ,ঠিকানাঃ গ্রামঃ-শাওড়া,থানাঃ-গৌরনদী,জেলাঃ-বরিশাল।","22.9717","90.2247664","Barishal","Banaripara","Map"
"0303","Ziranibazar Dhaka","001847099303","মোঃ শাহজাহান , পিতা: মোঃ সিরাজ আলী, হারুন গেট, জিরানীবাজার, আশুলিয়া, সাভার, ঢাকা ।","23.9916586","90.242766","Dhaka","Savar","Map"
"0304","Faridgonj Chandpur","001847099304","জনাব নেছার আহম্মদ, বাড়ীর আর এস দাগ নং-১১৬/১১৭, নেছার আহম্মদ বিল্ডিং,  আল মদিনা হাসপাতালের পাশে, গ্রাম- দক্ষিন কাছিয়ারা, থানা ফরিদগঞ্জ, জেলা- চাঁদপুর","23.1282225","90.7514474","Chandpur","Faridganj","Map"
"0305","Hoanak Coxs bazar","001847099305","জাকের উল্লাহ সিকদার, পিতাঃ মৃত আবুল খায়ের সিকদার, গ্রাম-পুইছড়া, বউ বাজার, হোয়ানক টাইম বাজার, থানা-মহেশখালী, কক্সবাজার","21.6219183","91.9237713","Coxsbazar","Maheshkhali","Map"
"0306","Badarkhali Coxs bazar","001847099306","মোঃ আবু কায়ছার পেশাঃব্যবসা, বদরখালী কলেজ পাড়া ৮নং ওয়ার্ড।, বদরখালী, কক্সবাজার,","21.7185054","91.9556265","Coxsbazar","Chakaria","Map"
"0307","Shonirakhra Dhaka","001847099307","আমেনা খাতুন, পিতাঃমৃত- মোশারফ আলী , বাড়ী নং-০৪(২য় তলা), ১৩২১/২২, জিয়াসরণী, নুরপুর, কদমতলী, ঢাকা - 01847099307","23.698568","90.450315","Dhaka","Demra","Map"
"0308","Shyampur Dhaka","001847099308","জনাব মোঃ জাহাঙ্গীর আলম চৌধুরী (অ্যাডভোকেট) ঠিকানা বাড়ি নং: ৩৪২/৬(দ্বিতীয় তলা) জুরাইন খন্দকার রোড,পূবালী ব্যাংক এর পিছনে ,ফরিদাবাদ, শ্যামপুর- ঢাকা","23.6956411","90.4335505","Dhaka","Jatrabari","Map"
"0309","Kalshi-Mirpur Dhaka","001847099309","বাড়ির মালিক- মোঃ মুরাড আলম, বাড়ী নং-০৬,রোড-০১, ব্লক- ই,সেকশন-১২,  পল্লবি মিরপুর, ঢাকা (সাংবাদিক কলোনির পাশের ডাচ বাংলা এটিএম বুথের অপজিট পাশে পল্লবী মহিলা ডিগ্রি কলেজ রোডের ডানপাশের প্রথম গলির ৩য় বিল্ডিং এর নিচ তলা)","23.821983","90.373253","Dhaka","Pallabi","Map"
"0311","Razendrapur Gazipur","001847099311","মোঃশফিকুল ইসলাম(শফিক), পিতা-শামছুদ্দিন, বাড়ীর দাগ নং, জরিপ নং-৩১এবং১০-আর, এস-৭১, এবং ৮৫, খাশ পাড়া রোড, রাজেন্দ্রপুর, গাজীপুর ।","24.10072289","90.45588479","Gazipur","Sreepur","Map"
"0312","Bhawal-Mirzapur Gazipur","001847099312","মোঃ নওজেশ আলী, পিতাঃ মৃত তোরাপ আলী, ভাওয়াল-মির্জাপুর বাজার রোড, মদিনাতুল উলুম মসজিদ এর পূর্ব পাশে, ভাওয়াল-মির্জাপুর, গাজীপুর।","24.0868929","90.3474998","Gazipur","Gazipur Sadar-Joydebpur","Map"
"0313","Gazipur-Chowrasta Gazipur","001847099313","আলহাজ্ব আব্দুস সাত্তার মিয়া, পিতা- মৃত- নাসির উদ্দিন, ঠিকানা-আউটপাড়া, বাসা নং-০১, ওয়ার্ড নং-১৬, চান্দনা চৌরাস্তা ,গাজীপুর","23.9923045","90.3816332","Gazipur","Gazipur Sadar","Map"
"0314","Konabari Gazipur","001847099314","মোঃ ইন্তাজ আলী, পিতা- মৃত- ফয়েজ উদ্দিন,  কাশিমপুর রোড আইডিয়াল কলেজ সংলগ্ন কোনাবাড়ী গাজীপুর","24.0095584","90.3202707","Gazipur","Konabari","Map"
"0315","Mirerbazar Gazipur","001847099315","মোসাঃ মাকসুদা আক্তার, স্বামীঃ মোঃ লোকমান হোসেন,হোল্ডিং নং # ০১, ব্লক # এ, ওয়ার্ড নং # ০৬, রোড নং # ০৩, মিরেরবাজার, মধ্য তালুটিয়া,গাজীপুর। মোবাইল নাম্বারঃ ০১৭২০৬০৫৬৬৮ ।","23.928263","90.451849","Gazipur","Gazipur Sadar-Joydebpur","Map"
"0316","Toke Gazipur","001847099316","মোঃ আব্দুল মজিদ , টোক নয়ন বাজার, কাপাসিয়া, গাজীপুর","24.2502840","90.638206","Gazipur","Kapasia","Map"
"0317","Shibpur Narsingdi","001847099317","মো-কামরুন্নাহার আহমেদ , স্বামীর নাম : মোঃ রফিকুল ইসলাম । হোল্ডিং নং ১৭১/১, শিবপুর কলেজ গেইট, শহিদেরগাঁও, শিবপুর, নরসিংদী।","24.0390109","90.7336882","Narsingdi","Shibpur","Map"
"0318","Chalakchor-Monohardi  Narsingdi","001847099318","জনাব মো.মোস্তফাকামাল, পেশা: ব্যাবসা ,পিতা: আব্দুলহামিদ,পীরপুর, নতুন বাজার , চালাকচরগ্রাম; পীরপুর-পশ্চিমডোমনমারা, ডাকঘর:খিদিরপুর, মনোহরদী, নরসিংদী.","24.1941193","90.7318064","Narsingdi","Monohardi","Map"
"0319","Belabo Narsingdi","001847099319","মোঃ আব্দুল হালিম (বাবুল) পিতা- মৃত সুরুজ খলিফা,গানকুলপাড়া,বেলাব বাজারের পাশে,ডাকঘর-বেলাব উপজেলা-বেলাব,জেলা- নরসিংদী । মোবাইল নাম্বারঃ ০১৩১৮৫৫৫০১৪","24.1001637","90.8524736","Narsingdi","Belabo","Map"
"0320","Raipura Narsingdi","001847099320","মোঃ নাসির, পিতা-মৃত ইব্রাহিম খন্দকার, তুলাতুলি বাজার সংলগ্ন, রায়পুরা, নরসিংদী","23.9994326","90.8641528","Narsingdi","Raipura","Map"
"0321","Palash Narsingdi","001847099321","মাহবুদুল আলম কমিশনারের বাসা , বিআরটিসি মোর সোনালী ব্যাংকের পিচনে, ৪তলা বিল্ডিং এর নিচ তলা, ভাগ্যের পাড়া, বাসস্ট্যান্ড সংলগ্ন, পলাশ, নরসিংদী","23.9800826","90.6454609","Narsingdi","Palash","Map"
"0322","Ghoradia Narsingdi","001847099322","ওসমান মিয়া, হাসনাবাদ পশ্চিম পাড়া, বাজার হাসনাবাদ, রায়পুরা, নরসিংদী","23.9371709","90.7764566","Narsingdi","Narsingdi Sadar","Map"
"0323","Sadar Tangail","001847099323","মোহাম্মদ আব্দুল্লাহ আল মামুন । পিতা – মোঃ হাফিজ উদ্দিন পারদিঘুলিয়া ,বড় মসজিদের পশ্চিম পাশে,পারদিঘুলিয়া রোড সদর,টাঙ্গাইল।  মোবাইল নাম্বারঃ ০১৭১১৬২৭৭৪৮।","24.2485154","89.9068636","Tangail","Tangail Sadar","Map"
"0324","Gopalpur Tangail","001847099324","মোঃ লুৎফর রহমান  পিতা – মোঃ আজহারুল ইসলাম, নন্দনপুর, কাচারিবাড়ী আবাসিক এলাকা, থানা+পোষ্টঃ গোপালপুর, জেলাঃ টাংগাইল ।","24.552710","89.929057","Tangail","Gopalpur","Map"
"0325","Ghatail Tangail","001847099325","মো: ফরিদ রহমান , পেশা: চাকুরি, উত্তর পাড়া , বকুলতলা মোড় , ঘাটাইল, টাংগাইল","24.48386","89.97019","Tangail","Ghatail","Map"
"0326","Kalihati Tangail","001847099326","মোঃ রফিকুল ইসলাম ,পিতাঃ মৃত-নয়ন উদ্দীন ,হোল্ডিং নং - ২৬৫, ওয়ার্ড নম্বর-০৪, দক্ষিন বেতডোবা, কালিহাতী, টাঙ্গাইল","24.3910987","89.9991278","Tangail","Kalihati","Map"
"0327","Mirzapur Tangail","001847099327","মো: বালু খান, পেশা: কৃষক, দক্ষিন নাজির পাড়া, গুড়াই, মির্জাপুর, টাঙ্গাইল","24.092362","90.162217","Tangail","Mirzapur","Map"
"0328","Santikunjo Tangail","001847099328","মোঃ মাইনুল আলম (সাগর),পিতাঃ শামসুল আলম, বেপারীপাড়া, এতিমখানা রোড,শান্তিকুঞ্জ মোড়, টাঙ্গাইল সদর, টাঙ্গাইল।","24.2429751","89.9133297","Tangail","Tangail Sadar","Map"
"0329","Sayestanagar Habiganj","001847099329","মোঃ ইসাক আলী সেবন মিয়া,পিতাঃ মৃত চনু মিয়া  , বাড়ি নংঃ ৬৭৮২/২, বাড়ির নামঃ সেবন নিবাস গ্রামঃ পুরাসন্দা ,পোঃ সুরাবই,থানাঃ হবিগঞ্জ সদর,জেলাঃ হবিগঞ্জ","24.369698","91.421596","Habiganj","Habiganj Sadar","Map"
"0330","Sadar Habiganj","001847099330","ফেরদৌসী আক্তার, পিতাঃ মোনজব আলী গ্রামঃ আনোয়ারপুর (শাপলাবাগ),পৌরসভাঃ হবিগঞ্জ,থানাঃ হবিগঞ্জ সদর ,জেলাঃ হবিগঞ্জ।","24.3833471","91.408513","Habiganj","Habiganj Sadar","Map"
"0331","Shaistaganj Habiganj","001847099331","আব্বাস উদ্দিন তালুকদার,সাবাসপুর, শায়েস্থাগঞ্জ,হবিগঞ্জ।","24.2750384","91.4652532","Habiganj","Shaistagonj","Map"
"0332","Nabiganj Habiganj","001847099332","তাহির মিয়া, পিতা:মৃত  নসিব উল্লাহ  , বেগম এন্ড রহমান ভবন, শেরপুর রোড, থানা-নবীগঞ্জ, জেলা- হবিগঞ্জ","24.5669583","91.522923","Habiganj","Nabiganj","Map"
"0333","Madhabpur Habiganj","001847099333","মো:মনসুরুল হক  , পিতার নামঃ মৃত আজাহারুল হক  , পেশাঃ চাকুরী, হোল্ডিং-১৫৪৭ ওয়াডঃ ৭ ইউনিয়নঃ মাধবপুর পৌরসভা,  থানা/ উপজেলাঃ মাধবপুর, জেলাঃ, হবিগঞ্জ , বিভাগঃ সিলেট","24.0970875","91.2950469","Habiganj","Madhabpur","Map"
"0334","Baniachong Habigang","001847099334","মোঃ উবেদুর রহমান কামাল পিতা মৃতঃ জহুর আলী গ্রাম- নন্দী পাড়া, বানিয়াচং হবিগঞ্জ","24.5223389","91.3615282","Habiganj","Baniachong","Map"
"0335","Nazumiahat  Chattogram","001847277234","সেলিনা আখতার, এসএম টাউয়ার, বুড়িশ্চর, নজুমিয়াহাট, হাটহাজারী, চট্টগ্রাম","22.41918","91.86953","Chattogram","Hathazari","Map"
"0336","Kuliarchar Kishoreganj","001847099336","বিউটি বেগম, পিতাঃ-নূরুজ্জামান মিয়া, কটকপাড়া (আশ্রবপুর)কুলিয়ারচর, কিশোরগঞ্জ","24.1442256","90.9264836","Kishoreganj Bhirab","Kuliarchar","Map"
"0337","Bonpara Natore","001847277274","মো মুনসুর রহমান, গ্রামঃ ফজলীতলা,কালিকাপুর,  ডাকঘরঃ হারোয়া , উপজেলাঃ বড়াইগ্রাম জেলাঃ নাটোর","24.3012852","89.0802049","Natore","Baraigram","Map"
"0338","Bajitpur Kishoreganj","001847099338","সিনেমা হল় কাজী নজ্রুল ইসলাম রোড ,সুমন মিয়ার বাড়ী,মোঃ সুমন আহমেদ,  পিতার নাম: বদিউল আলম, কিশোরগঞ্জ, বাজিতপুর ।","24.2107783","90.9520551","Kishoreganj","Bajitpur","Map"
"0339","Trishal Mymensingh","01847277269","বাড়ির মালিকঃ মোঃ সাকিব আল কাউসার, পিতা: আলহাজ্জ আব্দুর রসিদ মন্ডল, হাজী ভিলা, মাঝিপাড়া রোড, ত্রিশাল ময়মনসিংহ-(মডেল মসজিদের পূর্ব দিকে)","24.5788392","90.3962873","Mymensingh","Trishal","Map"
"0340","Pakundia Khisoregonj","001847099340","মোঃ মোহাম্মদ আলী বাবুল টাওয়ার , পাকুন্দিয়া ড়িগ্রী কলেজ রোড (বড়বাড়ী রোড), পাকুন্দিয়াা, কিশোরগঞ্জ ।","24.3287563","90.6842554","Khisoregonj","Pakundia","Map"
"0341","Mouchak Gazipur","001847099341","হোল্ডিং নং # ৪৮৮৫, ওয়ার্ড নং # ০৬, মোঃ আলতাফ হোসেন এর বাসা, পূর্ব মৌচাক, কালিয়াকৈর, গাজীপুর।","24.0280243","90.2980783","Gazipur","Kaliakair","Map"
"0342","Kaoraid  Gazipur","001847099342","রিমা খাতুন  পিতা- মোঃ আবুল হাসেম খান, স্বামী মোঃ আকরাম হোসেন খান ,বাড়ীর দাগ সাবেক ১৭২ নং আর এস-১১৭৬ নং, কাওরাইদ বাজার, জয়না রোড, কাওরাইদ শ্রীপুর, গাজীপুর । মোবাইল নাম্বারঃ ০১৬২১৫১৫৫৭৫","24.31047629","90.50870929","Gazipur","Kapasia","Map"
"0345","Gafargaon Mymensingh","001847099345","মোঃ আনিছুর রহমান বাদল, হোল্ডিং- ৩২৬,শিলাসী কলেজ রোড, উপজেলা গেট সংলগ্ন, গফরগাও, ময়মনসিংহ","24.4453687","90.5619375","Mymensingh","Gaffargaon","Map"
"0346","Poradah Kushtia","001847277259","মোঃ রবিউল হাজী,  অঙ্গশোভা গলি, দক্ষিন কাটদাহ পোড়াদহ ,মিরপুর, কুস্টিয়া","23.862362","89.031003","Kushtia","Daulatpur","Map"
"0348","Alfadanga Faridpur","001847277261","মো:আমজাদ হোসেন ,পিতা: মৃত: সামাদ ,গ্রাম:মিঠাপুর,পোষ্ট:আলফাডাঙা থানা;আলফাডাঙা,জেলা:ফরিদপুর","23.292018","89.7062289","Faridpur","Alfadanga","Map"
"0350","Goalundo Rajbari","001847277263","রহিমা খানম,স্বামীঃ মৃত আব্দুস সাওার মোল্লা , গোয়লন্দ পৌরসভা, জামতলা মাষ্টার পাড়া, পোষ্টঃ গোয়ালন্দ, থানাঃ গোয়ালন্দ, জেলাঃ রাজবাড়ী","23.727673","89.749721","Rajbari","Rajbari Sadar","Map"
"0351","Bagharpara Jessore","001847277258","মো: আকবর আলী , পিতা-মো: আমজাদ হোসেন, গ্রাম-মহিরন হাসপাতাল পাড়া, পোষ্ট-বাঘারপাড়া-৭৪৭০, থানা-বাঘারপাড়া, জেলা-যশোর ।","23.21896","89.34525","Jessore","Jessore Sadar","Map"
"0353","Batiaghata Khulna","001847277265","মোঃ জাহাঙ্গীর হোসেন (পুলিশের চাকুরী) গ্রামঃহাটবাটি, পোঃবটিয়াঘাট, থানাঃবটিয়াঘাটা, জেলাঃখুলনা","22.740103","89.514326","Khulna","Batiaghata","Map"
"0357","Bancharampur Cumilla","001847277270","মোঃ আবুল হাশেম বকুল,  জগন্নাতপুর সরকারী প্রাথমিক বিদ্যালয়ের পাশে, জগন্নাতপুর, বাঞ্ছারামপুর, ব্রাহ্মণবাড়িয়া।","23.7765804","90.79626","Brahmanbaria","Bancharampur","Map"
"0358","Hossainpur  Kishoreganj","000184727727","সালমা আক্তার (লিজা) , হোসেনপুর হাসপাতাল মোড় থেকে ২০ গজ উত্তরে, গার্লস স্কুল রোড , হোসেনপুর, কিশোরগঞ্জ","24.4172019","90.6552684","Khisoregonj","Hossainpur","Map"
"0359","Katiadi Kishoreganj","001847277273","আবু জাফর ওবায়দুল্লাহ, পিতা মৃত আবু বক্কর সিদ্দিক ,গ্রাম : ভোগপাড়া,কটিয়াদী, কিশোরগঞ্জ। উপজেলা মডেল মসজিদ রোড,মডেল মসজিদ এর পাশের বিন্ডিং।","24.2537099","90.7934297","Kishoreganj","Katiadi","Map"
"0360","Bhulta-Gausia Narayanganj","001847277254","নামঃ মোঃ রমিজ উদ্দিন ভূইয়ার বাড়ি, নাহাটি, ভূলতা গাউছিয়া, রূপগঞ্জ, নারায়নগঞ্জ","23.78597","90.55821","Narayanganj","Shiddhirganj","Map"
"0370","Ashuganj Brahmanbaria","001847099370","মোঃ জুনায়েদ মিয়া মা-বাবা ভবন, রাস্তার নাম:-আলকাছ মিয়ার পাথরঘাট, ইউনাইটেড পাওয়ার ষ্টেশন গেইট সংলগ্ন, চরচারতলা ইউনিয়ন, ওয়ার্ড নং-০২, পোষ্টঃআশুগঞ্জ, থানা+উপজেলা:-আশুগঞ্জ, জেলা:-ব্রাক্ষনবাড়িয়া","24.0420575","91.0032969","Brahmanbaria","Ashuganj","Map"
"0371","Board Bazar, Gazipur","001847099371","মোঃ নাছির উদ্দীন পেশাঃ ব্যবসায়ী, মৃধাবাড়ী, ,বটতলা রোড, ,বাসা নং-১৫৪৪, ওয়াড-৩৫,   ‍মৃধাবাড়ি এতিমখানা মাদ্রাসার বীপরিত পাশে,    বোর্ড বাজার, গাজীপুর","23.9479197","90.3881435","Gazipur","Gacha Police Station","Map"
"0372","Bhuapur Tangail","001847099372","আছিয়া খাতুন, স্বামী-আব্দুল জাব্বার, বাড়ী নং-১৯১,ওয়ার্ড নং-০৮, ফসল কান্দি,ভূয়াপুর, টাঙ্গাইল","24.4603393","89.8707726","Tangail","Bhuapur","Map"
"0375","Abdullapur Dhaka","001847095095","মো: নুরল ইসলাম, পিতা-মৃত সাহেব আলী, মাতা-গোলাপি বেগম, বাসা/হোল্ডিং-৪৯/২ব্লক ,এ, গ্রাম-কলাকান্দি, আব্দুল্লাহপুর, ডাক-আব্দুল্লাহপুর-১৩১১, কেরানীগঞ্জ, ঢাকা।","23.6596021","90.363253","Dhaka","Keraniganj","Map"
"0376","Hajaribagh Dhaka","001847095096","মোঃ আশরাফ গাবতলা মসজিদ সংলগ্ন ,১২০/২ মনেস্বর রোড, ২য় তলা , জিগাতলা , হাজারীবাগ, ঢাকা","23.7395062","90.3696707","Dhaka","Hajaribag","Map"
"0378","Shikaripara Dhaka","001847095098","নিরঞ্জন বসাক,  হোল্ডিং নং -২৩, গ্রামঃ শংকর দিয়া, ডাকঘরঃ জয়কৃষ্ণপুর-১৩২২, থানাঃ নবাবগঞ্জ, জেলাঃ ঢাকা ।","23.6977609","90.0694871","Dhaka","Nawabganj","Map"
"0380","Majidpur Cumilla","001844215309","মোসলেম মিয়া ,  পিতার নাম :আলহাজ্ব জয়নাল সরকার, শিবপর, মজিদপুর, তিতাস, কুমিল্লা","23.569124","90.783899","Cumilla","Titas","Map"
"0381","Gurudaspur Natore","001847095001","মোঃ সাইমুদ্দিন, গ্রামঃ গুরুদাসপুর, ডাকঃ হাট গুরুদাসপুর, উপজেলাঃ গুরুদাসপুর জেলাঃ নাটোর।","24.3673124","89.2336659","Natore","Gurudaspur","Map"
"0382","Swarupkathi Pirojpur","001847095002","নামঃমোঃবাদল মিয়া, তেতুল তলা, নেছারাবাদ (স্বরুপকাঠী) পিরোজপুর","22.7464847","90.1006017","Pirojpur","Nesarabad","Map"
"0385","Chambal Chattogram","001847095005","মোঃ মুজিবুল হোসেন ,পিতাঃ মরহুম (বীর মুক্তিযোদ্বা)দেলোয়ার হোসেন,মাতাঃ মোছাম্মদ রোকেয়া বেগম। সাং পূ্ব চাম্বল ৭নং ওয়ার্ড ১০ নং চাম্বল ইউনিয়ন পরিষদ বাঁশখালী,(মোবাইল নং-০১৭৪৭২৪৪৭৬৭)","21.959534","91.956341","Chattogram","Banshkhali","Map"
"0387","Nischintapur-Pakundia Khisoregonj","001847095007","মো: হাবিবুর রহমান, পিতা মৃতঃ মফিজ উদ্দীন,গ্রাম নিশ্চন্তপুর,পাকুন্দিয়া মোবাইল নং ০১৭১৮৫৮৪৬৫৯","24.3204604","90.68177478","Khisoregonj","Pakundia","Map"
"0388","Fatikchhari  Chattogram","001847095008","মোঃ জাফর চৌধুরী , জাফর চৌধুরী কমপ্লেক্স , ঈদগাহ রোড, (ঈদগাহ সংলগ্ন) ফটিকছড়ি, চট্রগ্রাম","22.684507","91.7916975","Chattogram","Fatikchhari","Map"
"0392","Padua Chattogram","001847095012","মো- নুরুল আলম  পিতা  :মরহুম হাজী আহম্মদ মিয়া , পদুয়া, লোহাগাড়া , চট্রগ্রাম","22.050191","92.110752","Chattogram","Lohagara","Map"
"0393","Bhujpur Chattogram","001847095013","মোঃ মনজুরুল হক, গ্রাম: পশ্চিম ভুজপুর ডাক: কাজিরহাট, থানা: ভুজপুর উপজেলা: ফটিকছড়ি, জেলা: চট্টগ্রাম ।","22.75414","91.73561","Chattogram","Bhujpur","Map"
"0394","Dohazari Chattogram","001847095014","মোঃজাহাঙ্গীর আলম, পিতা :-হাজী জামাল আহমেদ মাতাঃ-মোছলেম খাতুন, গ্রাম-পূর্ব দোহাজারী (দোহাজারী জামিরজুরী বালিকা উচ্চ বিদ্যালয় সংলগ্ন ) দোহাজারী চন্দনাইশ চট্রগ্রাম","22.1679595","92.0685129","Chattogram","Chandanaish","Map"
"0395","Najirpur Natore","001847095015","মোছাঃ আনজুয়ারা খাতুন, ,গুরুদাসপুর রোড, গ্রাম+পোষ্টঃ নাজিরপুর হাট, গুরুদাসপুর , নাটোর ,","24.3948808","89.1741374","Natore","Gurudaspur","Map"
"0396","Kasikata Natore","001847095016","মোঃ শাজাহান আলী(০১৭৪৫-৪৪০৩৯৭), দড়ি বামনগড়া, কাছিকাটা বাজার, গুরুদাশপুর, নাটোর।","24.342912","89.306158","Natore","Gurudaspur","Map"
"0397","Jonailbazar Natore","001847095017","মোছাঃ হাসিনা পারভীন, জোনাইল ডিগ্রি কলেজ পাড়া,বড়াইগ্রাম, নাটোর","24.2705779","89.22211779","Natore","Baraigram","Map"
"0398","Laxmikol Natore","001847095018","আলহাজ্ব মোঃআহমাদুল্লাহ,  গ্রাম+পোষ্টঃলক্ষীকোল, থানাঃ বড়াইগ্রাম, জেলাঃ নাটোর ।","24.3131828","89.1680753","Natore","Baraigram","Map"
"0399","Khajurabazar Jessore","001847095019","আব্দুল লতিফ, পিতার:মো:অহেদ আলী মন্ডল ,ঠিকানা:গ্রাম:তেলী ধান্যপুড়া, পোস্ট:গৌরনগর, থানা:বাঘারপাড়া, জেলা:যশোর ।","23.28191","89.25599","Jessore","Jessore Sadar","Map"
"0401","Barobazar Jhenaidah","001847095021","শেখ মসিউর রহমান পিতা:মৃত শেখ আব্দুল মতিন। মিঠাপুকুর আউলিয়া মসজিদের পুর্ব পাশে, মাইক্রোশ্টান্ড সংলগ্ন, বারবাজার, কালিগজ্ঞ, ঝিনাইদহ","23.302543","89.1538445","Jhenaidah","Maheshpur","Map"
"0402","Puthia Rajshahi","001847095022","মোঃ নাজমুল হক  পিতা হাজী মো: জহুরুল হক,কাঠাল বাড়ীয়া ,তাহেরপুর রোড, পুঠিয়া ,রাজশাহী","24.3747871","88.8431353","Rajshahi","Puthia","Map"
"0404","Sadar Joypurhat","001847095024","মোঃ আব্দুল হালিম  পিতার নাম : মোঃ আব্দুর রহিম মাতার নাম: আলেয়া বেগম,  বাবুপাড়া, ডায়াবেটিক-হাসপাতাল সংলগ্ন, জয়পুরহাট","25.096255","89.045052","Joypurhat","Joypurhat Sadar","Map"
"0405","Birgonj Dinajpur","001847095025","মো: নুরুন নবী সরকার (হিরু),  পেশা:কৄষি, হোল্ডিং নং-২১৩৭/১১৮৭  সেন্টার মোড়, সেন্টার পাড়া ,বীরগঞ্জ , দিনাজপুর । বীরগঞ্জ সেন্টার মোড় থেকে  0.২৫ কিলোমিটার উত্তর দিকে  সেন্টার পাড়া ।","25.865050","88.653250","Dinajpur","Birganj","Map"
"0407","Boroma-Barkal Chattogram","001847095027","মো-জাহাঙ্গীর সাত্তার, পিতা-মরহুম-আব্দুস সাত্তার, মাতা-মরহুমা দিলারা বেগম, পশিম বাইনজুরী, ইসলামাবাদ, চন্দনাইশ, চট্রগ্রাম","22.1909559","91.9660856","Chattogram","Chandanaish","Map"
"0408","Bajalia Chattogram","001847095028","মোঃ ফোরকান ছিদ্দিকী,পিতাঃ মরহুম মাওলানা আব্দুস সবুর ছিদ্দিকী গ্রামঃ বাজালিয়া,পোস্ট-বাজালিয়া,থানাঃ সাতকানিয়া,জেলাঃ চট্টগ্রাম। মোবাইল নং-০১৮১৭৭১৭৩৭৯","22.1301073","92.1272737","Chattogram","Satkania","Map"
"0409","Purapara Jhenaidah","001847095029","মোঃ তরিকুল ইসলাম,পিতা: মোঃ দুদু মিয়া ,তরিকুল ভিলা, হোল্ডিং নং-৬০, সোনালী ব্যাংক লিঃ রোড, পুড়াপাড়া বাজার, উপজেলাঃ চৌগাছা, জেলাঃ যশোর।","23.2782","88.949438","Jhenaidah","Mohespur","Map"
"0410","Mongolbari Naogaon","001847095030","মোঃ আব্দুল মালেক, পিতা-মৃতঃ আবুল কাশেম, মংগলবাড়ী বাজার, মৌজা-মুকুন্দুপুর- নং-৮৬, ধামুইরহাট, নওগাঁ","25.1157629","88.9371603","Naogaon","Dhamoirhat","Map"
"0411","Shibgonj Bogura","001847095031","মোঃ সাইফুল ইসলাম, পিতা মৃত ছাদেক আলী মন্ডল,বানাইল- পৌরসভা,শিবগন্জ,বগুড়া","25.003103","89.320973","Bogura","Shibganj","Map"
"0412","Tilokpur Joypurhat","001847095032","মোঃ আব্দুস সালাম পিতা-মৃত আবুল কাশেম মোবাইলঃ ০১৭৩৮৫৪৪৪৯৬,ওয়ার্ড:   ০৪ ইউনিয়ন  তিলকপুর, থানা/উপজেলা:  নওগাঁ জেলাঃ নওগাঁ বিভাগঃরাজশাহী.","24.8726653","89.0003184","Joypurhat","Akkelpur","Map"
"0413","Badalgachi Naogaon","001847095033","জনাব মোঃ আসলাম তালুকদার, পিতা-মৃত মজিবর রহমান, পি্ন্ডিরা বদলগাছী, নওগাঁ (বদলগাছী চারমাথা সংলগ্ন পুরাতন শাহীন সিনামা হলের পাশে)","24.963306769296807","88.9028083611999","Naogaon","Badalgachhi","Map"
"0414","Kabirajhat Dinajpur","01847095041","মোছাঃ ফেরোজা খাতুন, বিজয়পুর, কবিরাজহাট, বীরগঞ্জ, দিনাজপুর।","25.90240536109004","88.60129756449321","Dinajpur","Birganj","Map"
"0415","Holidhani Jhenaidah","001847095035","মোঃ আকরাম আলী , পিতাঃ মৃত আবুল হোসেন, আকরাম  ভিলা, হোল্ডিং নং-২১০,হলিধানী বাজার  গ্রাম/রাস্তাঃ হলিধানী, রামচন্দ্রপুর রোড, পোস্টঃ  হলিধানী-৭৩০০, থানা, ঝিনাইদহ সদর ,জেলাঃ ঝিনাইদহ ।","23.5583717","89.082189","Jhenaidah","Jhenaidah Sadar","Map"
"0416","Jamurhat Bogura","01313366569","আলহাজ্ব মোঃ মাহবুর রহমান,পিতাঃ আলহাজ্ব ছায়ের উদ্দিন, গ্রামঃ কামতাড়া, পোষ্টঃ বুড়িগঞ্জ, থানাঃ শিবগঞ্জ, জেলাঃ বগুড়া","24.969891","89.241936","Bogura","Shibganj","Map"
"0417","Baludanga Naogaon","001847095037","মো: আতোয়ার রহমান কাজী, মোঃ আজাদুর রহমান কাজী, হাপানিয়া বাজার, পো-চোক আতিথা, থানা- নওগাঁ সদর, জেলা-নওগাঁ ।","24.853913141404313","88.88646924046422","Naogaon","Naogaon Sadar","Map"
"0418","Farakkabad Dinajpur","001847095038","জনাব মোঃ মোকাদ্দেছ আলী, পিতা-মৃত আয়েন উদ্দিন, ফরক্কাবাদ তৈয়বপুর আলী ফিলিং ষ্টেশনের উত্তর পাশে তমা কিল্ডার গাডেন সংলগ্ন, ফারাক্কাবাদ, দিনাজপুর","25.659756244034785","88.59492873385022","Dinajpur","Dinajpur Sadar","Map"
"0419","Paglapir Rangpur","001847095039","জনাব মোঃ হোসেন আলী, পিতাঃজব্বার আলী,গ্রাম- গোকুলপুর হাজীপাড়া ,পাগলাপীর, রংপুর ।","25.8090528","89.1474641","Rangpur","Paglapir","Map"
"0420","Subarnachar Noakhali","001847095040","জনাব মোঃ নিজাম উদ্দীন, পিতা: হাজী আব্দুল মালেক, মালেক টাওয়ার গ্রামঃ-চরবাটা,পোঃ-চরবাটা,উপজেলাঃ-সূবর্ণচর,জেলাঃ-নোয়াখালী","22.635752","91.126075","Noakhali","Chorjobbor","Map"
"0422","Ambari Dinajpur","001847095042","জনাব এম এম হামিদুল ইসলাম,পিতা-আলহাজ্ব আব্দুল মান্নান,গ্রাম-দৌলতপুর, পোঃ দৌলতপুর, থানা-চিরিরবন্দর, জেলা-দিনাজপুর","25.54084388748174","88.83647487430335","Dinajpur","Chirirbandar","Map"
"0423","Taragonj Rangpur","001847095043","মোঃ ওয়াহেদ আলী ,পিতাঃ মৃত আজিম উদ্দিন, গ্রামঃ পূর্ব কুরশা ডাঙ্গা পাড়া , পোষ্টঃ তারা গঞ্জ, থানাঃ তারাগঞ্জ, জেলাঃ  রংপুর","25.813416","89.007317","Rangpur","Taraganj","Map"
"0425","Narayanpur Narsingdi","001847099425","ফিরোজ কান্দি রোড ,কেয়ার হাসপাতাল থেকে ৭০গজ সামনে বজুলুর রহমানের বাসা।,থানা -বেলাব,জেলা-নরসিংদী","24.052081","90.917714","Narsingdi","Belabo","Map"
"0426","Baroicha Narsingdi","001847095046","জনাবা,ইয়াসমিন আক্তার, গ্রাম-বারৈচা,পো-দেওয়ানের চর,থানা -বেলাব,জেলা-নরসিংদী","24.0488905","90.8689315","Narsingdi","Belabo","Map"
"0427","Morjal Narsingdi","001847095047","মো:আশরাফুল আলম , পিতা:  মো:বশির উদ্দিন, বেলাবারোড, জিরাহী, কাটাঘাট বাজার, মরজাল, রায়পুরা নরসিংদী ।","24.0431989","90.834081","Narsingdi","Raipura","Map"
"0428","Itakhola Narsingdi","001847095048","মোঃ কামাল হোসেন, পিতার নাম : হেলাল উদ্দিন, নোয়াদিয়া-৫তলা বিল্ডিং, গাজীপুর রোড,ইটাখোলা- নরসিংদী।","23.9801319","90.7284906","Narsingdi","Shibpur","Map"
"0429","Rampur Narsingdi","001847095049","মো: ডাঃ সনতোষ কুমার দাস, - গ্রাম ও পোঃ-রামপুর,মনোহরদী,নরসিংদী","24.235958","90.719385","Narsingdi","Monohardi","Map"
"0430","Rajapur Jhalokati","001847277235","নামঃ মো: নাসিম আকন, পিতাঃ মোঃ কাদের আকন, বাসা / হোল্ডিং নং# ১৭৩, ওয়ার্ড নং# ০১, শিকদার বাড়ী সড়ক, বাঘড়ী বাজার, রাজাপুর, ঝালকাঠি।","22.5734180","90.1419710","Jhalokati","Rajapur","Map"
"0431","Batajor Barisal","001847277236","মোঃমোফাজ্জেল হোসেন খোকন,  দেওপারা, বাটাজোর, গৌরনদী, বরিশাল ।","22.905069","90.2477754","Barishal","Gaurnadi","Map"
"0432","Guthiabazar Barisal","001847277237","মোঃ আফজাল হোসেন্, গুঠিয়া বন্দর, গুঠিয়া , উজিরপুর, বরিশাল","22.780928","90.252977","Barishal","Uzirpur","Map"
"0433","Boithakata Pirojpur","001847277238","মোঃ মনিরুজ্জামান, গ্রাম: মুগারজোর পো: বৈঠাকাটা, থানা: নাজিরপুর জিলা: পিরোজপুর","22.8078108","90.0445131","Pirojpur","Nazirpur","Map"
"0435","Shenbag Noakhali","001847277240","মোঃ গোলাম ফারুক, ঊত্তর শাহপুর, কবির ষ্টোর এর দক্ষিন পাশে, মেইন রোড, সেনবাগ, নোয়াখালি","22.9676706","91.2240843","Noakhali","Shenbag","Map"
"0436","Sonaimuri Noakhali","001847277241","মোঃ খোরশেদ আলম , স্ত্রীর নাম-সালেয়া বেগম, গ্রাম নাঁওতলা, শাহীন ডাঃ বাড়ি। সোনাইমুডী বাজার, সোনাইমুডী, নোয়াখালী।","23.0390967","91.1076296","Noakhali","Sonaimuri","Map"
"0438","Digpait Jamalpur","001847277285","মোঃ ফয়েজুল ইসলাম, দিকপাইত জামালপুর রোড,জামালপুর,রহিমা মুজ্জাফর স্কুল গেটের সংলগ্ন","24.7690752","89.9266925","Jamalpur","Madarganj","Map"
"0440","Bagmara Cumilla","001847277287","নাম সুমন কুমার রায়, পিতা-মৃত-মলিন কুমার রায় চৌধুরী, লাকসাম রোড়, বাগমারা, কুমিল্লা","23.3334603","91.1445548","Cumilla","Lalmai","Map"
"0441","Nimsar Cumilla","001847277288","মোঃ খোরশেদ আলম,পিতা : মৃত, হাজী মোঃ মফিজুল ইসলাম । নিমসার হাজি বাড়ি ,নিমসার ,কংশনগর রোড(ফিসারী সংলগ্ন), বুড়িচং কুমিল্লা।","23.485059","91.060071","Cumilla","Burichang","Map"
"0442","Brahmanpara Cumilla","001847277289","মোহাম্মদ হোসেন, ব্রাহ্মণপাড়া ০৭ নং ওর্য়াড, ডাকঘরঃ ব্রাহ্মণপাড়া, উপজেলাঃ ব্রাহ্মণপাড়া, জেলাঃকুমিল্লা","23.6135887","91.1086793","Cumilla","Brahmanpara","Map"
"0443","Suagaji Cumilla","001847277290","ডাঃ মোঃ জামাল উদ্দিন , পিতার নাম-মৃত আবদুল বারি , গ্রাম কৃষ্ণপুর , থানাঃ কুমিল্লা সদর দক্ষিণ জেলাঃ কুমিল্লা ।","23.37564601","91.24246104","Cumilla","Cumilla Sadar","Map"
"0444","Eliotgonj Cumilla","001847277291","মোঃ আতিকুর রহমান(মহন), সব্দলপুর,ইলিয়টগঞ্জ, দউদকান্দি,কুমিল্লা","23.5112754","90.8703225","Cumilla","Daudkandi","Map"
"0445","Kotchandpur Jhenaidah","001894807445","মরিয়ম খাতুন, কোর্টচাদপুর ইক্ষু সেন্টার সংলগ্ন, উপজেলা-কোর্টচাদপুর, জেলা ঝিনাইদহ।","23.41627","89.00710","Jhenaidah","Kotchandpur","Map"
"0446","Nangalkot Cumilla","001894807446","মো: আবদুর রশিদ , গ্রাম- কনকইজ , ডাকঘর- অলিপুর বাজার , নাঙ্গলকোর্ট , কুমিল্লা ,বাড়ির মালিক আয়ারল্যান্ড প্রবাসী ।","23.167962","91.200800","Cumilla","Nangalkot","Map"
"0447","Murdafarganj Cumilla","001894807447","মোহামমদ আবুল কাসেম মুদাফফরগঞ্জ, দক্ষিন বাজার, লাকসাম, কুমিল্লা। ","23.2665356","91.0438976","Cumilla","Laksam","Map"
"0448","Homna Cumilla","001894807448","শিল্পি আক্তার, শিফাত সিয়াম ভিলা, হেলিপোর্ট রোড, হোমনা আদর্শ উচ্চ বিদ্যালয় রোড, হোমনা, কুমিল্লা","23.677146","90.781474","Cumilla","Homna","Map"
"0449","Barura Cumilla","001894807449","মোঃজসিম উদ্দীন পিতা-মৃত: আব্দুল মতিন, কলেজ রোড ,তলাগ্রাম হাইস্কুল এর বিপরীত পাশে, বরুড়া কুমিল্লা","23.37329","91.04406","Cumilla","Barura","Map"
"0450","Kuti Brahmanbaria","001894807450","মো: শফিকুল ইসলাম, কুটি উত্তর বাজার, চৌমুহনী, কসবা, ব্রাক্ষনবাড়ীয়া","23.7440506","91.0734237","Cumilla","Kasba","Map"
"0451","Kanchan Narayangonj","001894807451","মোঃ শামছুল আলম রিপন,  গ্রামঃ কাঞ্চন খা পাড়া, বাড়ী নং-৬১১, ড্রীম হাউজ ।ওয়াড নং-০৬, পোষ্টঃকাঞ্চন বাজার, থানাঃ রূপগঞ্জ, জেলাঃনারায়নগঞ্জ ।","23.830158","90.556494","Narayanganj","Rupganj","Map"
"0452","Sujatpur-Matlab Chandpur","001894807452","কাজি মোজাম্মেল হক ,সুজাতপুর বাজার, মতলব উত্তর, চাঁদপুর","23.410308","90.692653","Chandpur","Matlab Uttor","Map"
"0453","Basurhat Noakhali","001894807453","হাজী আবু নাসের মির, স্ত্রীর নাম-রোকেয়া বেগম, গ্রাম:করালীয়া , নাসের টাওয়ার । বসুরহাট , নোয়াখালী","22.872572130759774","91.27209150676696","Noakhali","Companiganj","Map"
"0454","Chandraganj Lakshmipur","001894807454"," মোসাম্মদ জাহানারা বেগম, পশ্চিম লতিফপুর, চাটখিল রোড,চন্দ্রগঞ্জ, লক্ষীপুর","22.950146","90.989459","Lakshmipur","Chandraganj","Map"
"0455","Bheramara Kushtia","001894807455","জাকির হোসেন বিশ্বাস, বাড়ি নংঃ ৫২, বামনপাড়া, ভেড়ামারা, কুষ্টিয়া","24.01724","88.98776","Kushtia","Bheramara","Map"
"0456","Elinga Tangail","001894807456","মোঃ সাইফুল ইসলাম/ব্যবসায়ী, এলেঙ্গা উত্তর পাড়া ,সামওয়ানগে্ট‌ ,মোল্লা রোড, এলেঙ্গা,  কালিহাতি থানা, টাঙ্গাইল।,","24.338366","89.920006","Tangail","Kalihati","Map"
"0457","Rohanpur Chapainababganj","001894807457","মোঃ ইউছুফ আলী, গ্রামঃ শেখ পাড়া, ডাকঘরঃ রহনপুর, পৌরসভাঃ রহনপুর, উপজেলাঃ গোমস্তাপুর, জেলাঃ চাঁপাইনবাবগঞ্জ","24.8224377","88.3306097","Chapainawabganj","Gomstapur","Map"
"0458","Patenga Chattogram","001894807458","জনাব,মোঃমোসলেহ উদ্দিন মামুন,নুরুল হক মঞ্জিল,পতেঙ্গা মডেল থানার বীপরিত পাশে,উত্তর পতেঙ্গা,চট্টগ্রাম।","22.26991","91.78748","Chattogram","East Joara","Map"
"0459","Karnafuli Chattogram","001894807459","জমিদার মোঃ মোরশেদ, সৈন্যারটেক (গুঁড়া মিঞা মসজিদের পাশে ),কর্ণফুলী, চট্টগ্রাম ।","22.3116791","91.8383964","Chattogram","Karnofuli","Map"
"0460","Carabag-Savar Dhaka","001894807460","লায়লা মাসুদ, স্বামী: মৃত্ জয়নাল আবেদিন, সাং - দোসাইদ কলেজ রোড গলি নং-২, বাসা নং-৩ আশুলিয়া-১৪৪১, সাভার ঢাকা ।","23.8840382","90.3019911","Dhaka","Savar","Map"
"0461","Baradi Narayanganj","001894807461","মোঃ রেজাউল করিম, গ্রামঃ দোলরদি পুরান নগর, পোষ্টঃবারদী, থানাঃসোনারগাও, জেলাঃনারায়নগঞ্জ ।","23.70409","90.63716","Narayanganj","Sonargaon","Map"
"0462","Ruhitpur Dhaka","001894807462","মোঃখালেক রামেরকান্দা, রুহিতপুর কেরানীগঞ্জ, ঢাকা","23.68968","90.31014","Dhaka","Keraniganj","Map"
"0463","Mandari  Lakshmipur","001894807463","মোছাঃ শিউলী আক্তার,স্বামীঃ হাজী আবু তাহের, গ্রাম-মটবী, পো: মান্দারী, থানা-সদর, জেলা- লক্ষীপুর।","22.94036","90.91316","Lakshmipur","Sadar","Map"
"0464","Sachar Chandpur","001894807464","মোঃ মিজান তালুকদার:, পিতা: মোঃসিরাজ তালুকদার , গ্রাম-পূর্ব মাথাইর দিঘীর পাড়, তালুকদার বাড়ী, ওয়ার্ডঃ ০৯নং ওয়ার্ড পো: সাচার , থানা-কচুয়া, জেলা-চাঁদপুর।","23.43005","90.84613","Chandpur","Kachua","Map"
"0465","Kabirhat Noakhali","001894807465","মোঃ আব্দুল জলিল, পিতা: মোঃ আবদুস সাত্তার, গ্রাম-পূর্ব ফাতেহপুর, সাত্তার মাষ্ঠারের নতুন বাড়ী, ওয়ার্ডঃ ০২নং ওয়ার্ড পো: কবিরহাট পৌরসভা, থানা-কবিরহাট, জেলা-নোয়াখালী।","22.8390474","91.203068","Noakhali","Kabirhat","Map"
"0466","Nawabpur Cumilla","001894807466","মোসাঃ মঞ্জু্মা মরিয়ম, পিতাঃ মৃত সৈয়দ মকবুল হোসেন, নবাবপুর দক্ষিন বাজার, পির মঞ্জিল, বরকরই ইউনিয়ন পরিষদের দক্ষিনপার্শ্বে, জাহিদ মিয়ার বিল্ডিং, চান্দিনা, কুমিল্লা।","23.397877","90.926643","Cumilla","Chandina","Map"
"0467","Meghna Cumilla","001894807467","মো জালাল উদ্দিন মোল্লা, পিতা: মো জুলহাস মিয়া, মোল্লা টাওয়ার, মানিকারচর, মেঘনা, কুমিল্লা","23.6366254","90.7096706","Cumilla","Meghna","Map"
"0468","Monohorgonj Cumilla","001894807468","মোসাঃকুলছুম বেগম, স্বামী-রেফায়েত হোসেন(প্রবাসি), খোদাই ভিটা, মনোহরগঞ্জ, কুমিল্লা","23.159423","91.0582664","Cumilla","Monohorgonj","Map"
"0469","Kalukhali  Rajbari","001894807469","ডাঃ মোঃ আঃ রহিম মন্ডল, রতনদিয়া বাজার, বোয়ালিয়া রোড ,কালুখালী, রাজবাড়ী","23.7632975","89.4861378","Rajbari","Rajbari Sadar","Map"
"0470","Panchbibi Joypurhat","001894807470","বিদ্যুৎ কুমার সাহা, দমদমা, হিলি রোড , থানা-পাঁচবিবি জেলা- জয়পুরহাট, পাঁচবিবি বাজার ও বাস স্ট্যান্ড সংলগ্ন।","25.190564","89.01535","Dinajpur","Panchbibi","Map"
"0471","Raniganj Dinajpur","001894807471","মো: মাহফুজার রহমান, পিতা: মৃত মোঃ আব্দুল মান্নান, দঃ দেবীপুর,মহিলা কলেজ রোড,রাণীগঞ্জ, হাটশ্যামগন্জ,ঘোড়াঘাট,দিনাজপুর । মোবাইল নং-০১৭১৬২৯৮৯৩২","25.29846693250807","89.2168145014281","Dinajpur","Ghoraghat","Map"
"0472","Chukongor Khulna(0472)","001894807472","মোঃ সিরাজুল হক, অবসর প্রাপ্ত প্রাইমারি প্রধান শিক্ষক । পিতাঃ মৃত ইয়াকুব আলী, গ্রামঃপাঁচারই, ডাকঘরঃ বড়েঙ্গা-৭৪৫০, থানাঃ কেশবপুর, যশোর |","22.8421","89.2937","Khulna","Dumuria","Map"
"0473","Keshobpur Khulna(0473)","001894807473","মোঃ রিজাউল ইসলাম  ।  পিতাঃ মো: সাহেব আলী গাজী । মাতা: মোছা:লায়লা বেগম, গ্রামঃবালিয়াডাঙ্গা ,মধ্যপাড়া, ডাকঘরঃ কেশবপুর-৭৪৫০, থানাঃকেশবপুর, জেলা-যশোর","22.9066648","89.2255980","Jessore","Keshobpur","Map"
"0474","Darsona Chuadanga(0474)","001894807474","শামীম আহমেদ  ,পিতার নাম,মো:আব্দুর রশীদ ,ঠিকানা –সুলতানা ম্যানশন , ৩৩০/৩ , মাষ্টার পাড়া , দর্শনা বাসষ্ট্যান্ড দর্শনা,  জেলা :  চুয়াডাঙ্গা।","23.52937","88.80673","Chuadanga","Dassona","Map"
"0475","Sadar Chuadanga (0475)","001894807475","মোঃ মজিবুল হক মালিক ,পিতার নাম, এহ্ছানুল হক মালিক, ঠিকানা–গ্রাম/মহল্লাঃ-ঝিনাইদহ, বাসস্ট্যান্ড পাড়া, ডাকঘর:-চুয়াডাঙ্গা-৭২০০, চুয়াডাঙ্গা সদর, চুয়াডাঙ্গা ।","23.6397666","88.8616835","Chuadanga","Chuadanga","Map"
"0476","Karpashdanga Chuadanga","001894807476","মোঃ আহছানুল হক, পিতার নাম, মৃত ফয়েজ উদ্দীন, ঠিকানা–গ্রাম/মহল্লাঃ-কবরস্থান মোড়, মুজিবনগর সড়ক কার্পাসডাঙ্গা, ডাকঘর:-কার্পাসডাঙ্গা-৭২২১, দামুরহুদা, চুয়াডাঙ্গা ।","23.575094","88.702055","Chuadanga","Damurhuda","Map"
"0477","Dakbangla Jhenaidha(0477)","001894807477","মোঃ আক্তারুল ইসলাম , পিতাঃ মোঃ এনামুল হক, বাসা/ হোল্ডিং-৬২৩, গ্রাম/ রাস্তাঃ-মাগুরাপাড়া,  পোঃ-সাধুহাটি-৭২০০, থানাঃ-ঝিনাইদহ সদর, ঝিনাইদহ ","23.5608","89.0265","Jhenaidha","Jhenaidha","Map"
"0478","Sorajgong Chuadanga(0478)","001894807478","মোঃ শাহ আলম বিশ্বাস, পিতার নাম, মোঃ-হাইদার আলী বিশ্বাস, ঠিকানা, গ্রাম/মহল্লাঃ-বনতিয়ারবিলা, তিয়রবিলা, ডাকঘর:-আইলহাস, লক্ষীপুর-৭২১০, আলমডাংগা, চুয়াডাঙ্গা","23.59025","88.93921","Chuadanga","Chuadanga","Map"
"0479","Hatgopalpur Jhenaidha","001894807479","মোঃ আজিবর মিয়া, পিতাঃ জাহের আলি মিয়া , গ্রাম/রাস্তা : সোহাইল রোড, পোস্টঃ হাট গোপাল পুর ,থানা,জেলা- ঝিনাইদহ সদর।","23.5264397","89.298145","Jhenaidha","Jhenaidha","Map"
"0480","Bhedarganj Shariatpur","001894807480","মোঃ জাহিদুল ইসলাম, পুটিয়া বড় তালুকদার বাড়ির মোড়, ভেদরগন্জ, শরীয়তপুর।","23.186391","90.447595","Shariatpur","Bhedarganj","Map"
"0481","Damuda Shariatpur","001313452381","মোঃ মকফর উদ্দীন, ফাতেমা ম্যানশন, বিশাকুড়ি মডেল টাউন, ডামুড্যা, শরীয়তপুর","23.1358501","90.44007739","Shariatpur","Damuda","Map"
"0482","Kashiani Gopalganj","001894807482","মোঃ বাকিয়ার রহমান মোল্যা ( বীর মুক্তিযোদ্ধা)  ,পিতাঃ  মৃত ইমান উদ্দিন মোল্যা , পেশা- কৃষক  গ্রামঃ মাজড়া ৬ নং অংশ  পোঃ মাজড়া , থানা ঃ কাশিয়ানী  জেলা -গোপালগঞ্জ । মোবাইল নং ০১৯২১১৮৭১৭৬","23.229877","89.7199430","Gopalgonj","Kashiani","Map"
"0483","Nanupur Chattogram","001894807483","জনাব মোঃ রাশেদ, ফজল আহমেদ চৌধুরী বাড়ী, নানুপুর, ফটিকছড়ি, চট্টগ্রাম।","22.61692","91.84753","Chattogram","Nanupur","Map"
"0484","Bijoynagar Brahmnbaria","001894807484","কাজী মোঃ মঙ্গল মিয়া, গ্রামঃসাতগাও, ডাকঘর+থানাঃবিজয়নগর জেলাঃব্রাক্ষণবাড়ীয়া","24.0258582","91.2314337","Brahmnbaria","বিজয়নগর","Map"
"0485","Nasirnagar Brahmnbaria","001894807485","মোঃ পিয়াস, পিতাঃ মৃতঃ মোঃ আব্দুল খালেক,  গ্রামঃ শীল পারা, পোঃ নাসিরনগর, উপজেলাঃ নাসির নগর, জেলাঃ ব্রাহ্মণবাড়ীয়া","24.1971377","91.1927049","Brahmnbaria","Nasirnagar","Map"
"0486","Sarail","001894807486","মোঃ আলাল মিয়া, পিতাঃমৃতঃ হাবিবুর রহমান,  গ্রামঃ নিজ সরাইল,পোঃ সরাইল,উপজেলাঃ সরাইল, জেলাঃ ব্রাহ্মণবাড়িয়া।","24.0693734","91.1160648","Brahmnbaria","Sarail","Map"
"0487","Bahubal Habiganj","001894807487","মোঃ আব্দুর রকিব  , পিতার নাম :হাজী মোঃ-জমর, উদ্দিন, মাতাঃমোছা-আছিয়া খাতুন।গ্রামঃজাংগালিয়া (হাসপাতাল, এলাকা কলেজ রোড), ডাকঘর+থানাঃবাহুবল,  জেলাঃহবিগঞ্জ ।","24.3390294","91.5360158","Habiganj","Bahubal","Map"
"0488","Tajpur Osmaninagar","001894807488","মোঃ আব্দুর রাকিব। পিতাঃমৃত আব্দুর খালিক, গ্রামঃ, কাশিকাপন,পোঃ ব্রাম্মন শাসন,থানাঃ ওসমানী নগর,জেলাঃ সিলেট। ","24.7334219","91.7674069","Sylhet","ওসমানী নগর","Map"
"0489","Dokkhin Surma","001894807489","মোঃ আলতাব উদ্দিন, পিতার নাম :মুবশির আলী, মাতা : আরফুল বেগম । গ্রাম দক্ষিন সুরমা , সিলেট ।","24.8508658","91.8268422","Sylhet","Dokkhin Surma","Map"
"0490","বিশ্বনাথ সিলেট","001894807490","আহাদ আলী, পিতাঃ মৃত মোরশেদ  আলী , গ্রামঃ পূর্ব চানসির কাপন, পোঃ বিশ্বনাথ, থানাঃ বিশ্বনাথ, জেলাঃ সিলেট","24.80646166666667","91.75002333333332","Sylhet","বিশ্বনাথ","Map"
"0491","Jawabazar Sunamganj","001894807491","মোঃ আব্দুর রউফ,  পিতাঃমৃত ইলিয়াস আলী, গ্রামঃপাইগাও, পোঃ জাউয়াবাজার, থানাঃছাতক, জেলাঃ সুনামগঞ্জ ।","24.9296347","91.5515685","Sunamganj","ছাতক","Map"
"0492","Ziranibazar Dhaka SME","001844503972","মোঃ শাহজাহান , পিতা: মোঃ সিরাজ আলী, হারুন গেট, জিরানীবাজার, আশুলিয়া, সাভার, ঢাকা","23.99166","90.24277","Dhaka","Savar","Map"
"0493","Savar Dhaka SME","001844503968","জনাবা ফাতেমা আক্তার স্বামী-মো:মাহবুব কবির(সুমন) অফিস ঠিকানা ৩৭ নং ওয়াপদা রোড,কলেজিয়েট স্কুল সংলগ্ন, সাভার |","23.8488608","90.2563009","Dhaka","Savar","Map"
"0494","Hemayetpur Dhaka SME","001844503969","জনাব মোঃ আবুল হোসেন (দলিল লেখক), নিচ তলা, জয়নাবাড়ী (বড় বাড়ী), হেমায়েতপুর, সাভার, ঢাকা","23.79644","90.26642","Dhaka","Savar","Map"
"0495","Pallibidyut-Savar Dhaka SME","001844537916","নুরুল আমিন চৌধুরী পিতার নাম;-মৃত রজ্জব আলী চৌধুরী, ঠিকানা:- পলাশ বাড়ী  আশুলিয়া ঢাকা।পলাশী দরবার শরীফের পাশে ২তলা ফ্ল্যাট এর নীজ তলায়","23.9294469","90.2632658","Dhaka","Savar","Map"
"0496","Konabari Gazipur SME","001847373160","মোঃ নুরুল ইসলাম, পিতা- আরজ আলী,  কোনাবাড়ী বিসিক সংলগ্ন, কোনাবাড়ী গাজীপুর","24.00747029","90.32612449","Dhaka","Konabari","Map"
"0497","Ashulia Dhaka SME","001847373106","মোহাম্মদ আলী সিদ্দিকী, পিতা- মৃত- করম আলী,  নিশ্চিন্তপুর, জিরাবো, আশুলিয়া, সাভার, ঢাকা","23.9265517","90.3123517","Dhaka","Savar","Map"
"0498","Dhamrai Dhaka SME","001847373107","মোঃ নূর আলম, বাড়ী নাম্বার-১১২, হামিম আবাসিক এলাকা, লাকুরিয়াপাড়া, ধামরাই, ঢাকা ।","23.9125442","90.2126111","Dhaka","Savar","Map"
"0499","Singair Manikganj SME","001844503967","তালহা ভিলা। ,পিতা- মোঃ আব্দুল মান্নান দেওয়ান, আঙ্গারিয়া, সিংগাইর, মানিকগঞ্জ।","23.8152951","90.1426488","Manikganj","Singair","Map"
"0500","Bandar SME Narayanganj","001847373155","মোঃ মাহাবুব হোসেন, পিতাঃ মাঈন উদ্দিন,শান্তিবাগ গ্রামঃ নবীগঞ্জ, ডাকঘরঃ বন্দর, থানাঃ বন্দর, জেলাঃ  নারায়নগঞ্জ।","23.6312949","90.52593","Narayanganj","Nobiganj","Map"
"0501","Pagla SME Narayanganj","001847373110","ইসলাম কমপ্লেক্স, দেলপাড়া(হাজি মিছির আলী বিশ্ববিদ্যালয় কলেজ রোড) কুতুবপুর, ফতুল্লা, নারায়ণগঞ্জ।","23.667101","90.474398","Narayanganj","Fatullah","Map"
"0502","Chashara SME Narayanganj","001847373111","মোঃ আরিফ পাঠান, ৪৪/৩ মহল্লা-উত্তর চাষাড়া, ওয়ার্ড নং-১২,ভাষা সৈ্নিক এ কে এম সামসুজ্জোহা রোড,রামবাবু পুকুর পাড়। হোল্ডিং নং-পুরাতন-৩৯,নতুন-৪২,  নারায়নগঞ্জ","23.626353","90.499541","Narayanganj","Narayanganj Sadar","Map"
"0503","Shiddhirganj SME Narayanganj","001847373112","মোঃ ওয়ালীওল্লাহ পাটোয়ারী, পাটোয়ারীভিলা,বাড়ী নং ২৯০, সরক নং ০৪,নয়াআটি, (মুক্তিনগর),সিদ্ধিরগঞ্জ,নারায়নগঞ্জ ।","23.697055","90.498934","Narayanganj","Shiddhirganj","Map"
"0504","Sonargaon SME Narayanganj","001844503981","মোঃ রেজাউল করিম,  গোহাট্টা, মোগড়াপাড়া, সোনারগাঁ, নারায়ানগঞ্জ ।","23.637009","90.591854","Narayanganj","Sonargaon","Map"
"0505","Battali Chattogram","001847372505","শাহ-মোহছেন আউলিয়া কমপ্লেক্স, মালিক জনাব হাজী মোঃ জামাল উদ্দিন, পো: বটতলী, থানা-আনোয়ারা, জেলা- চট্রগ্রাম ।","22.1921135","91.8611599","Chattogram","Anwara","Map"
"0506","Heako Chattogram","001847371506","প্রকাশ চন্দ্র মল্লিক, পিতাঃ সাধন চন্দ্র মল্লিক,(ডাঃ সাধন মল্লিক টাওয়ার)বাংলাপাড়া রোড,হেয়াকো,ফটিকছড়ি,চট্টগ্রাম।","22.894440","91673026","Chattogram","Bhujpur","Map"
"0507","Akhaura Brahmnbaria","001847371507","মোঃ আক্তার হোসেন,পিতাঃমোহাম্মদ শফি উদ্দিন,  গ্রামঃ নিজ নারায়ন পুর, পোঃ আখাউড়া, উপজেলাঃ আখাউড়া, জেলাঃ ব্রাহ্মণবাড়ীয়া।","23.8643941","91.2175201","Brahmnbaria","Akhaura","Map"
"0508","Bamundi Maherpur(0508)","001847371508","মোঃআব্দুল আলিম, পিতাঃ মোঃআব্দুল ওয়াহেদ, গ্রাম/রাস্তাঃ বামন্দী, বামন্দী চ্যারাকী পাড়া, পোস্টঃ বামন্দী -৭১১০, থানাঃ গাংনী,জেলাঃ মেহেরপুর","23.889737","88.807393","Maherpur","Gangni","Map"
"0509","Gangni Maherpur(0509)","001847371509","মোছাঃ মাছুদা নাছরীন, পিতাঃ মোঃ এমদাদুল হক,গ্রাম/রাস্তাঃ ভিটা পাড়া গাংনী, পোস্টঃ গাংনী পৌরসভা-৭১১০, থানাঃ গাংনী, জেলাঃ মেহেরপুর।","23.814661","88.742806","Maherpur","Gangni","Map"
"0510","Sadar Maherpur(0510)","001847371510","রুমানা খানম, পিতাঃ গোলাম কবীর খাঁন, গ্রাম/রাস্তাঃ মল্লিক পাড়া, পোস্টঃ মেহেরপুর-৭১০০, থানাঃ মেহেরপুর সদর, জেলাঃ মেহেরপুর।","23.771305","88.635659","Maherpur","Maherpur Sadar","Map"
"0511","Jhikargacha  Jessore","001847099217","মোঃ রফিকুল ইসলাম পিতা:মৃত কেনায়েত আলী,হাজের আলী পেট্রোল পাম্প সংলগ্ন,২য় তলায় ঝিকরগাছা,যশোর-৭৪০০","23.09668","89.09036","Jessore","Jhikargachha","Map"
"0512","Bagachra Jashore","001847371512","মো: জহুরুজ্জামান ( জহুরুল)( বাসা মালিক),আর এস ট্রেডার্স, বাগআঁচড়া বাজার,  উপজেলা -শার্শা,  জেলা -যশোর। মোবাইল নং ০১৭১৭-০০৩১৫৪","22.95018","88.98419","Jashore","Sarsha","Map"
"0513","Navaran Jashore","001847371513","মো: আজিজুর রহমান )মোবাঃ- ০১৯৭৬-৭৩৮৮১৪) নাভারন ( ত্রিমোহিনী মোড়), যশোর ।","23.0569291","88.9818512","Jashore","Sarsha","Map"
"0514","Kalaroa Satkhira","001847371514","মো: আফজান হোসেন ( বাসা মালিকের বেয়াই), গ্রাম-মির্জাপুর (কলাগাছি রোড), আফজাল মোড়, উপজেলা- কলারোয়া, জেলা -সাতক্ষীরা। মোবাইল নং- ০১৯১৩-২৫১১১২","22.8617716","89.0481319","Satkhira","Kalaroa","Map"
"0515","Bhojeshwar Shariatpur","001847371515","মোঃ রফিকুল হক , গ্রামঃ মসুরা, পোষ্ট: ভোজেশ্বর থানাঃ নড়িয়া, জেলাঃ শরীয়তপুর।","23.263602","90.3891216","Shariatpur","Naria","Map"
"0516","Naria Shariatpur","001847371516","মোঃ – তাহের খান ( মালিক ),পিতার নাম, মৃত আবুল হাসেম খান  ,ঠিকানা –গ্রাম/মহল্লাঃ  দক্ষিন নড়িয়া , সরকারী উপ স্বাস্থ্য কেন্দ্র এর অপজিটে ( ডাকঘরঃ নড়িয়া সদর ৮০২০-,ইউনিয়ন + থানা-নড়িয়া,জেলা-শরীয়তপুর ।","23.2993849","90.4101599","Shariatpur","Naria","Map"
"0517","Gharishar Shariatpur","001847371517","আলাউদ্দিন আহম্মেদ চৌধুরী পিতা মৃত নুরউদ্দিন আহম্মেদ চৌধুরী, গ্রাম:- ঘড়িষাড়, পো:- ঘড়িষাড়, থানা:- নড়িয়া ,জেলা:- শরীয়তপুর ।","23.2721753","90.47737049","Shariatpur","Naria","Map"
"0518","Zajira Shariatpur","001847371518","মো: রিজভী মুন্সি ( মালিক ),পিতার নাম, মৃত ইউনুছ মুন্সি  ,ঠিকানা –গ্রাম/মহল্লাঃ আক্কেল মাহামুদ মুন্সি কান্দি ( পোষ্ট অফিস+থানা জাজিরা ,জেলা শরীয়তপুর","23.332216","90.326416","Shariatpur","Zajira","Map"
"0519","Gunabati Cumilla","001847371519","মো: নেয়াজ উল্লাহ জিন্নাহ ,পিতা-মৃত: জাফর উল্লাহ,জাফর উল্লাহ শপিং কমপ্লেক্স (২য় তলা), গুনবতী বাজার,চৌদ্দগ্রাম ,কুমিল্লা।","23.0889119","91.2974839","Cumilla","Chauddagram","Map"
"0520","Kashinagar Cumilla","001847371520","মো: মীর হোসেন, কাশিনগর বাজার, লাকসাম রোড, চৌদ্দগ্রাম, কুমিল্লা ।","23.3181976","91.2240351","Cumilla","Chauddagram","Map"
"0521","Ramchandrapur Cumilla","001847371521","সখিনা বেগম,  গ্রামঃ আমিন নগর বাঞ্ছারামপুর রোড, পোঃ রামচন্দ্রপুর, থানাঃ মুরাদনগর, কুমিল্লা।","23.7351811","90.8870204","Cumilla","Muradnagar","Map"
"0522","Bangura Cumilla","001847371522","আনোয়ার হোসেন রিপন, স্ত্রী-আছমা আক্তার, থানা রোড দঃ বাঙ্গুরা, ওর্য়াড নং- ০৬ ,ইউনিয়নঃ ০৬ নং বাঙ্গুরা ,ডাকঘরঃ বাঙ্গুরা বাজার, উপজেলাঃ মুরাদনগর , জেলাঃ কুমিল্লা  ।","23.7152289","90.9879708","Cumilla","Bangura Bazar","Map"
"0523","Kuraish Munshi Bazar  Feni","001847371523","ফকির আহমেদ বিলডিং, আব্দুলনবি,  কোরাইশ মুন্সীবাজার, দাগনভুঞা রোড, সমাসপুর, দাগনভুঞা,  ফেনী।","23.0056861","91.2750184","Feni","Daganbhuiyan","Map"
"0524","Chhayani Bazar, Noakhali","001847371524","বিবি মরিয়ম, স্বামীর নাম-আব্দুল কাদের, গ্রাম ভবানী জীবনপুর, মৌলভী বাড়ি, ছয়ানী বাজার, বেগমগন্জ, নোয়াখালী।","22.9011218","91.0129709","Noakhali","Begamganj","Map"
"0525","Khilpara, Noakhali","001847371525","মোঃ আবুল কালাম (আজাদ) চাটখিল রোড, খিলপাড়া পূর্ব বাজার, চাটখিল, নোয়াখালী","23.01294","90.97531","Noakhali","Chatkhil","Map"
"0526","Sagardighi Tangail","001847371526","মো: মোবারক হোসেন, রফিকরাজু কোচিং সেন্টার সংলগ্ন, সাগরদিঘী, ঘাটাইল, টাঙ্গাইল।","24.469925","90.193497","Tangail","Ghatail","Map"
"0527","Nagarpur Tangail","001847371527","মোঃ তোফাজ্জেল  হোসেন, পিতা: মৃত, মোঃ রস্তোম আলী মিয়া, গ্রাম: নাগরপুর, ডাকঘর: নাগরপুর , থানা: নাগরপুর, জেলা: টাঙ্গাইল","24.053904","89.871396","Tangail","Nagarpur","Map"
"0528","Dhalapara Tangail","001847371528","মো: কুরবান আলী, পিতা – মো: খসরু মিয়া, গ্রাম: বড়মেধার জাইপাড়া, ডাকঘর: ধলাপাড়া, থানা: ঘাটাইল, জেলা: টাঙ্গাইল","24.46426","90.09022","টাঙ্গাইল","ঘাটাইল","Map"
"0529","Sakhipur Tangail","001847371529","মোছাঃ মিনা বেগমের ,স্বামীঃ  মো: আমির হোসেন, গ্রাম: বংকী, ডাকঘর: সখিপুর, থানা: সখিপুর, জেলা: টাঙ্গাইল।","24.3059698","90.1697853","Tangail","Sakhipur","Map"
"0530","Aushkandi, Habiganj","001847371530","মোছাঃ রুবা বেগম, এস,আর টাওয়ার, উলুকান্দি, আউসকান্দি, নবিগঞ্জ, হবিগঞ্জ, মোবাইল-০১৭৮২-৫৩৭৫০৫","","","Habiganj","","Map"
"0530","Aushkandi Hobiganj","000184737153","মোছাঃ রুবা বেগম, এস,আর টাওয়ার, উলুকান্দি, আউসকান্দি, নবিগঞ্জ, হবিগঞ্জ, মোবাইল-০১৭৮২-৫৩৭৫০৫","24.58747373","91.60323241","Hobiganj","Nabiganj","Map"
"0531","Tantar, B Baria","001847371531","মোঃ বিল্লাল হোসেন, তন্তর বাজার, তন্তর, আখাউরা, ব্রাহ্মণবাড়িয়া।","23.8247480","91.1535903","Brahmanbaria","Akhaura","Map"
"0532","Kawtoli, B-Baria","001847371532","মোঃআব্দুল জলিল, কাউতলী, ব্রাহ্মণবাড়িয়া, মোবাইল নাম্বারঃ 01982840358 ।","23.9583307","91.1050311","B-Baria","Sadar","Map"
"0532","Kawtoli, B-Baria","001847371532","মোঃআব্দুল জলিল, কাউতলী, ব্রাহ্মণবাড়িয়া, মোবাইল নাম্বারঃ 01982840358 ।","23.9583307","91.1050311","B-Baria","Sadar","Map"
"0533","Radhika","001847371533","মো:আজিজুর রহমান খান, রাধিকা পুরাতন বাজার, ব্রাহ্মণবাড়িয়া।","23.9003699","91.127025","B-Baria","Sadar B-Baria","Map"
"0534","Lalpur, B Baria","001847371534","মো-হাজি আলতাপ হোসেন, লামা বায়েত, লালপুর, ব্রাহ্মণবাড়িয়া","23.9888469","90.9935022","Brahmanbaria","Asuganj","Map"
"0535","Nabinagar B Baria","001847371535","কাবিল মিয়া,, নারায়নপুর, ওর্য়াড নং- ০৭ ,ইউনিয়নঃ ০৭ নং নবীনগর ,ডাকঘরঃ নবীনগর বাজার, উপজেলাঃ নবীনগর ,জেলাঃ ব্রাম্মনবাড়িয়া,","23.869505219295743","90.97758327114319","Brahmanbaria","Nabinagar","Map"
"0536","Maloy Vangura B Baria","001847371536","মোস্তফা কামাল, মালোয়েশিন প্রবাসী, রমজান মোল্লা মসজিদের পূর্ব পাশে,  গ্যাস ফিল্ড রোড মলয় বাঙ্গুরা, ওর্য়াড নং- ০৬, ইউনিয়নঃ০৬ নং মলয় বাঙ্গুরা, ডাকঘরঃ মলয় বাঙ্গুরা বাজার, উপজেলাঃ নবিন্গর , জেলাঃ ব্রাম্মনবাড়িয়া","23.7921295","90.9943827","Brahmanbaria","Nabinnagor","Map"
"0537","Bakter Munshir Bazar Feni","001847371537","মোহাম্মদ শাহজাহান (সাজু) ,গ্রামঃ পশ্চিম মির্জাপুর পুর্ব ডাকবাংলা বক্তারমুন্সি রোড, রোড,সোনাগাজী ফেনী ,বাড়ির মালিক একজন ব্যবসায়ী","22.901526","91.400776","Feni","Sonagazi","Map"
"0538","Silonia Feni","001847371538","শাহাদাত হোসেন,পিতাঃমৃত আঃআজিজ, মাতাঃদুলব বিয়া, গ্রামঃ দঃ জয়লস্কর, পোঃসিলনিয়া, থানাঃনাগনভূইয়া, জেলাঃফেনী","22.983885483448756","91.33822704235651","Feni","Daganbhuiyan","Map"
"0539","Bhangudda Cumilla","001847371539","মো:হারুন রশিদ ,বাঙ্গুড্ডা পুর্ববাজার , নাঙ্গলকোর্ট রোড,চৌদ্দগ্রাম কুমিল্লা ,বাড়ির মালিক সৌদী প্রবাসী, পক্ষে বাড়ির মালিকের স্ত্রী চুক্তি সাক্ষর করবেন,","23.217626","91.2409157","Cumilla","Chauddagram","Map"
"0540","Natherpetua Cumilla","001847371540","তাহের ভিলা ( মামুনুর রশিদ), কলেজ রোড,নাথেরপেটূয়া পূর্ব বাজার,মনোহরগঞ্জ, কুমিল্লা","23.111935","91.118139","Cumilla","Monohorgonj","Map"
"0541","Kankirhat,Noakhali","001847371541","পান্না আক্তার ,স্বামীর নাম-খুদশিদর রহমান, আমেরিকান বাদশা মিয়ার বাড়ী, কানকিরহাট পুর্ব বাজার, বীর কোট রোড, কানকিরহাট, সেনবাগ, নোয়াখালী","23.0453297","91.207672","Noakhali","Shenbag","Map"
"0542","Mirganj Noakhali","001847371542","ওহিদুল্লাহ, পিতার নামঃ মৃত আবিদুল হক ঠিকানাঃ- মিরগঞ্জ বাজারের মসজিদের পশ্চিমে ,কেরোয়া, রায়পুর , লক্ষিপুর।","23.0431214","90.828418","Lakshmipur","Ramganj","Map"
"0543","Aldibazar, Munshiganj","001847371543","আলদী বাজার, গাজীবাড়ী সংলগ্ন, টঙ্গীবাড়ী, মুন্সিগঞ্জ।","23.4875128","90.5005023","Munshiganj","Tongibari","Map"
"0544","Kangsanagar Comilla","001847371544","মো: শরফরাজ হোসেন,  পিতা:মৃত. সিদ্দিকুর রহমান,পশ্চিম সিং, পো: রামপুর, থানা: বুড়িচং, কুমিল্লা।","23.5485063","91.0657007","কুমিল্লা","বুড়িচং","Map"
"0545","Sujanagar Pabna","001847371545","মোঃশামসুল আলম, গ্রাম-ভবানীপুর, ডাকঘর-সুজানগর, থানা-সুজানগর, জেলা-পাবনা","23.9442149","89.4080737","Pabna","সুজানগর","Map"
"0546","Dashuria Pabna","001847371546","মুনসিদপুর,দাশুরিয়া,ঈশ্বরদী,পাবনা।","24.108107","89.12975899","Pabna","Ishwardi","Map"
"0547","Bonogram Pabna","01847371547","মোছাঃ রিনা খাতুন, গ্রামঃবনগ্রাম, ডাকঘরঃ সাথিয়া, থানা-সাথিয়া, জেলা-পাবনা","24.0013344","89.4703414","Pabna","Santhia","Map"
"0548","Faridpur Pabna","001847372548","ফারমিসি খাতুন, গ্রামঃ বোনয়ারী নগর( আমলা পাড়া),(হোল্ডিং নং ৪৬৬),ডাকঘর-ফরিদপুর, থানা-ফরিদপুর, জেলা-পাবনা","24.158653","89.443585","Pabna","Faridpur","Map"
"0549","Ullahpara Sirajganj","001847371549","মোঃ হেদায়েত উল্লাহ, বাকুয়া ,নতুন তেল পাম্প সংলগ্ন, উল্লাপাড়া, সিরাজগঞ্জ।","24.3179758","89.5635636","Sirajganj","Ullahpara","Map"
"0550","Mujibnagar Maherpur(0550)","001847371550","মোঃ জহুরুল হক, রামনগর কেদারগঞ্জ-৭১০০, মুজিবনগর, মেহেরপুর।","23.670303","88.604368","Maherpur","Mujibnagar","Map"
"0551","Alamdanga Chuadanga(0551)","001847371551","মোঃ সোহেল রানা , পিতাঃ মৃত . আব্দুল লতিফ,, লাবনী ভিলা, গ্রাম/রাস্তাঃ গোবিন্দপুর, নতুন বাসষ্ট্যাণ্ট চৌরাস্তার মোড়, পোস্টঃ-আলমডাঙ্গা -৭২১০, থানাঃ আলমডাঙ্গা, জেলাঃ চুয়াডাঙ্গা ।","23.754847","88.938077","Chuadanga","Alamdanga","Map"
"0552","Allardarga Kushtia","001847371552","ইয়াকুব মাষ্টার , তারাগুনিয়া বাজার, দৌলতপুর থানা, কুষ্টিয়া জেলা। মোবাইল-০১৭১৮২৭৯৫৫৬","24.038938","88.861998","Kushtia","Daulatpur","Map"
"0553","Khoksha Kushtia","001847371553","মোসা মিতা বেগম, মাস্টার পারা, খোকসা ,কুষ্টিয়া, মোবাইল- ০১৩১৪৯৩২৮৭১, ।","23.806078","89.280251","Kushtia","Khoksha","Map"
"0554","Boalmari Faridpur","001847371554","মোঃতাহেরা জাহান  ( মালিক ), পিতার নাম, আব্দুল বারী চৌধুরী, ঠিকানা –গ্রাম/ পুর্ব  কামার গ্রাম, পোষ্টঃ বোয়ালমারী, থানা,বোয়ালমারী, জেলাঃ ফরিদপুর ।","23.39382969","89.6833625","Faridpur","Boalmari","Map"
"0555","Kutubpur Madaripur","001847371555","মোঃ সালাম হাওলাদার, শামছুদ্দিন মৌলভিকান্দি, পোষ্ট:কুতুবপুর থানাঃ শিবচর, জেলাঃ মাদারীপুর।","23.385583","90.226956","Madaripur","Shibchar","Map"
"0556","Sakhipur Shariatpur","000184737155","মো:রাজন মুন্সি মুন্সি কান্দি,( হাজী শরীয়তুল্লাহ কলেজ এর পাশে) সখিপুর, শরীয়তপুর।","23.2355836","90.5353375","Shariatpur","Sakhipur","Map"
"0557","Paragram Nawabgonj","001847371557","নামঃ  মনোয়ারা বেগম, পিতাঃ জালাল উদ্দিন, মাতা: হাছিনা বেগম, গ্রাম: পাড়াগ্রাম, ডাকঘরঃ পাড়াগ্রাম, থানা: নবাবগঞ্জ, জেলাঃ ঢাকা, নিউ মডার্ন হসপিটাল সংলগ্ন, নবাবগঞ্জ মেইন রোড, নবাবগঞ্জ ঢাকা। মোবাঃ-০১৭৯৪-৩১৫৭৮৯","23.7058145","90.2418645","Dhaka","Nawabgonj","Map"
"0558","Jibonganj, B. Baria","001847371558","শাহেরা আলম, স্বামীর নাম :শাহ আলম, গ্রাম: দড়িগাও, ওর্য়াড নং- ০৬ ,ইউনিয়নঃ ০৫ নং দরিকান্দি ,ডাকঘরঃ জীবনগঞ্জ বাজার, উপজেলাঃ বাঞ্ছারামপুর , জেলাঃ ব্রাহ্মণবাড়ীয়া।","23.800869","90.879348","Brahmanbaria","Nabinagar","Map"
"0559","Khalifarhat Noakhali","001847371559","জান্নাতী মার্কেট, (কামাল মিয়ার সমিলের বিপরীত পাশে), আলাউদ্দিনের বাড়ি (২য় তলা), পশ্চিম বারাইপুর, খলিফারহাট, নোয়াখালী সদর। নোয়াখালী।","22.8324297","91.0216679","Noakhali","Sadar Noakhali","Map"
"0560","Kutuberhat Senbag","01847371560","জহিরুল হকের বিল্ডিং (২য় তলা),পল্লী বিদ্যুৎ অফিস সংলগ্ন,আইচের টেক, কুতুবেরহাট রোড,সেনবাগ, নোয়াখালী।","22.8951366","91.2107056","Noakhali","Senbag","Map"
"0561","Chitoshi Shahrasti","001847371561","ইঞ্চিনিয়ার মশিউর রহমান, দারোগাবাড়ি , গ্রামঃচাঁন্দল পোঃ চিতোষী বাজার থানাঃ শাহরাস্তি , জেলাঃ চাঁদপুর।","23.166284","91.000797","Chandpur District","Shahrasti","Map"
"0562","Dashgharia Chatkhil","001847371562","আলমগীর  হোসেন, পিতার নাম- ইব্রাহীম খলিল, গ্রাম পরকোট,ডাকঘর-দশঘরিয়া, থানাঃ চাটখিল জেলাঃ নোয়াখালী।","23.06829","90.93320","Noakhali","Chatkhil","Map"
"0563","Rahimanagar Kachua","001847371563","মোঃ সাইফুল ইসলাম,পিতা-হাজী আনোয়ার হোসেন, হাজী আনোয়ার ভবন,নবাবপুর রোড উত্তর বাজার,রহিমানগর কচুয়া চাঁদপুর।","23.3083301","90.9472406","Chandpur","Kachua","Map"
"0564","Rakhalia Raipur","001847371564","ডাঃ মোঃ কামাল হোসেন, পিতার নাম-মৃত ইউনুস মিয়া, গ্রাম রাখালিয়া, থানাঃ রায়পুর জেলাঃ লক্ষিপুর।","22.99180","90.77923","Lakshmipur","Raipur","Map"
"0565","Bakhrabad Muradnagar","001847371565","মো: মহিউদ্দিন, বলোপদি,বাখরাবাদ, মুরাদনগর রোড, মুরাদনগরথানা, কুমিল্লা। মোবাইল নং-০১৮৩২৩০৭৩৫০।","23.6340726","90.8806743","Cumilla","Muradnagar","Map"
"0566","Goalmari Bazar Daudkandi","001847371566","মো: আইয়ুব আলী ভুইয়া, মহন্তন,গোয়ালমারী বাজার, দাউদকান্দি, কুমিল্লা। মোবাইল নং-০১৮১৭৬০২২১৫ ।","23.494310","90.725475","Cumilla","Daudkandi","Map"
"0567","Lemua Feni (0567)","001847371567","মোঃ আবুল হোসেন, আবুল ম্যানশন, লেমুয়া বানিজ্যিক এলাকা রোড, ব্র্যাক অফিসের দক্ষিন পার্শ্বে, গ্রামঃ লেমুয়া বানিজ্যিক এলাকা, উপজেলাঃ ফেনী সদর, জেলাঃ ফেনী","22.9576089","91.4449357","Feni","Feni","Map"
"0568","Noapara Rauzan","001847371568","বশির আহম্মদ  ,এস.বি.বি.এল টাউয়ার, নিচতলা, ওয়ালটন প্লাজার নিচে, পথের হাট, নোয়াপাড়া, রাউজান,চট্টগ্রাম।","22.4400068","91.9056894","Chattogram","Rauzan","Map"
"0569","Jagannathpur Sunamganj","001847371569","R.S.N MONJIL(M,M Villa), বটের তল, হাসপাতাল রোড, জগন্নাথপুর, জগন্নাথপুর, সুনামগঞ্জ।","24.775109","91.5577699","Sunamganj","Jagannathpur","Map"
"0570","Gobindagan_Chhatok","001847371570","হাজী আমির উদ্দিন ও সন্স কমপ্লেক্স , গোবিন্দগঞ্জ ফাজিল মাদ্রাসার গেইট গোবিন্দ নোগর রোড,  গোবিন্দগঞ্জ, ছাতক, সুনামগঞ্জ","24.928865","91.682059","Sunamganj","Chhatok","Map"
"0571","ShamsherNogor_Komolganj","001847371571","ছুরত মঞ্জিল,হোল্ডীং নংঃ ৮১৫,ওয়ার্ড নংঃ-০৪,ভাদাইরদেউল,শমশেরনগর,কমলগঞ্জ, মৌলভীবাজার","24.38506","91.89605","Moulvibazar","KAMALGONJ","Map"
"0572","GolapGonj Sylhet","001847371572","মোছাঃ রহিমা বেগম, পিতাঃ মৃত হাজী রশীদ আলী, গ্রাম: ফুলবাড়ী বদলখাঁয়, পো: গোলাপগঞ্জ, থানা: গোলাপগঞ্জ, গোলাপগঞ্জ পৌরসভা ৩ নং ওয়ার্ড জেলা: সিলেট","24.8519304","92.0071794","Sylhet","Golapganj","Map"
"0573","Beanibazar_Sylhet","001847371573","আবু তাহের, পিতাঃ আব্দুল নুর, খশীর নয়া বাড়ী, পো: বৈরাগী বাজার, রায়পুরী সি এন জি পাম্পের বিপরীত পাশে, থানা: বিয়ানীবাজার, জেলা: সিলেট","24.84483","92.16024","Sylhet","বিয়ানীবাজার","Map"
"0574","Chunarughat_Habiganj","001847371574","নামঃ  তানিয়া ফেরদৌস তরফদার, স্বামীঃ মোঃ রুহুল হাসান, বড়াইল নতুন বাজার (ব্যারিষ্টার সুমন এমপির বাসার সামনে), পোঃ চুনারুঘাট, জেলাঃ হবিগঞ্জ ।","24.20506","91.51631","Hobiganj","চুনারুঘাট","Map"
"0575","Cheora Cumilla","001847371575","সালেহা বেগম, স্বামী: আমিনুল ইসলাম, নেতড়া বাজার ( চৌরাস্তা মোড় ), ধৌড়করা, থানাঃ চৌদ্দগ্রাম, জেলা: কুমিল্লা।","23.1433924","91.2985428","Cumilla","Chauddagram","Map"
"0576","Joyag Sonaimuri","001847371576","নামঃ আাবু তাহের, পিতা:-মৃত:আকরাম আলী, গ্রাম: ভাওরকোট(মানিক ভিলা,সমিলের পাশে), ডাকঘরঃ জয়াগ-৩৮৪৪,উপজেলা-সোনাইমুড়ী ,জেলা-নোয়াখালী ।","23.0676402","91.0117133","Noakhali","Sonaimuri","Map"
"0577","Musapur Companiganj","001847371577","আবদুল মতিন মিয়া, মুছাপুর টাওয়ার, মুছাপুর বাংলাবাজার, কোম্পানিগন্জ, নোয়াখালী।","22.8220962","91.3107389","Noakhali","Companigan","Map"
"0578","Banglabazar Begumganj","001847371578","নামঃ সুমাইয়া আক্তার, স্বামীঃ মোঃ মিলন উদ্দিন, গ্রাম বড় হোসেনপুর চৌধুরী মেকারের বাড়ি, বাংলাবাজার রাজগন্জ সড়ক থানাঃ বেগমগন্জ জেলাঃ নোয়াখালী।","22.9424866","91.0508492","Noalhali","Begumganj","Map"
"0579","Mohamaya Chandpur","001847371579","মোঃ ফজলুল হক, পিতা-আঃ মতিন বেপারি, বেপারী বাড়ী, লোধের গাঁ, মধু রোড, মহামায়া পূর্ব বাজার,সদর চাঁদপুর।","23.2517106","90.7536776","Chandpur","Chandpur Sadar","Map"
"0580","Chandra Chandpur","001847371580","মোঃ আলমগীর পাটওয়ারী, পিতার: মৃত সূজ্জত আলী পাটওয়ারী, গ্রাম: মদনের গাঁও,(আয়েশা সিদ্দিকা মহিলা মাদ্রাসার ডানপাশে) ডাকঘর- চান্দ্রা, থানা: ফরিদগন্জ, জেলা: চাদঁপুর।","23.196907","90.737791","Chandpur","Faridgonj","Map"
"0581","Dhalua Bazar Nangalkot","001847371581","কাজী বাড়ী, C/o- মাফিয়া বেগম । গ্রাম-বদরপুর,(কলেজের সামনে চিওড়া রোড), ডাকঘর-ঢালুয়া বাজার, থানা-নাঙ্গলকোট,জেলা- কুমিল্লা।","23.1225987","91.2411743","Cumilla","Nangalkot","Map"
"0582","Khalir Bazar Cumilla","001847371582","মোঃ মফিজুল ইসলাম ভূইয়া, পিতাঃ মৃত সেকান্দার আলী ভূইয়া, চেয়ারম্যান প্লাজা ২য় তলা ,ইউনিয়ন পরিষদের পাশে,,গ্রাম+ডাকঘর-কালির বাজার, সৈয়দ পুর রোড,থানা-আদর্শ সদর,জেলা-কুমিল্লা।","23.43277","91.0938697","Cumilla","Cumilla Sadar","Map"
"0583","Junction Bazar Laksam","001847371583","পাটোয়ারী হাউস, মোহাম্মদ অলিউল্লা পাটোয়ারী বাড়ি, হাউজ নং : ১০৫/ক, গ্রাম+ডাকঘর-নশরতপুর (দক্ষিণপাড়া) লাকসাম জংশন,থানা- লাকসাম, কুমিল্লা।","23.2461995","91.1194307","Cumilla","Laksam","Map"
"0584","Thakur Bazar, Shahrasti, Chandpur","001847371584","মোঃ সাইফুল ইসলাম মিনার, পিতাঃ সুলতান আহম্মেদ, খোরশেদা মঞ্জিল  ,হোল্ডিং নংঃ১২৮/৮১,ওয়ার্ড নংঃ০৮ উপজেলা রোড, নিজ মেহার, শাহরাস্তি , চাঁদপুর।","23.220119","90.949504","Chandpur","Sharasti","Map"
"0585","Jomidarhat Begumganj Noakhali","001847371585","বেলাল হোসেন ফতেহপুরী,পিতা:-মকবুল আহম্মেদ, গ্রাম: ফতেহপুর (আলাউদ্দিন বরকন্দাজ বাড়ী,ফতেহপুর মাদ্রাসার পাশে) ডাকঘর-জমিদারহাট-৩৮২৫,উপজেলা-বেগমগঞ্জ,জেলা-নোয়াখালী ।","22.9528625","91.1918607","Noakhali","Begumganj","Map"
"0586","Bajra Sonaimuri Noakhali","001847371586","মোঃ আহসানউল্যা, পিতা:-মৃত:শামছুলহক, গ্রাম:বগাদিয়া(আহসান ভিলা)উপজেলা পরিষদের দঃ পাশে) উপজেলা-সোনাইমুড়ী ,জেলা-নোয়াখালী।","23.0265781","91.0952587","Noakhali","Sonaimuri","Map"
"0587","Kashipur Homna Cumilla","001847371587","মহসিন মিয়ার বাড়ি. গ্রাম-কাঁশিপুর,ডাকঘর-কাঁশিপুর,থানা-হোমনা,জেলা-কুমিল্লা।","23.6598421","90.8513308","Cumilla","Homna","Map"
"0588","Salimabad-Bancharampur Brahmanbaria","001847371588","জাহাঙ্গির মার্কেট ২য়তলা সলিমাবাদ বাজার, গ্রাম-সলিমাবাদ ,ডাকঘর-বাঞ্চারামপুর,থানা- বাঞ্চারামপুর,জেলা-বি-বাড়িয়া।","23.7675799","90.8134855","Cumilla","Bancharampur","Map"
"0589","Madhaya Chandina Cumilla","001847371589","হাজী আবদুল জলিলের বাড়ি, বাস ষ্টেন্ড এর পাশ্বে, গ্রাম-সোনাপুর, ডাকঘর-মাধাইয়া,থানা-চান্দিনা,জেলা-কুমিল্লা।","23.5030633","90.9413559","Cumilla","Chandina","Map"
"0590","Rupnagar Dhaka","001847371590","বাড়ির মালিক- মোঃ রফিকুল ইসলাম, রুপনগর আবাসিক, রোড নং ৩২ ,বাসা নং -২০, মিরপুর , ঢাকা।","23.8190295","90.3558074","Dhaka","Pallabi","Map"
"0591","Fulgachtola Debidwar Cumilla (0591)","001847371591","বারেরা উত্তর পাড়া মসজিদ সংলগ্ন","23.596355","90.998068","Cumilla","Debidwar","Map"
"0592","Kasba, Brahmanbaria-0592 (কসবা, ব্রাহ্মণবাড়িয়া)","001847371592","ইমরান খানের বাড়ি, আড়াইবাড়ি রোড,আড়াইবাড়ি মাদ্রাসার পূর্ব পাশে , কসবা, ব্রাহ্মণবাড়িয়া।","23.752703","91.140282","ব্রাহ্মণবাড়িয়া","কসবা","Map"
"0593","Bertola Ashuganj Brahmanbaria (0593)","001847371593","khadiala Buss stop road,Ashuganj,Brahmanbaria","24.042822","91.058296","Brahmanbaria","Ashuganj","Map"
"0594","Balaganj Sylhet (0594)","001313452594","জামিয়া ইসলামিয়া ফিরোজাবাগ মাদ্রাসা সংলগ্ন,বালাগঞ্জ,সিলেট","24.655643","91.820688","Sylhet","Balaganj","Map"
"0595","Inathganj Habiganj (0595)","001313452595","মধ্যসমত মসজিদ সংলগ্ন, নবিগঞ্জ,হবিগঞ্জ","24.6587445","91.5589347","Hobiganj","Nobiganj","Map"
"0596","Shantiganj Sunamganj (0596)","001313452596","ডুংলিয়া রোড, শান্তিগঞ্জ,সুনামগঞ্জ","24.934561","91.409324","Shunamganj","Shantiganj","Map"
"0597","Derai Sunamganj (0597)","001313452597","হাস্পাতাল রোড বালুর মাঠ ধিরাই,সুনামগঞ্জ","24.7910642","91.3541994","Shunamganj","Derai","Map"
"0598","Barlekha Moulvibazar (0598)","001313452598","পাখিওয়ালা আখড়া সংলগ্ন, বড়লেখা,মৌলভীবাজার","24.696754","92.188117","Moulovi Bazar","Borolekha","Map"
"0599","Lauhati, Deldowar","01847371599","Lauhati, Deldowar, Tangail","24.077137","89.956430","Tangail","Delduar","Map"
"0600","Pakulla Deldowar Tangail","01847371600","পাকুল্লা,মির্জাপুর,টাঙ্গাইল","24.144005","90.019936","Tangail","Mirzapur","Map"
"0601","Takterchala Mirzapur Tangail","01847371601","তক্তারচালা বাজার,সখিপুর,টাঙ্গাইল","24.211776","90.173231","Tangail","Shakhipur","Map"
"0602","Barachowna Sakhipur Tangail","01847371602","সাত্তার সাহেবের বাসা,বড়চওনা,সখিপুর টাঙ্গাইল","24.391825","90.191331","Tangail","Shakhiipur","Map"
"0603","Garobazar Ghatail Tangail","01847371603","গারোবাজার মহিসমান সুনামগঞ্জ,মধুপুর টাঙ্গাইল।","24.545147","90.133155","Tangail","Madhupur","Map"
"0604","Boda, Panchagarh","001313452604","গ্রামঃ বাইপাস ফায়ার সার্ভিস মোড়, জামাতপাড়া, ডাকঘরঃ বোদা (৫০১০), উপজেলাঃ বোদা পৌরসভা, জেলাঃ পঞ্চগড়","26.19925343","88.56420018","Panchagarh","Boda","Map"
"0605","Debiganj, Panchagarh","001313452605","গ্রামঃ সবুজপাড়া ( ট্রাফিক মোড় হতে উত্তরে তোরাবচেয়ারম্যান মোড় ), ডাকঘরঃ দেবিগঞ্জ(৫০২০), উপজেলাঃ দেবীগঞ্জ পৌরসভা, জেলাঃ পঞ্চগড়","26.12529301","88.75685829","Panchagarh","Debiganj","Map"
"0606","Fulbaria-Debiganj  Panchagarh","001313452606","বীরকান্ত রায়, পিতাঃ অনিল চন্দ্র রায়, গ্রামঃ লক্ষী নারায়নী, ডাকঘরঃ সুন্দরদিঘী(৫০২০), উপজেলাঃ দেবীগঞ্জ, জেলাঃ পঞ্চগড় । মোবাইল নংঃ০১৭৭৪-০৩৪৮৮১","26.045352","88.655819","Panchagarh","Debigonj","Map"
"0607","Sadar Panchagarh","001313452607","মোঃ মোমেনুর রহমান প্রধান,  পিতাঃ  আলাউদ্দিন প্রধান, জালাসী বাজার সংলগ্ন, স্টেডিয়াম রোডের পশ্চিম পার্শ্বে, হোল্ডিং নং ০৭১৪-০১, জালাসী পাড়া, পঞ্চগড়-৫০০০, পঞ্চগড় সদর, পঞ্চগড়।","26.338700","88.566015","Panchagarh","Sadar","Map"
"0608","Atwari Panchagarh","001313452608","মুক্তিযোদ্ধা কমপ্লেক্স এর পাশে, আটোয়ারী সদর ,পঞ্চগড়।","26.230350469073784","88.41078565570989","Panchagarh","Atwari","Map"
"0609","Ruhea Thakurgaon","001313452609","গ্রাম : ঘনি বিষ্ণুপুর, পোস্ট: রুহি, উপজেলা: ঠাকুরগাঁও, জেলাঃ উপজেলা: ঠাকুরগাঁও","26.167172814142344","88.40977874208686","Thakurgaon","Sadar","Map"
"0610","Lahirhat, Thakurgaon","001313452610","গ্রামঃ লাহিড়ী ইক্ষু সেন্টার উত্তর পার্শে (ছোট সিঙ্গীয়া ) ডাকঘরঃ  লাহিড়ী (৫১৪১), উপজেলাঃ বালিয়াডাঙ্গী, জেলাঃ ঠাকুরগাঁও।","26.141648257028134","88.29906302333232","Thakurgaon","Baliadangi","Map"
"0611","Pirgonj Thakurgaon","001313452611","জামতলা, বঙ্গবন্ধু সড়ক, (রাণীশংকৈল রোড,)পীরগঞ্জ , ঠাকুরগাঁও","25.855197477061484","88.35458528352011","Thakurgaon","Pirgonj","Map"
"0612","Ranisankail, Thakurgaon","001313452612","মোঃ আসাদুজ্জজামান, পিতাঃ মৃত গিয়াস উদ্দীন, বাঁশবাড়ী,শান্তিপুর মোড়, কাঁঠালডাঙ্গী রোড, রাণীশংকৈল, ঠাকুরগাঁও। মোবাইল নংঃ ০১৭৫৭-৯৯০৪৮১","25.89902009","88.25219948","Thakurgaon","Ranisankail","Map"
"0613","Nekmorod-Ranisankail  Thakurgaon","001313452613","মোঃ রেজাউল ইসলাম, পিতাঃ মৃত ফয়েজ উদ্দিন, নেকমরদ কাতিহার রোড, বড় মসজিদের উত্তর পাশে, টাওয়ার পাড়া, নেকমরদ, রাণীশংকৈল, ঠাকুরগাঁও।","25.9813406","88.26706985","Thakurgaon","Ranisankail","Map"
"0614","Nachol Chapainawabganj (0614)","001313452614","ইসলামপুর মোড়,সুখান দিঘী,কলেজ রোড,বাড়ি নং-০১,নাচোল চাপাইনবাবগঞ্জ","24.732860125119533","88.41365553484097","Chapainawabganj","Nachol","Map"
"0632","Shambhupur, Bhairab - Kishoreganj","01313452632","মোঃ ইকবাল হোসেন, পিতার নাম মোঃ ওহিদুর রহমান। ঠিকানা- বাসা/ হোল্ডিং গ্রাম:- ভৈরবপুর উত্ত্পাড়া ষ্টেডিয়ামের পূর্ব পাশে, শম্ভুপুর, ভৈরব, কিশোরগঞ্জ।","24.067012","90.976339","Kishoreganj","Bhairab","Map"
"0633","Ghatakchar Madaripur","01313452633","নাম: মাজেদ ফরাজী। ঠিকানা- বাসা/ হোল্ডিং- মা হাজেরা মঞ্জিল, গ্রামঃদত্তের হাট, পোষ্ট দত্তকেন্দুয়া, থানা +জেলাঃ মাদারীপুর","23.1748717","90.1218668","Madaripur","Madaripur","Map"
"0634","Baluchar Bazar Munshiganj","01847371634","মো: আকরাম বাউল, পিতা: হাজী আ: সামাদ বাউল, বালুচর বাজার প্রাইম ব্যাংক সংলগ্ন, হাজী আঃ সামাদ বাউল শপিং কমপ্লেক্স (২য় তলা)। বালুচর বাজার, মোল্লাকান্দি, সিরাজদিখান, মুন্সিগঞ্জ","23.6098737","90.4185203","Munshiganj","Sirajdikhan","Map"
"0635","Nimtola Bazar, Sirajdikhan","01847371635","মো: ইমরান খান, পিতা: মো: আব্দুল হালিম খান, হযরত নিমুচাঁন শাহ কমপ্লেক্স, বরই হাজী, শিকারপুর, নিমতলা, সিরাজদিখান, মুন্সীগঞ্জ","23.6154378","90.3306995","Munshiganj","Sirajdikhan","Map"
"0636","Baligaon Bazar, Louhajang","01847371636","কাওছার হোসেন, পিতার নামঃ হাজী আব্দুল মান্নান,  তস্তিপূর, বালিগও, টংগীবাড়ী, মুন্সিগঞ্জ","23.4683979","90.2893079","Munshiganj","Louhajong","Map"
"0637","Kartikpur Bazar, Dhaka","01847371637","দেওয়ান হারুন অর রশিদ, পিতা-মৃতঃ মোঃ সদর আলী দেওয়ান, ৬১৫, ব্লক-এ, চরকুশাই/ মেইনরোড, কার্তিকপুর বাজার, দোহার, ঢাকা","23.6316314","90.0751925","Dhaka","Dohar","Map"
"0638","Bandura Bazar, Dhaka","01847371638","মোঃ ইয়াসিন মোল্লা, পিতা: আব্দুর রউফ মোল্লা, ১৪ মোল্লা বাড়ী ভাংগা মসজিদ রোড, নতুন বান্দুরা, হাসনাবাদ-১৩২১, নবাবগঞ্জ, ঢাকা।","23.6614391","90.1038527","Dhaka","Nawabganj","Map"
"0639","Stand Bazar Keraniganj","01847371639","স্ট্যান্ড বাজার, আলুকান্দা, কেরাণীগঞ্জ, ঢাকা","23.642788","90.415028","Dhaka","Keraniganj","Map"